{"type":"FeatureCollection","features":[{"type":"Feature","properties":{"nombre":"El Bosquecito","tipo":"Club o centro deportivo"},"geometry":{"type":"Point","coordinates":[-57.92812,-34.90514]}},{"type":"Feature","properties":{"nombre":"Centro de Salud N 38 - Barrio Savoia","tipo":"Hospital"},"geometry":{"type":"Point","coordinates":[-58.03359,-34.86326]}},{"type":"Feature","properties":{"nombre":"Centro de Salud N 28","tipo":"Hospital","descripcion":"Calle 491"},"geometry":{"type":"Point","coordinates":[-58.01874,-34.87281]}},{"type":"Feature","properties":{"nombre":"Poligono de tiro Isla Santiago","tipo":"Club o centro deportivo"},"geometry":{"type":"Point","coordinates":[-57.88281,-34.83284]}},{"type":"Feature","properties":{"nombre":"Gimnasio Poseidon","tipo":"Club o centro deportivo"},"geometry":{"type":"Point","coordinates":[-58.04903,-34.86754]}},{"type":"Feature","properties":{"nombre":"Argentino Juvenil Club","tipo":"Club o centro deportivo","descripcion":"Calle 473 y 19"},"geometry":{"type":"Point","coordinates":[-58.05048,-34.87768]}},{"type":"Feature","properties":{"nombre":"Unidad Sanitaria 19 De Berisso","tipo":"Centro de salud","descripcion":"Calle 124"},"geometry":{"type":"Point","coordinates":[-57.92238,-34.90719]}},{"type":"Feature","properties":{"nombre":"Club Astillero Río Santiago","tipo":"Club o centro deportivo"},"geometry":{"type":"Point","coordinates":[-57.90904,-34.86869]}},{"type":"Feature","properties":{"nombre":"Círculo Ensenadense de Ajedrez","tipo":"Club o centro deportivo"},"geometry":{"type":"Point","coordinates":[-57.9021,-34.86116]}},{"type":"Feature","properties":{"nombre":"Circuito MTB","tipo":"Club o centro deportivo"},"geometry":{"type":"Point","coordinates":[-57.87702,-35.00024]}},{"type":"Feature","properties":{"nombre":"Club Universitario (sede Ensenada)","tipo":"Club o centro deportivo"},"geometry":{"type":"Point","coordinates":[-57.97597,-34.81567]}},{"type":"Feature","properties":{"nombre":"Polígono de tiro","tipo":"Club o centro deportivo"},"geometry":{"type":"Point","coordinates":[-58.12482,-34.83718]}},{"type":"Feature","properties":{"nombre":"Polígono de tiro","tipo":"Club o centro deportivo"},"geometry":{"type":"Point","coordinates":[-58.12501,-34.83643]}},{"type":"Feature","properties":{"nombre":"Bomberos","tipo":"Bomberos"},"geometry":{"type":"Point","coordinates":[-58.01837,-34.88544]}},{"type":"Feature","properties":{"nombre":"Enfermería","tipo":"Hospital"},"geometry":{"type":"Point","coordinates":[-58.01829,-34.88538]}},{"type":"Feature","properties":{"nombre":"Bomberos de General Mansilla","tipo":"Bomberos","descripcion":"San Martín"},"geometry":{"type":"Point","coordinates":[-57.7462,-35.07911]}},{"type":"Feature","properties":{"nombre":"Sala de primeros auxilios","tipo":"Hospital","descripcion":"25 de Mayo"},"geometry":{"type":"Point","coordinates":[-57.7479,-35.08013]}},{"type":"Feature","properties":{"nombre":"Club 26 de Agosto","tipo":"Club o centro deportivo"},"geometry":{"type":"Point","coordinates":[-58.18854,-34.83596]}},{"type":"Feature","properties":{"nombre":"Bomberos Voluntarios de J. M. Gutiérrez","tipo":"Bomberos","descripcion":"Calle 455"},"geometry":{"type":"Point","coordinates":[-58.18874,-34.83252]}},{"type":"Feature","properties":{"nombre":"Rocha Salud","tipo":"Centro de salud","descripcion":"Diagonal 77 806"},"geometry":{"type":"Point","coordinates":[-57.9593,-34.91134]}},{"type":"Feature","properties":{"nombre":"Sala de Primeros Auxilios","tipo":"Centro de salud"},"geometry":{"type":"Point","coordinates":[-57.95009,-35.1847]}},{"type":"Feature","properties":{"nombre":"Clinica April Rehab Infantil 66","tipo":"Centro de salud","descripcion":"Plaza Italia 66"},"geometry":{"type":"Point","coordinates":[-57.95628,-34.91056]}},{"type":"Feature","properties":{"nombre":"Clinica La Plata - Oncología","tipo":"Centro de salud","descripcion":"Calle 42 612"},"geometry":{"type":"Point","coordinates":[-57.95778,-34.90937]}},{"type":"Feature","properties":{"nombre":"Clinica La Plata","tipo":"Centro de salud","descripcion":"Avenida 7 507"},"geometry":{"type":"Point","coordinates":[-57.95738,-34.90939]}},{"type":"Feature","properties":{"nombre":"Hospital Subzonal Especializado \"Elina De La Serna De Montes De Oca\"","tipo":"Hospital","descripcion":"Calle 8 483"},"geometry":{"type":"Point","coordinates":[-57.95934,-34.90965]}},{"type":"Feature","properties":{"nombre":"Clinica","tipo":"Centro de salud","descripcion":"Calle 55"},"geometry":{"type":"Point","coordinates":[-57.94783,-34.91871]}},{"type":"Feature","properties":{"nombre":"Centro de Salud N° 19","tipo":"Hospital"},"geometry":{"type":"Point","coordinates":[-57.88747,-34.95398]}},{"type":"Feature","properties":{"nombre":"Club Hípico La Plata","tipo":"Club o centro deportivo","descripcion":"Avenida 52"},"geometry":{"type":"Point","coordinates":[-57.93823,-34.90633]}},{"type":"Feature","properties":{"nombre":"Club Villa España","tipo":"Club o centro deportivo","descripcion":"Calle 151"},"geometry":{"type":"Point","coordinates":[-58.19582,-34.7718]}},{"type":"Feature","properties":{"nombre":"Sociedad de Fomento \"Guillermo Hudson (Pueblo Nuevo)\"","tipo":"Club o centro deportivo"},"geometry":{"type":"Point","coordinates":[-58.14801,-34.79141]}},{"type":"Feature","properties":{"nombre":"Hospital José Ingenieros","tipo":"Hospital"},"geometry":{"type":"Point","coordinates":[-58.04453,-34.93664]}},{"type":"Feature","properties":{"nombre":"Granja de Internación SADA","tipo":"Centro de salud"},"geometry":{"type":"Point","coordinates":[-58.04189,-34.935]}},{"type":"Feature","properties":{"nombre":"Bomberos","tipo":"Bomberos"},"geometry":{"type":"Point","coordinates":[-58.0857,-34.85034]}},{"type":"Feature","properties":{"nombre":"Hospital Reencuentro","tipo":"Hospital","descripcion":"Calle 64 591"},"geometry":{"type":"Point","coordinates":[-57.93688,-34.92394]}},{"type":"Feature","properties":{"nombre":"Hospital Subzonal Especializado \"Dr. Ramos Mejía\"","tipo":"Hospital","descripcion":"Calle 143"},"geometry":{"type":"Point","coordinates":[-58.01868,-34.92578]}},{"type":"Feature","properties":{"nombre":"Hospital Zonal Especializado En Cronicos El Dique","tipo":"Centro de salud","descripcion":"Calle 129"},"geometry":{"type":"Point","coordinates":[-57.92816,-34.89765]}},{"type":"Feature","properties":{"nombre":"Unidad Sanitaria N° 36","tipo":"Centro de salud"},"geometry":{"type":"Point","coordinates":[-58.18294,-34.80634]}},{"type":"Feature","properties":{"nombre":"Estación de Bomberos Cuartel Villa Elvira.","tipo":"Bomberos","descripcion":"Calle 116 92"},"geometry":{"type":"Point","coordinates":[-57.90038,-34.93784]}},{"type":"Feature","properties":{"nombre":"Clini Cardiologica","tipo":"Centro de salud","descripcion":"Calle 6"},"geometry":{"type":"Point","coordinates":[-57.96295,-34.90312]}},{"type":"Feature","properties":{"nombre":"Unidad de Pronta Atención (UPA)","tipo":"Hospital","descripcion":"Calle 153 1650"},"geometry":{"type":"Point","coordinates":[-57.98283,-34.96904]}},{"type":"Feature","properties":{"nombre":"CIC","tipo":"Centro de salud","descripcion":"126 y 43"},"geometry":{"type":"Point","coordinates":[-57.93836,-34.89327]}},{"type":"Feature","properties":{"nombre":"CAP Dr Pascual Giudice","tipo":"Centro de salud"},"geometry":{"type":"Point","coordinates":[-57.90668,-34.86005]}},{"type":"Feature","properties":{"nombre":"Unidad Sanitaria 41","tipo":"Centro de salud"},"geometry":{"type":"Point","coordinates":[-57.89119,-34.88348]}},{"type":"Feature","properties":{"nombre":"Sala de primeros auxilios n.° 11","tipo":"Hospital"},"geometry":{"type":"Point","coordinates":[-58.12413,-34.88603]}},{"type":"Feature","properties":{"nombre":"Centro Cultural y Polideportivo Los Hornos","tipo":"Club o centro deportivo","descripcion":"Avenida 66"},"geometry":{"type":"Point","coordinates":[-57.98199,-34.96852]}},{"type":"Feature","properties":{"nombre":"Consulta Medica - Los Hornos","tipo":"Centro de salud","descripcion":"Calle 149 1607"},"geometry":{"type":"Point","coordinates":[-57.97944,-34.96508]}},{"type":"Feature","properties":{"nombre":"Analisis Clínicos","tipo":"Centro de salud"},"geometry":{"type":"Point","coordinates":[-57.98243,-34.91074]}},{"type":"Feature","properties":{"nombre":"Laboratorio Celada","tipo":"Centro de salud"},"geometry":{"type":"Point","coordinates":[-57.97246,-34.93689]}},{"type":"Feature","properties":{"nombre":"Cirurgia Plastica & Estética","tipo":"Centro de salud","descripcion":"Avenida 44"},"geometry":{"type":"Point","coordinates":[-57.95752,-34.91294]}},{"type":"Feature","properties":{"nombre":"Centro Bioquimico","tipo":"Centro de salud","descripcion":"Avenida 44"},"geometry":{"type":"Point","coordinates":[-57.95246,-34.90832]}},{"type":"Feature","properties":{"nombre":"Construir Salud","tipo":"Centro de salud","descripcion":"Avenida 44"},"geometry":{"type":"Point","coordinates":[-57.95,-34.90563]}},{"type":"Feature","properties":{"nombre":"Terapia Radiante SA","tipo":"Centro de salud","descripcion":"Avenida 60 480"},"geometry":{"type":"Point","coordinates":[-57.93912,-34.91885]}},{"type":"Feature","properties":{"nombre":"Centro Entrenamiento Deportivo y Kinemiatría","tipo":"Centro de salud","descripcion":"Calle 2"},"geometry":{"type":"Point","coordinates":[-58.0116,-34.86687]}},{"type":"Feature","properties":{"nombre":"Cesalp","tipo":"Centro de salud","descripcion":"Calle 5"},"geometry":{"type":"Point","coordinates":[-57.94377,-34.91484]}},{"type":"Feature","properties":{"nombre":"Instituto Médico Mater Dei","tipo":"Centro de salud","descripcion":"Calle 45 915"},"geometry":{"type":"Point","coordinates":[-57.96084,-34.91751]}},{"type":"Feature","properties":{"nombre":"San Lucas","tipo":"Hospital"},"geometry":{"type":"Point","coordinates":[-58.03905,-34.99612]}},{"type":"Feature","properties":{"nombre":"Ambulancias La Plata","tipo":"Hospital","descripcion":"Avenida 38 986"},"geometry":{"type":"Point","coordinates":[-57.96998,-34.91304]}},{"type":"Feature","properties":{"nombre":"Unidad Sanitaria 12 de Berazategui","tipo":"Centro de salud","descripcion":"Calle 149 5401"},"geometry":{"type":"Point","coordinates":[-58.17251,-34.79732]}},{"type":"Feature","properties":{"nombre":"Unidad Sanitaria 2 Ana G. Gorini","tipo":"Centro de salud","descripcion":"Calle 159 5450"},"geometry":{"type":"Point","coordinates":[-58.1616,-34.7889]}},{"type":"Feature","properties":{"nombre":"Bomberos Voluntarios de Berisso","tipo":"Bomberos","descripcion":"Avenida 7 1932"},"geometry":{"type":"Point","coordinates":[-57.88881,-34.87005]}},{"type":"Feature","properties":{"nombre":"Bomberos Voluntarios de Centro Agrícola El Pato","tipo":"Bomberos","descripcion":"Calle 519"},"geometry":{"type":"Point","coordinates":[-58.17594,-34.88252]}},{"type":"Feature","properties":{"nombre":"Club de planeadores La Plata","tipo":"Club o centro deportivo"},"geometry":{"type":"Point","coordinates":[-58.09141,-35.09589]}},{"type":"Feature","properties":{"nombre":"Cenasma","tipo":"Centro de salud","descripcion":"Calle 15 1243"},"geometry":{"type":"Point","coordinates":[-57.95241,-34.92661]}},{"type":"Feature","properties":{"nombre":"Unidad Sanitaria 10 De Plátanos","tipo":"Centro de salud"},"geometry":{"type":"Point","coordinates":[-58.17597,-34.78321]}},{"type":"Feature","properties":{"nombre":"Unidad Sanitaria 25","tipo":"Centro de salud","descripcion":"Calle 58"},"geometry":{"type":"Point","coordinates":[-58.18846,-34.81707]}},{"type":"Feature","properties":{"nombre":"Unidad Sanitaria Barrio Mosconi","tipo":"Centro de salud"},"geometry":{"type":"Point","coordinates":[-57.91349,-34.87523]}},{"type":"Feature","properties":{"nombre":"Ente Descentralizado Hospital Integrado Region Sanitaria Xi","tipo":"Centro de salud"},"geometry":{"type":"Point","coordinates":[-57.90785,-34.86507]}},{"type":"Feature","properties":{"nombre":"Clinica De La Comunidad","tipo":"Hospital"},"geometry":{"type":"Point","coordinates":[-57.90593,-34.85818]}},{"type":"Feature","properties":{"nombre":"Clinica Instituto Medico De La Ribera","tipo":"Hospital","descripcion":"La Merced 286"},"geometry":{"type":"Point","coordinates":[-57.90432,-34.85973]}},{"type":"Feature","properties":{"nombre":"Instituto Medico Privado Alberti","tipo":"Hospital"},"geometry":{"type":"Point","coordinates":[-57.90329,-34.86187]}},{"type":"Feature","properties":{"nombre":"Unidad Sanitaria 1° De Mayo De Ensenada","tipo":"Centro de salud"},"geometry":{"type":"Point","coordinates":[-57.91817,-34.86307]}},{"type":"Feature","properties":{"nombre":"Unidad Sanitaria Malvinas Argentinas","tipo":"Centro de salud"},"geometry":{"type":"Point","coordinates":[-57.91852,-34.86059]}},{"type":"Feature","properties":{"nombre":"Unidad Sanitaria 80 De Ensenada","tipo":"Centro de salud"},"geometry":{"type":"Point","coordinates":[-57.94559,-34.88765]}},{"type":"Feature","properties":{"nombre":"Unidad Sanitaria 8 Isla Santiago De Ensenada","tipo":"Centro de salud"},"geometry":{"type":"Point","coordinates":[-57.88148,-34.83509]}},{"type":"Feature","properties":{"nombre":"Cic Ensenada","tipo":"Centro de salud"},"geometry":{"type":"Point","coordinates":[-57.95158,-34.88502]}},{"type":"Feature","properties":{"nombre":"Unidad Sanitaria 298 De Ensenada","tipo":"Centro de salud"},"geometry":{"type":"Point","coordinates":[-57.98446,-34.80578]}},{"type":"Feature","properties":{"nombre":"Unidad Sanitaria El Molino","tipo":"Centro de salud"},"geometry":{"type":"Point","coordinates":[-57.9428,-34.83839]}},{"type":"Feature","properties":{"nombre":"Unidad Sanitaria Ingeniero Allan","tipo":"Centro de salud"},"geometry":{"type":"Point","coordinates":[-58.1992,-34.86877]}},{"type":"Feature","properties":{"nombre":"Unidad Sanitaria 184 De Ensenada","tipo":"Centro de salud"},"geometry":{"type":"Point","coordinates":[-57.97801,-34.81416]}},{"type":"Feature","properties":{"nombre":"Unidad Sanitaria Escuela 18","tipo":"Centro de salud","descripcion":"Calle 175"},"geometry":{"type":"Point","coordinates":[-57.84838,-34.87795]}},{"type":"Feature","properties":{"nombre":"Unidad Sanitaria 44 Dr Ramon Carrillo","tipo":"Centro de salud"},"geometry":{"type":"Point","coordinates":[-57.90744,-34.92038]}},{"type":"Feature","properties":{"nombre":"Clinica Privada Enrique Mosconi","tipo":"Hospital","descripcion":"Calle 8 3419"},"geometry":{"type":"Point","coordinates":[-57.89324,-34.8769]}},{"type":"Feature","properties":{"nombre":"Unidad Sanitaria 43 De Berisso","tipo":"Centro de salud","descripcion":"Calle 145"},"geometry":{"type":"Point","coordinates":[-57.90456,-34.88832]}},{"type":"Feature","properties":{"nombre":"Unidad Sanitaria Odontologica Escolar","tipo":"Centro de salud","descripcion":"Lisboa 342"},"geometry":{"type":"Point","coordinates":[-57.88902,-34.86728]}},{"type":"Feature","properties":{"nombre":"Unidad Sanitaria 42","tipo":"Centro de salud"},"geometry":{"type":"Point","coordinates":[-57.86888,-34.88152]}},{"type":"Feature","properties":{"nombre":"Dispensario Tetamanti","tipo":"Centro de salud","descripcion":"Calle 166"},"geometry":{"type":"Point","coordinates":[-57.88925,-34.86722]}},{"type":"Feature","properties":{"nombre":"Centro De Salud Carolina Ii","tipo":"Centro de salud"},"geometry":{"type":"Point","coordinates":[-58.19589,-34.8228]}},{"type":"Feature","properties":{"nombre":"Instituto Medico Argentino De Berisso SA","tipo":"Hospital","descripcion":"Calle 12 4295"},"geometry":{"type":"Point","coordinates":[-57.88324,-34.87172]}},{"type":"Feature","properties":{"nombre":"Unidad Sanitaria N 16","tipo":"Centro de salud"},"geometry":{"type":"Point","coordinates":[-57.85788,-34.88193]}},{"type":"Feature","properties":{"nombre":"Unidad Sanitaria N 17","tipo":"Centro de salud"},"geometry":{"type":"Point","coordinates":[-57.84551,-34.88635]}},{"type":"Feature","properties":{"nombre":"Unidad Sanitaria Doctor Arturo Oñativia Barrio El Parque","tipo":"Centro de salud"},"geometry":{"type":"Point","coordinates":[-58.18694,-34.86395]}},{"type":"Feature","properties":{"nombre":"Unidad Sanitaria 6 De Berazategui","tipo":"Centro de salud","descripcion":"Calle 160"},"geometry":{"type":"Point","coordinates":[-58.18463,-34.76878]}},{"type":"Feature","properties":{"nombre":"Unidad Sanitaria 5","tipo":"Centro de salud","descripcion":"Calle 159 B"},"geometry":{"type":"Point","coordinates":[-58.19015,-34.7642]}},{"type":"Feature","properties":{"nombre":"Unidad Sanitaria 33","tipo":"Centro de salud","descripcion":"Calle 161"},"geometry":{"type":"Point","coordinates":[-58.17022,-34.78075]}},{"type":"Feature","properties":{"nombre":"Unidad Sanitaria 23","tipo":"Centro de salud","descripcion":"Calle 165"},"geometry":{"type":"Point","coordinates":[-58.15,-34.78854]}},{"type":"Feature","properties":{"nombre":"Unidad Sanitaria 14 Villa España","tipo":"Centro de salud"},"geometry":{"type":"Point","coordinates":[-58.18825,-34.77891]}},{"type":"Feature","properties":{"nombre":"Unidad Sanitaria 27 de Berazategui","tipo":"Centro de salud"},"geometry":{"type":"Point","coordinates":[-58.19105,-34.80739]}},{"type":"Feature","properties":{"nombre":"Unidad Sanitaria 29 de Berazategui","tipo":"Centro de salud"},"geometry":{"type":"Point","coordinates":[-58.18778,-34.78885]}},{"type":"Feature","properties":{"nombre":"Bomberos","tipo":"Bomberos"},"geometry":{"type":"Point","coordinates":[-58.0001,-34.92983]}},{"type":"Feature","properties":{"nombre":"Centro Olmos Salud","tipo":"Hospital"},"geometry":{"type":"Point","coordinates":[-58.02017,-34.9694]}},{"type":"Feature","properties":{"nombre":"Sanatorio Médico Los Tilos","tipo":"Centro de salud","descripcion":"Calle 41 347"},"geometry":{"type":"Point","coordinates":[-57.95353,-34.90329]}},{"type":"Feature","properties":{"nombre":"Clínica breast","tipo":"Centro de salud","descripcion":"Avenida 7 430"},"geometry":{"type":"Point","coordinates":[-57.95903,-34.90763]}},{"type":"Feature","properties":{"tipo":"Centro de salud","descripcion":"Avenida 7 430"},"geometry":{"type":"Point","coordinates":[-57.9613,-34.90648]}},{"type":"Feature","properties":{"nombre":"Bomberos Voluntarios El Peligro","tipo":"Bomberos","descripcion":"Calle 423"},"geometry":{"type":"Point","coordinates":[-58.17036,-34.94015]}},{"type":"Feature","properties":{"nombre":"Clinica Dinatos","tipo":"Centro de salud"},"geometry":{"type":"Point","coordinates":[-58.02069,-34.9025]}},{"type":"Feature","properties":{"nombre":"Nefra","tipo":"Centro de salud","descripcion":"Calle 31 1480"},"geometry":{"type":"Point","coordinates":[-57.96316,-34.94537]}},{"type":"Feature","properties":{"nombre":"Hospital de día Reencuentro - Anexo","tipo":"Hospital","descripcion":"Calle 64 525"},"geometry":{"type":"Point","coordinates":[-57.93563,-34.92279]}},{"type":"Feature","properties":{"nombre":"Centro Médico Riomédica IOMA","tipo":"Centro de salud","descripcion":"Avenida 38 556"},"geometry":{"type":"Point","coordinates":[-57.96107,-34.9049]}},{"type":"Feature","properties":{"nombre":"Hospital Interzonal General de Agudos \"San Roque\"","tipo":"Hospital","descripcion":"Calle 508"},"geometry":{"type":"Point","coordinates":[-58.00722,-34.89154]}},{"type":"Feature","properties":{"nombre":"Hospital Italiano de La Plata","tipo":"Hospital","descripcion":"Avenida 51 1725"},"geometry":{"type":"Point","coordinates":[-57.9725,-34.93613]}},{"type":"Feature","properties":{"nombre":"Instituto de Hemoterapia de La Plata","tipo":"Hospital","descripcion":"Calle 15"},"geometry":{"type":"Point","coordinates":[-57.9431,-34.93308]}},{"type":"Feature","properties":{"nombre":"Hospital Interzonal de Agudos Especializados en Pediatría Sor María Ludovica","tipo":"Hospital","descripcion":"Calle 14 1631"},"geometry":{"type":"Point","coordinates":[-57.9431,-34.93244]}},{"type":"Feature","properties":{"nombre":"Autódromo Roberto Mouras","tipo":"Club o centro deportivo"},"geometry":{"type":"Point","coordinates":[-58.18073,-34.97823]}},{"type":"Feature","properties":{"nombre":"La Plata Rugby Club","tipo":"Club o centro deportivo"},"geometry":{"type":"Point","coordinates":[-58.01964,-34.87878]}},{"type":"Feature","properties":{"nombre":"Club Universitario La Plata","tipo":"Club o centro deportivo"},"geometry":{"type":"Point","coordinates":[-58.01479,-34.88021]}},{"type":"Feature","properties":{"nombre":"Campo de deportes de la Escuela Técnica N°8","tipo":"Club o centro deportivo"},"geometry":{"type":"Point","coordinates":[-57.97558,-34.89838]}},{"type":"Feature","properties":{"nombre":"San Luis Rugby Club","tipo":"Club o centro deportivo","descripcion":"Avenida 520"},"geometry":{"type":"Point","coordinates":[-58.003,-34.91092]}},{"type":"Feature","properties":{"nombre":"Albatros Rugby Club","tipo":"Club o centro deportivo"},"geometry":{"type":"Point","coordinates":[-58.01806,-34.91331]}},{"type":"Feature","properties":{"nombre":"Club Villa Albino","tipo":"Club o centro deportivo"},"geometry":{"type":"Point","coordinates":[-57.90666,-34.87155]}},{"type":"Feature","properties":{"nombre":"Hospital Zonal General Agudos Horacio Cestino","tipo":"Hospital"},"geometry":{"type":"Point","coordinates":[-57.90709,-34.8606]}},{"type":"Feature","properties":{"nombre":"Club Atlético Everton","tipo":"Club o centro deportivo"},"geometry":{"type":"Point","coordinates":[-58.049,-34.94469]}},{"type":"Feature","properties":{"nombre":"Hospital Doctor Alejandro Korn","tipo":"Hospital"},"geometry":{"type":"Point","coordinates":[-58.05254,-34.95565]}},{"type":"Feature","properties":{"nombre":"Club Estudiantes de la Plata","tipo":"Club o centro deportivo"},"geometry":{"type":"Point","coordinates":[-57.94787,-34.91688]}},{"type":"Feature","properties":{"nombre":"Club Social y Deportivo Villa Elisa","tipo":"Club o centro deportivo"},"geometry":{"type":"Point","coordinates":[-58.08844,-34.84953]}},{"type":"Feature","properties":{"nombre":"Polideportivo Municipal","tipo":"Club o centro deportivo"},"geometry":{"type":"Point","coordinates":[-57.90067,-34.86259]}},{"type":"Feature","properties":{"nombre":"La Montonera","tipo":"Club o centro deportivo"},"geometry":{"type":"Point","coordinates":[-57.91815,-34.8672]}},{"type":"Feature","properties":{"nombre":"Club Deportivo Villa Elisa","tipo":"Club o centro deportivo"},"geometry":{"type":"Point","coordinates":[-58.08576,-34.8523]}},{"type":"Feature","properties":{"nombre":"Hospital Zonal Especializado \"Dr. Noel H. Sbarra\"","tipo":"Hospital","descripcion":"Calle 8 1689"},"geometry":{"type":"Point","coordinates":[-57.93517,-34.92768]}},{"type":"Feature","properties":{"nombre":"Unidad Sanitaria 3","tipo":"Centro de salud","descripcion":"Calle 457a"},"geometry":{"type":"Point","coordinates":[-58.18177,-34.83226]}},{"type":"Feature","properties":{"nombre":"Circuito de ciclismo Argentino Rios","tipo":"Club o centro deportivo"},"geometry":{"type":"Point","coordinates":[-58.1813,-34.82992]}},{"type":"Feature","properties":{"nombre":"Las Hermanas","tipo":"Club o centro deportivo"},"geometry":{"type":"Point","coordinates":[-58.18031,-34.82976]}},{"type":"Feature","properties":{"nombre":"Polideportivo Nro 3 de Berazategui","tipo":"Club o centro deportivo"},"geometry":{"type":"Point","coordinates":[-58.19053,-34.82827]}},{"type":"Feature","properties":{"nombre":"Diego Rivera Club Urbano","tipo":"Club o centro deportivo"},"geometry":{"type":"Point","coordinates":[-57.98601,-34.89667]}},{"type":"Feature","properties":{"nombre":"Club Atlético City Bell","tipo":"Club o centro deportivo"},"geometry":{"type":"Point","coordinates":[-58.04476,-34.86898]}},{"type":"Feature","properties":{"nombre":"Club de Gimnasia y Esgrima La Plata","tipo":"Club o centro deportivo","descripcion":"Calle 4 979"},"geometry":{"type":"Point","coordinates":[-57.94566,-34.91323]}},{"type":"Feature","properties":{"nombre":"Hipódromo de La Plata","tipo":"Club o centro deportivo"},"geometry":{"type":"Point","coordinates":[-57.94332,-34.90097]}},{"type":"Feature","properties":{"nombre":"CAPS 15","tipo":"Hospital"},"geometry":{"type":"Point","coordinates":[-57.97275,-34.88107]}},{"type":"Feature","properties":{"nombre":"Club Hípico y de Golf City Bell","tipo":"Club o centro deportivo"},"geometry":{"type":"Point","coordinates":[-58.04497,-34.85796]}},{"type":"Feature","properties":{"nombre":"Curuzú Cuatiá","tipo":"Club o centro deportivo"},"geometry":{"type":"Point","coordinates":[-58.1001,-34.85883]}},{"type":"Feature","properties":{"nombre":"Club Estudiantes de La Plata","tipo":"Club o centro deportivo"},"geometry":{"type":"Point","coordinates":[-57.93956,-34.91136]}},{"type":"Feature","properties":{"nombre":"Hospital Rossi","tipo":"Hospital","descripcion":"Calle 37 183"},"geometry":{"type":"Point","coordinates":[-57.95509,-34.89654]}},{"type":"Feature","properties":{"nombre":"Sala Médica \"Arturo Oñativia\"","tipo":"Centro de salud"},"geometry":{"type":"Point","coordinates":[-58.18693,-34.86394]}},{"type":"Feature","properties":{"nombre":"Hospital San Juan de Dios","tipo":"Hospital","descripcion":"Calle 27"},"geometry":{"type":"Point","coordinates":[-57.94919,-34.94756]}},{"type":"Feature","properties":{"nombre":"Hospital General San Martín","tipo":"Hospital","descripcion":"Avenida 1 1791"},"geometry":{"type":"Point","coordinates":[-57.92298,-34.92273]}},{"type":"Feature","properties":{"nombre":"Club San Jorge","tipo":"Club o centro deportivo","descripcion":"Calle 424"},"geometry":{"type":"Point","coordinates":[-58.07459,-34.85967]}},{"type":"Feature","properties":{"nombre":"UPA 10 - Berazategui","tipo":"Hospital","descripcion":"Avenida Otto Bemberg 147"},"geometry":{"type":"Point","coordinates":[-58.17499,-34.79968]}},{"type":"Feature","properties":{"nombre":"Hospital Español de La Plata","tipo":"Hospital","descripcion":"Calle 9 175"},"geometry":{"type":"Point","coordinates":[-57.96731,-34.90569]}},{"type":"Feature","properties":{"nombre":"Club Infantil y Juvenil General San Martín","tipo":"Club o centro deportivo","descripcion":"Avenida 7 861"},"geometry":{"type":"Point","coordinates":[-57.97838,-34.8931]}},{"type":"Feature","properties":{"nombre":"Higea","tipo":"Centro de salud","descripcion":"Calle 28"},"geometry":{"type":"Point","coordinates":[-57.97864,-34.92921]}},{"type":"Feature","properties":{"nombre":"Challenger","tipo":"Club o centro deportivo","descripcion":"Avenida 137"},"geometry":{"type":"Point","coordinates":[-57.99307,-34.93485]}},{"type":"Feature","properties":{"nombre":"Centro de Salud","tipo":"Centro de salud"},"geometry":{"type":"Point","coordinates":[-57.9935,-34.91203]}},{"type":"Feature","properties":{"nombre":"El Vagon","tipo":"Club o centro deportivo"},"geometry":{"type":"Point","coordinates":[-57.97346,-34.93904]}},{"type":"Feature","properties":{"nombre":"Club Atenas","tipo":"Club o centro deportivo"},"geometry":{"type":"Point","coordinates":[-57.94974,-34.92547]}},{"type":"Feature","properties":{"nombre":"Asociación Coronel Brandsen","tipo":"Club o centro deportivo"},"geometry":{"type":"Point","coordinates":[-57.95874,-34.93626]}},{"type":"Feature","properties":{"nombre":"Futbol 6","tipo":"Club o centro deportivo"},"geometry":{"type":"Point","coordinates":[-57.95824,-34.95053]}},{"type":"Feature","properties":{"nombre":"Complejo Puelo","tipo":"Club o centro deportivo"},"geometry":{"type":"Point","coordinates":[-57.95759,-34.94009]}},{"type":"Feature","properties":{"nombre":"Analisis Clinicos","tipo":"Centro de salud"},"geometry":{"type":"Point","coordinates":[-57.95249,-34.94982]}},{"type":"Feature","properties":{"nombre":"Centro Diagnóstico Mon","tipo":"Hospital","descripcion":"Avenida 7 1486"},"geometry":{"type":"Point","coordinates":[-57.93838,-34.92309]}},{"type":"Feature","properties":{"nombre":"Gimnasio Futbol 5","tipo":"Club o centro deportivo","descripcion":"Avenida 1"},"geometry":{"type":"Point","coordinates":[-57.93502,-34.91589]}},{"type":"Feature","properties":{"nombre":"Club Atlético América","tipo":"Club o centro deportivo","descripcion":"Avenida 66"},"geometry":{"type":"Point","coordinates":[-57.92275,-34.91536]}},{"type":"Feature","properties":{"nombre":"El Templo","tipo":"Club o centro deportivo","descripcion":"Avenida 66"},"geometry":{"type":"Point","coordinates":[-57.92195,-34.91384]}},{"type":"Feature","properties":{"nombre":"Estadio Canchas Deportivas","tipo":"Club o centro deportivo","descripcion":"Avenida 7"},"geometry":{"type":"Point","coordinates":[-57.94292,-34.91927]}},{"type":"Feature","properties":{"nombre":"IOMA Policonsultorio","tipo":"Hospital","descripcion":"Diagonal 80"},"geometry":{"type":"Point","coordinates":[-57.94886,-34.90454]}},{"type":"Feature","properties":{"nombre":"La Red","tipo":"Club o centro deportivo","descripcion":"Calle 53"},"geometry":{"type":"Point","coordinates":[-58.19349,-34.8174]}},{"type":"Feature","properties":{"nombre":"Centro de Salud N° 4 - Villa Elisa","tipo":"Hospital"},"geometry":{"type":"Point","coordinates":[-58.08057,-34.85342]}},{"type":"Feature","properties":{"nombre":"Unidad Sanitaria Campamento","tipo":"Hospital"},"geometry":{"type":"Point","coordinates":[-57.89587,-34.85839]}},{"type":"Feature","properties":{"nombre":"Bomberos Juan Maria Gutiérrez","tipo":"Bomberos","descripcion":"Camino General Belgrano"},"geometry":{"type":"Point","coordinates":[-58.17786,-34.82962]}},{"type":"Feature","properties":{"tipo":"Bomberos","descripcion":"Diagonal Lisandro de la Torre"},"geometry":{"type":"Point","coordinates":[-58.15844,-34.78955]}},{"type":"Feature","properties":{"nombre":"Bomberos Voluntarios de Florencio Varela - Destacamento Ingeniero Allan","tipo":"Bomberos"},"geometry":{"type":"Point","coordinates":[-58.19002,-34.87031]}},{"type":"Feature","properties":{"nombre":"Las Candelarias","tipo":"Club o centro deportivo"},"geometry":{"type":"Point","coordinates":[-58.10389,-34.85577]}},{"type":"Feature","properties":{"nombre":"Tiro Federal Berisso (Pedanas)","tipo":"Club o centro deportivo"},"geometry":{"type":"Point","coordinates":[-57.91034,-34.89321]}},{"type":"Feature","properties":{"nombre":"Club Atlético Cultural y Fomento City Bell","tipo":"Club o centro deportivo","descripcion":"Calle 473 e/ Diagonal 3 y 13 c"},"geometry":{"type":"Point","coordinates":[-58.04495,-34.86895]}},{"type":"Feature","properties":{"nombre":"Sanatorio San José de Villa Elisa","tipo":"Hospital","descripcion":"Calle 55 801"},"geometry":{"type":"Point","coordinates":[-58.09368,-34.85214]}},{"type":"Feature","properties":{"nombre":"Kitesurfing y windsurfing","tipo":"Club o centro deportivo"},"geometry":{"type":"Point","coordinates":[-57.95894,-34.82453]}},{"type":"Feature","properties":{"nombre":"Santa Bárbara Hockey Club","tipo":"Club o centro deportivo"},"geometry":{"type":"Point","coordinates":[-58.02329,-34.87681]}},{"type":"Feature","properties":{"nombre":"Campo de deportes de la Asociación de Sordomudos La Plata","tipo":"Club o centro deportivo"},"geometry":{"type":"Point","coordinates":[-58.02412,-34.87875]}},{"type":"Feature","properties":{"nombre":"El Molino Lawn Tennis","tipo":"Club o centro deportivo","descripcion":"Calle 482 3070"},"geometry":{"type":"Point","coordinates":[-58.04237,-34.88795]}},{"type":"Feature","properties":{"nombre":"Los Troncos Fútbol 5","tipo":"Club o centro deportivo","descripcion":"Calle 25"},"geometry":{"type":"Point","coordinates":[-58.0421,-34.88751]}},{"type":"Feature","properties":{"nombre":"Unidad Sanitaria Villa Tranquila","tipo":"Centro de salud","descripcion":"Liniers"},"geometry":{"type":"Point","coordinates":[-57.92117,-34.85437]}},{"type":"Feature","properties":{"nombre":"Club de tenis Quadra","tipo":"Club o centro deportivo","descripcion":"Calle 491"},"geometry":{"type":"Point","coordinates":[-58.01878,-34.87209]}},{"type":"Feature","properties":{"nombre":"Agrupación Deportiva Infantil Platense","tipo":"Club o centro deportivo","descripcion":"Calle 485"},"geometry":{"type":"Point","coordinates":[-58.02398,-34.86866]}},{"type":"Feature","properties":{"nombre":"Club Racing de Bavio","tipo":"Club o centro deportivo"},"geometry":{"type":"Point","coordinates":[-57.74526,-35.08437]}},{"type":"Feature","properties":{"nombre":"Club Porteño Sede","tipo":"Club o centro deportivo","descripcion":"Herminio Masantonio"},"geometry":{"type":"Point","coordinates":[-57.90821,-34.87275]}},{"type":"Feature","properties":{"nombre":"Cuna de Dragones","tipo":"Club o centro deportivo"},"geometry":{"type":"Point","coordinates":[-58.08345,-34.85174]}},{"type":"Feature","properties":{"nombre":"Hospital Zonal General Agudos Doctor Larrain","tipo":"Hospital","descripcion":"Calle 5 4435"},"geometry":{"type":"Point","coordinates":[-57.88912,-34.86679]}},{"type":"Feature","properties":{"nombre":"Unidad Sanitaria 11","tipo":"Centro de salud"},"geometry":{"type":"Point","coordinates":[-58.17344,-34.87789]}},{"type":"Feature","properties":{"nombre":"Unidad Sanitaria 28 Javier Fartes","tipo":"Centro de salud"},"geometry":{"type":"Point","coordinates":[-58.16967,-34.8262]}},{"type":"Feature","properties":{"nombre":"Centro De Dia","tipo":"Centro de salud"},"geometry":{"type":"Point","coordinates":[-58.19093,-34.80674]}},{"type":"Feature","properties":{"nombre":"Bomberos Voluntarios De Punta Lara","tipo":"Bomberos","descripcion":"Calle 94"},"geometry":{"type":"Point","coordinates":[-57.98059,-34.81324]}},{"type":"Feature","properties":{"nombre":"Los Dragones","tipo":"Club o centro deportivo"},"geometry":{"type":"Point","coordinates":[-58.0772,-34.84766]}},{"type":"Feature","properties":{"nombre":"Campo Recreativo Pasteleros","tipo":"Club o centro deportivo"},"geometry":{"type":"Point","coordinates":[-58.0619,-34.85814]}},{"type":"Feature","properties":{"nombre":"D","tipo":"Club o centro deportivo"},"geometry":{"type":"Point","coordinates":[-57.93154,-34.89926]}},{"type":"Feature","properties":{"nombre":"Sancor Salud","tipo":"Hospital"},"geometry":{"type":"Point","coordinates":[-57.9547,-34.92334]}},{"type":"Feature","properties":{"nombre":"Sanatorio Ipensa","tipo":"Hospital","descripcion":"Calle 59 434"},"geometry":{"type":"Point","coordinates":[-57.93914,-34.9172]}},{"type":"Feature","properties":{"nombre":"Instituto Medico Mater Dei","tipo":"Hospital","descripcion":"Calle 45 915"},"geometry":{"type":"Point","coordinates":[-57.96083,-34.91744]}},{"type":"Feature","properties":{"nombre":"CIMED - Diagnóstico por Imágenes","tipo":"Hospital"},"geometry":{"type":"Point","coordinates":[-57.95718,-34.90549]}},{"type":"Feature","properties":{"nombre":"Sanatorio Argentino","tipo":"Hospital","descripcion":"Calle 56 874"},"geometry":{"type":"Point","coordinates":[-57.95099,-34.92311]}},{"type":"Feature","properties":{"nombre":"Instituto Médico Platense","tipo":"Hospital","descripcion":"Calle 51 315"},"geometry":{"type":"Point","coordinates":[-57.94391,-34.90971]}},{"type":"Feature","properties":{"nombre":"Hospital Zonal General de Agudos “Dr. Ricardo Gutiérrez”","tipo":"Hospital","descripcion":"Diagonal 114"},"geometry":{"type":"Point","coordinates":[-57.94778,-34.8956]}},{"type":"Feature","properties":{"nombre":"Asociación social y deportiva El Pato","tipo":"Club o centro deportivo"},"geometry":{"type":"Point","coordinates":[-58.17594,-34.88722]}},{"type":"Feature","properties":{"nombre":"Club Banco Provincia de City Bell","tipo":"Club o centro deportivo","descripcion":"Calle 476 e/ 20 y 21"},"geometry":{"type":"Point","coordinates":[-58.04854,-34.88063]}},{"type":"Feature","properties":{"nombre":"Club Banco Provincia de City Bell","tipo":"Club o centro deportivo","descripcion":"Calle 476 e/ 20 y 21"},"geometry":{"type":"Point","coordinates":[-58.04702,-34.88129]}},{"type":"Feature","properties":{"nombre":"Sinamec Centro Médico Olmos","tipo":"Centro de salud","descripcion":"Avenida 44 5081"},"geometry":{"type":"Point","coordinates":[-58.04802,-34.99476]}},{"type":"Feature","properties":{"nombre":"Club Atlético y Social Racing de Bavio","tipo":"Club o centro deportivo"},"geometry":{"type":"Point","coordinates":[-57.75151,-35.07969]}},{"type":"Feature","properties":{"nombre":"UPA 6 - Los Hornos","tipo":"Hospital"},"geometry":{"type":"Point","coordinates":[-57.98279,-34.96889]}},{"type":"Feature","properties":{"nombre":"Althea Clinica Privada","tipo":"Hospital"},"geometry":{"type":"Point","coordinates":[-57.91861,-34.9367]}},{"type":"Feature","properties":{"nombre":"Centro Médico Berisso","tipo":"Hospital","descripcion":"Avenida 122 1774"},"geometry":{"type":"Point","coordinates":[-57.91704,-34.91434]}},{"type":"Feature","properties":{"nombre":"Nueva Clínica del Niño","tipo":"Hospital","descripcion":"Calle 63 763"},"geometry":{"type":"Point","coordinates":[-57.94172,-34.92642]}},{"type":"Feature","properties":{"nombre":"Consultorios Canedo","tipo":"Hospital","descripcion":"Calle 17 1099"},"geometry":{"type":"Point","coordinates":[-58.05609,-34.87257]}},{"type":"Feature","properties":{"nombre":"iMel Instituto Laboral","tipo":"Hospital"},"geometry":{"type":"Point","coordinates":[-57.90605,-34.85654]}},{"type":"Feature","properties":{"nombre":"Medicina para la Mujer","tipo":"Hospital","descripcion":"Diagonal 74 2092"},"geometry":{"type":"Point","coordinates":[-57.954,-34.92667]}},{"type":"Feature","properties":{"nombre":"Centro Medico Laboral La Plata SRL","tipo":"Hospital","descripcion":"Calle 2 1195"},"geometry":{"type":"Point","coordinates":[-57.93996,-34.91382]}},{"type":"Feature","properties":{"nombre":"Centro Médico de Diagnóstico City Bell","tipo":"Hospital"},"geometry":{"type":"Point","coordinates":[-58.04415,-34.87224]}},{"type":"Feature","properties":{"nombre":"CIEN Centro de Imágenes","tipo":"Hospital"},"geometry":{"type":"Point","coordinates":[-57.905,-34.86009]}},{"type":"Feature","properties":{"nombre":"CyTEC - Centro de Diagnóstico por Imágenes","tipo":"Hospital","descripcion":"Calle 8 607"},"geometry":{"type":"Point","coordinates":[-57.95621,-34.91192]}},{"type":"Feature","properties":{"nombre":"Empet","tipo":"Hospital","descripcion":"Avenida 7 1586"},"geometry":{"type":"Point","coordinates":[-57.936,-34.92471]}},{"type":"Feature","properties":{"nombre":"Diaude - Diagnóstico por Imágenes | La Plata","tipo":"Hospital","descripcion":"Calle 70 343"},"geometry":{"type":"Point","coordinates":[-57.92508,-34.9244]}},{"type":"Feature","properties":{"nombre":"Consultorio Bavio Salud","tipo":"Hospital","descripcion":"25 de Mayo 3039"},"geometry":{"type":"Point","coordinates":[-57.74506,-35.08205]}},{"type":"Feature","properties":{"nombre":"Instituto de Diagnóstico de La Plata SA","tipo":"Hospital","descripcion":"Calle 62 370"},"geometry":{"type":"Point","coordinates":[-57.93449,-34.91845]}},{"type":"Feature","properties":{"nombre":"Uma Unidad Medica","tipo":"Hospital","descripcion":"Calle 191 825-849"},"geometry":{"type":"Point","coordinates":[-58.03728,-34.99423]}},{"type":"Feature","properties":{"nombre":"CRM Centro de Referencias Médicas","tipo":"Centro de salud","descripcion":"Calle 8 620"},"geometry":{"type":"Point","coordinates":[-57.95582,-34.91186]}},{"type":"Feature","properties":{"nombre":"Sinamec Diagnóstico por imágenes","tipo":"Centro de salud"},"geometry":{"type":"Point","coordinates":[-58.04913,-34.99492]}},{"type":"Feature","properties":{"nombre":"Consultorio Gastroenterólogico Platense","tipo":"Hospital","descripcion":"Calle 3 1096"},"geometry":{"type":"Point","coordinates":[-57.94235,-34.91337]}},{"type":"Feature","properties":{"nombre":"IMAR - Instituto Médico Argentino de Rehabilitación","tipo":"Centro de salud","descripcion":"Calle 42 381"},"geometry":{"type":"Point","coordinates":[-57.95321,-34.9048]}},{"type":"Feature","properties":{"nombre":"Clínica Privada de Excelencia Médica","tipo":"Centro de salud","descripcion":"Calle 4 1074"},"geometry":{"type":"Point","coordinates":[-57.94366,-34.91405]}},{"type":"Feature","properties":{"nombre":"CEPOT","tipo":"Centro de salud","descripcion":"Calle 55 536"},"geometry":{"type":"Point","coordinates":[-57.9449,-34.9161]}},{"type":"Feature","properties":{"nombre":"Federación Patronal ART","tipo":"Centro de salud"},"geometry":{"type":"Point","coordinates":[-57.95334,-34.91875]}},{"type":"Feature","properties":{"nombre":"Clínica de Cirugía Plástica Dr. Carlos D. Lo Brutto","tipo":"Centro de salud","descripcion":"Avenida 1 1057"},"geometry":{"type":"Point","coordinates":[-57.94087,-34.91154]}},{"type":"Feature","properties":{"nombre":"Club Atlético Villa San Carlos","tipo":"Club o centro deportivo","descripcion":"Calle 173"},"geometry":{"type":"Point","coordinates":[-57.86202,-34.87336]}},{"type":"Feature","properties":{"nombre":"Club de Gimnasia y Esgrima La Plata","tipo":"Club o centro deportivo"},"geometry":{"type":"Point","coordinates":[-57.93214,-34.91143]}},{"type":"Feature","properties":{"nombre":"Cuartel central de bomberos voluntarios de Ensenada","tipo":"Bomberos","descripcion":"San Martín"},"geometry":{"type":"Point","coordinates":[-57.90536,-34.86177]}}]}