{"type":"FeatureCollection","features":[{"type":"Feature","properties":{"nombre":"Astillero Río Santiago","descripcion":"Zona industrial"},"geometry":{"type":"MultiPolygon","coordinates":[[[[-57.90972,-34.84557],[-57.91002,-34.84696],[-57.90999,-34.84749],[-57.91015,-34.84817],[-57.91022,-34.84845],[-57.91021,-34.84878],[-57.91014,-34.84942],[-57.91002,-34.8498],[-57.90993,-34.84996],[-57.90866,-34.85066],[-57.90825,-34.85084],[-57.90795,-34.85407],[-57.90618,-34.85544],[-57.90608,-34.85536],[-57.90484,-34.85636],[-57.90464,-34.85643],[-57.90436,-34.85651],[-57.9043,-34.85651],[-57.90308,-34.85551],[-57.90186,-34.85461],[-57.90169,-34.85449],[-57.90144,-34.85431],[-57.89932,-34.85266],[-57.90011,-34.85215],[-57.89681,-34.84879],[-57.89692,-34.84872],[-57.89744,-34.84869],[-57.89763,-34.8475],[-57.89773,-34.84748],[-57.89771,-34.84735],[-57.90454,-34.84621],[-57.90648,-34.84619],[-57.90972,-34.84557]]]]}},{"type":"Feature","properties":{"nombre":"Parque Industrial Plátanos","descripcion":"Zona industrial"},"geometry":{"type":"MultiPolygon","coordinates":[[[[-58.17879,-34.78966],[-58.17907,-34.78902],[-58.17974,-34.7883],[-58.17966,-34.78733],[-58.17935,-34.78679],[-58.17902,-34.78642],[-58.17849,-34.78669],[-58.17804,-34.78688],[-58.17741,-34.7868],[-58.17674,-34.78653],[-58.17623,-34.78624],[-58.1752,-34.78493],[-58.17051,-34.78759],[-58.17244,-34.78978],[-58.17178,-34.79022],[-58.1708,-34.79118],[-58.1734,-34.79414],[-58.17879,-34.78966]]]]}},{"type":"Feature","properties":{"descripcion":"Zona industrial"},"geometry":{"type":"MultiPolygon","coordinates":[[[[-58.0827,-34.85155],[-58.08295,-34.85225],[-58.08262,-34.85233],[-58.08259,-34.85225],[-58.08241,-34.85229],[-58.08235,-34.85215],[-58.08255,-34.8521],[-58.08238,-34.85163],[-58.0827,-34.85155]]]]}},{"type":"Feature","properties":{"nombre":"Destilería YPF","descripcion":"Zona industrial"},"geometry":{"type":"MultiPolygon","coordinates":[[[[-57.9292,-34.89556],[-57.92279,-34.90025],[-57.92245,-34.90022],[-57.92147,-34.8994],[-57.92033,-34.89831],[-57.89964,-34.87961],[-57.89832,-34.87817],[-57.89852,-34.87805],[-57.89744,-34.87677],[-57.89837,-34.87628],[-57.89741,-34.87507],[-57.90367,-34.87284],[-57.90377,-34.87276],[-57.90384,-34.87265],[-57.90384,-34.87188],[-57.90413,-34.8719],[-57.90437,-34.87205],[-57.90459,-34.87229],[-57.90503,-34.87286],[-57.90575,-34.87373],[-57.90629,-34.87433],[-57.90692,-34.87498],[-57.90772,-34.87565],[-57.9122,-34.87966],[-57.91605,-34.88322],[-57.91688,-34.88398],[-57.91738,-34.88418],[-57.918,-34.88478],[-57.91811,-34.88504],[-57.92045,-34.88717],[-57.92058,-34.88735],[-57.92537,-34.89179],[-57.92907,-34.89506],[-57.9292,-34.89556]]]]}},{"type":"Feature","properties":{"descripcion":"Zona industrial"},"geometry":{"type":"MultiPolygon","coordinates":[[[[-57.91758,-34.87603],[-57.91277,-34.87959],[-57.92913,-34.89458],[-57.93086,-34.8942],[-57.93131,-34.8946],[-57.93243,-34.89378],[-57.9332,-34.89446],[-57.93429,-34.89366],[-57.93593,-34.89514],[-57.93813,-34.89341],[-57.93193,-34.88817],[-57.93002,-34.88655],[-57.92894,-34.88564],[-57.92692,-34.88393],[-57.91758,-34.87603]]]]}},{"type":"Feature","properties":{"nombre":"YPF - Complejo Industrial Ensenada","descripcion":"Zona industrial"},"geometry":{"type":"MultiPolygon","coordinates":[[[[-57.93167,-34.87422],[-57.92388,-34.88068],[-57.91858,-34.8758],[-57.91808,-34.87536],[-57.91638,-34.8739],[-57.91497,-34.87272],[-57.91445,-34.87228],[-57.91446,-34.87196],[-57.92105,-34.8668],[-57.93167,-34.87422]]]]}},{"type":"Feature","properties":{"nombre":"Federal Mogul S.A.","descripcion":"Zona industrial"},"geometry":{"type":"MultiPolygon","coordinates":[[[[-58.02394,-34.89045],[-58.0222,-34.89086],[-58.02164,-34.88926],[-58.02338,-34.88885],[-58.02394,-34.89045]]]]}},{"type":"Feature","properties":{"descripcion":"Zona industrial"},"geometry":{"type":"MultiPolygon","coordinates":[[[[-58.12398,-34.99868],[-58.12537,-35.00002],[-58.12468,-35.0005],[-58.12328,-34.99916],[-58.12398,-34.99868]]]]}},{"type":"Feature","properties":{"nombre":"Reckitt Benckiser","descripcion":"Zona industrial"},"geometry":{"type":"MultiPolygon","coordinates":[[[[-58.18985,-34.85323],[-58.18633,-34.85233],[-58.1858,-34.85194],[-58.18652,-34.84998],[-58.19069,-34.85102],[-58.18985,-34.85323]]]]}},{"type":"Feature","properties":{"nombre":"Y.P.F. S.A.","descripcion":"Zona industrial"},"geometry":{"type":"MultiPolygon","coordinates":[[[[-57.91337,-34.89364],[-57.91197,-34.89242],[-57.91188,-34.8925],[-57.91051,-34.89348],[-57.91162,-34.89449],[-57.91148,-34.89458],[-57.91558,-34.89835],[-57.91719,-34.89712],[-57.91337,-34.89364]]]]}},{"type":"Feature","properties":{"nombre":"Parque Industrial El Pato","descripcion":"Zona industrial"},"geometry":{"type":"MultiPolygon","coordinates":[[[[-58.17926,-34.86567],[-58.17695,-34.87128],[-58.17679,-34.87165],[-58.17587,-34.8738],[-58.1712,-34.86971],[-58.17791,-34.86455],[-58.17926,-34.86567]]]]}},{"type":"Feature","properties":{"nombre":"Parque industrial La Plata","descripcion":"Zona industrial"},"geometry":{"type":"MultiPolygon","coordinates":[[[[-58.11682,-35.00622],[-58.10806,-34.99813],[-58.10437,-35.00095],[-58.11304,-35.00882],[-58.11682,-35.00622]]]]}},{"type":"Feature","properties":{"descripcion":"Zona industrial"},"geometry":{"type":"MultiPolygon","coordinates":[[[[-57.9954,-34.89513],[-57.99405,-34.89389],[-57.99352,-34.89453],[-57.99442,-34.89538],[-57.9954,-34.89513]]]]}},{"type":"Feature","properties":{"nombre":"Parafina Del Plata","descripcion":"Zona industrial"},"geometry":{"type":"MultiPolygon","coordinates":[[[[-58.18588,-34.82933],[-58.1875,-34.83268],[-58.18542,-34.83335],[-58.18382,-34.82999],[-58.18588,-34.82933]]]]}},{"type":"Feature","properties":{"nombre":"Laboratorios Abbott","descripcion":"Zona industrial"},"geometry":{"type":"MultiPolygon","coordinates":[[[[-58.19666,-34.83761],[-58.19015,-34.84039],[-58.18998,-34.84027],[-58.19069,-34.83806],[-58.19129,-34.83565],[-58.19281,-34.83483],[-58.19286,-34.8357],[-58.19581,-34.8355],[-58.19666,-34.83761]]]]}},{"type":"Feature","properties":{"descripcion":"Zona industrial"},"geometry":{"type":"MultiPolygon","coordinates":[[[[-58.20109,-34.83149],[-58.20256,-34.8351],[-58.19966,-34.83632],[-58.19802,-34.8323],[-58.20109,-34.83149]]]]}},{"type":"Feature","properties":{"nombre":"Estación Transformadora Abasto","descripcion":"Zona industrial"},"geometry":{"type":"MultiPolygon","coordinates":[[[[-58.16448,-34.97093],[-58.16607,-34.96969],[-58.16562,-34.96929],[-58.16648,-34.96862],[-58.16626,-34.96843],[-58.16654,-34.96821],[-58.1663,-34.96801],[-58.16705,-34.96742],[-58.16261,-34.96355],[-58.16259,-34.9646],[-58.16248,-34.96919],[-58.16448,-34.97093]]]]}},{"type":"Feature","properties":{"nombre":"City Gate Gutierrez","descripcion":"Zona industrial"},"geometry":{"type":"MultiPolygon","coordinates":[[[[-58.18564,-34.84881],[-58.18415,-34.84844],[-58.18409,-34.84846],[-58.18224,-34.84994],[-58.18349,-34.85104],[-58.18419,-34.85164],[-58.18462,-34.85154],[-58.18489,-34.85083],[-58.18488,-34.85081],[-58.1849,-34.85073],[-58.18493,-34.85073],[-58.1853,-34.84974],[-58.18533,-34.84964],[-58.18564,-34.84881]]]]}},{"type":"Feature","properties":{"nombre":"Subestación Hudson","descripcion":"Zona industrial"},"geometry":{"type":"MultiPolygon","coordinates":[[[[-58.16756,-34.76676],[-58.16934,-34.76837],[-58.16782,-34.76952],[-58.16592,-34.76787],[-58.16756,-34.76676]]]]}},{"type":"Feature","properties":{"descripcion":"Zona industrial"},"geometry":{"type":"MultiPolygon","coordinates":[[[[-58.18652,-34.84998],[-58.19069,-34.85102],[-58.19122,-34.84958],[-58.19164,-34.8485],[-58.18748,-34.84743],[-58.18652,-34.84998]]]]}},{"type":"Feature","properties":{"descripcion":"Zona industrial"},"geometry":{"type":"MultiPolygon","coordinates":[[[[-58.19196,-34.84765],[-58.19311,-34.85003],[-58.19308,-34.85005],[-58.19122,-34.84958],[-58.19164,-34.8485],[-58.19196,-34.84765]]]]}},{"type":"Feature","properties":{"nombre":"Pollos Sapucai (Granja Don Pedro)","descripcion":"Zona industrial"},"geometry":{"type":"MultiPolygon","coordinates":[[[[-58.11683,-35.05051],[-58.11774,-35.05134],[-58.11638,-35.05235],[-58.11544,-35.05144],[-58.11533,-35.05068],[-58.11683,-35.05051]]]]}},{"type":"Feature","properties":{"nombre":"Pollos Sapucai (Granja San Vicente)","descripcion":"Zona industrial"},"geometry":{"type":"MultiPolygon","coordinates":[[[[-58.1524,-35.08468],[-58.15054,-35.08611],[-58.15269,-35.08798],[-58.15455,-35.08655],[-58.1524,-35.08468]]]]}},{"type":"Feature","properties":{"nombre":"Central Dique SA","descripcion":"Zona industrial"},"geometry":{"type":"MultiPolygon","coordinates":[[[[-57.93063,-34.89134],[-57.93128,-34.89081],[-57.93102,-34.89053],[-57.93119,-34.8904],[-57.93286,-34.88915],[-57.93318,-34.88945],[-57.93371,-34.88993],[-57.93117,-34.8918],[-57.93063,-34.89134]]]]}},{"type":"Feature","properties":{"nombre":"Central Térmica Ensenada Barragán","descripcion":"Zona industrial"},"geometry":{"type":"MultiPolygon","coordinates":[[[[-57.9559,-34.86317],[-57.95571,-34.86322],[-57.95556,-34.86316],[-57.95083,-34.85893],[-57.951,-34.85576],[-57.95307,-34.85426],[-57.95678,-34.85759],[-57.95663,-34.86004],[-57.95647,-34.86273],[-57.9559,-34.86317]]]]}},{"type":"Feature","properties":{"nombre":"Parque Industrial COCEMA","descripcion":"Zona industrial"},"geometry":{"type":"MultiPolygon","coordinates":[[[[-58.17079,-34.77657],[-58.16766,-34.77337],[-58.16696,-34.77266],[-58.16623,-34.77317],[-58.16621,-34.77331],[-58.16616,-34.77345],[-58.16607,-34.77357],[-58.16594,-34.77368],[-58.16248,-34.77624],[-58.16239,-34.77632],[-58.16236,-34.7764],[-58.16237,-34.77647],[-58.16242,-34.77655],[-58.16265,-34.77678],[-58.1628,-34.77678],[-58.16336,-34.77634],[-58.16362,-34.77656],[-58.16344,-34.77674],[-58.16342,-34.77685],[-58.16334,-34.77694],[-58.16321,-34.77699],[-58.16304,-34.77714],[-58.16277,-34.77741],[-58.16583,-34.7802],[-58.17077,-34.77659],[-58.17079,-34.77657]]]]}},{"type":"Feature","properties":{"descripcion":"Zona industrial"},"geometry":{"type":"MultiPolygon","coordinates":[[[[-58.172,-34.87323],[-58.1695,-34.87107],[-58.17114,-34.86976],[-58.1712,-34.86971],[-58.17587,-34.8738],[-58.17518,-34.87561],[-58.17459,-34.87687],[-58.17258,-34.87738],[-58.16978,-34.87495],[-58.172,-34.87323]]]]}},{"type":"Feature","properties":{"nombre":"Terminal de contenedores TECPLATA","descripcion":"Zona industrial"},"geometry":{"type":"MultiPolygon","coordinates":[[[[-57.88598,-34.86088],[-57.8855,-34.86007],[-57.88405,-34.85749],[-57.88213,-34.85357],[-57.88469,-34.85302],[-57.88532,-34.85284],[-57.88583,-34.85267],[-57.88767,-34.85213],[-57.89024,-34.8571],[-57.88987,-34.85724],[-57.89032,-34.85793],[-57.89095,-34.85831],[-57.8913,-34.85838],[-57.89167,-34.85903],[-57.89003,-34.8596],[-57.88996,-34.85963],[-57.88818,-34.85617],[-57.88636,-34.85685],[-57.88813,-34.86026],[-57.88598,-34.86088]]]]}},{"type":"Feature","properties":{"nombre":"Garaje \"MOQSA\"","descripcion":"Zona industrial"},"geometry":{"type":"MultiPolygon","coordinates":[[[[-58.18873,-34.83953],[-58.18844,-34.83962],[-58.18828,-34.83929],[-58.1883,-34.83926],[-58.18883,-34.83909],[-58.18888,-34.83909],[-58.18905,-34.83947],[-58.18903,-34.83962],[-58.18873,-34.83953]]]]}},{"type":"Feature","properties":{"nombre":"Central Telefónica - Tres Límites","descripcion":"Zona industrial"},"geometry":{"type":"MultiPolygon","coordinates":[[[[-58.18402,-34.87022],[-58.18424,-34.8703],[-58.18423,-34.87047],[-58.18401,-34.87046],[-58.18401,-34.87041],[-58.18402,-34.87028],[-58.18402,-34.87022]]]]}},{"type":"Feature","properties":{"nombre":"Garaje Línea 129 y 159","descripcion":"Zona industrial"},"geometry":{"type":"MultiPolygon","coordinates":[[[[-58.18404,-34.80699],[-58.18399,-34.80712],[-58.18419,-34.80718],[-58.18418,-34.80723],[-58.1842,-34.80724],[-58.18434,-34.80724],[-58.18447,-34.80723],[-58.18469,-34.80717],[-58.18473,-34.80707],[-58.1846,-34.807],[-58.18404,-34.80699]]]]}},{"type":"Feature","properties":{"nombre":"Central Telefónica","descripcion":"Zona industrial"},"geometry":{"type":"MultiPolygon","coordinates":[[[[-57.98425,-34.93231],[-57.98382,-34.93191],[-57.98362,-34.93206],[-57.98404,-34.93246],[-57.98425,-34.93231]]]]}},{"type":"Feature","properties":{"nombre":"Ternium Siderar Ensenada","descripcion":"Zona industrial"},"geometry":{"type":"MultiPolygon","coordinates":[[[[-57.9427,-34.85908],[-57.94313,-34.85909],[-57.94328,-34.85446],[-57.94232,-34.85446],[-57.94234,-34.85411],[-57.94222,-34.85411],[-57.94223,-34.85385],[-57.94231,-34.85385],[-57.94231,-34.85371],[-57.94224,-34.85371],[-57.94224,-34.85349],[-57.94216,-34.85349],[-57.94224,-34.85152],[-57.94169,-34.85104],[-57.94178,-34.85094],[-57.94172,-34.85053],[-57.94098,-34.84981],[-57.94021,-34.84949],[-57.94007,-34.84963],[-57.93993,-34.84997],[-57.93935,-34.84991],[-57.93927,-34.84994],[-57.9392,-34.84998],[-57.93938,-34.85024],[-57.93937,-34.85052],[-57.93799,-34.85051],[-57.93792,-34.85294],[-57.93819,-34.85295],[-57.93819,-34.85338],[-57.93811,-34.85338],[-57.93811,-34.85344],[-57.93743,-34.85439],[-57.93732,-34.85439],[-57.93733,-34.85573],[-57.94266,-34.86204],[-57.9437,-34.86141],[-57.9433,-34.86095],[-57.94266,-34.86048],[-57.94267,-34.85975],[-57.9427,-34.85908]]]]}},{"type":"Feature","properties":{"nombre":"Aguas Bonaerenses S.A.","descripcion":"Zona industrial"},"geometry":{"type":"MultiPolygon","coordinates":[[[[-57.93276,-34.84474],[-57.93331,-34.8452],[-57.93342,-34.84512],[-57.93704,-34.84818],[-57.93567,-34.84928],[-57.93565,-34.84962],[-57.93533,-34.8499],[-57.9349,-34.84992],[-57.93385,-34.85077],[-57.93377,-34.85077],[-57.92993,-34.84751],[-57.93016,-34.84734],[-57.92988,-34.84709],[-57.93103,-34.84615],[-57.93135,-34.84589],[-57.93276,-34.84474]]]]}},{"type":"Feature","properties":{"nombre":"Miniparque Industrial \"El Pato\"","descripcion":"Zona industrial"},"geometry":{"type":"MultiPolygon","coordinates":[[[[-58.18282,-34.87057],[-58.18282,-34.8707],[-58.18254,-34.87094],[-58.18285,-34.87123],[-58.18309,-34.87105],[-58.18399,-34.87181],[-58.18016,-34.87483],[-58.17763,-34.87263],[-58.17847,-34.87051],[-58.18282,-34.87057]]]]}},{"type":"Feature","properties":{"nombre":"Reginald Lee S.A","descripcion":"Zona industrial"},"geometry":{"type":"MultiPolygon","coordinates":[[[[-58.19527,-34.81367],[-58.19697,-34.81255],[-58.19788,-34.81398],[-58.19819,-34.81563],[-58.19793,-34.81639],[-58.19762,-34.81702],[-58.19674,-34.81686],[-58.19682,-34.81645],[-58.19669,-34.81571],[-58.19636,-34.815],[-58.19527,-34.81367]]]]}},{"type":"Feature","properties":{"nombre":"Ovobrand","descripcion":"Zona industrial"},"geometry":{"type":"MultiPolygon","coordinates":[[[[-58.18705,-35.1333],[-58.18719,-35.13344],[-58.18784,-35.13398],[-58.18755,-35.13474],[-58.18711,-35.13554],[-58.18692,-35.13983],[-58.18624,-35.14042],[-58.18479,-35.14033],[-58.1845,-35.14061],[-58.18442,-35.14054],[-58.18278,-35.13906],[-58.18326,-35.13917],[-58.18445,-35.14019],[-58.18463,-35.13541],[-58.18705,-35.1333]]]]}},{"type":"Feature","properties":{"nombre":"Central Telefónica","descripcion":"Zona industrial"},"geometry":{"type":"MultiPolygon","coordinates":[[[[-58.16648,-34.79013],[-58.16656,-34.79019],[-58.16651,-34.79023],[-58.16637,-34.79036],[-58.16627,-34.79045],[-58.16619,-34.79039],[-58.16629,-34.7903],[-58.16643,-34.79017],[-58.16648,-34.79013]]]]}},{"type":"Feature","properties":{"descripcion":"Zona industrial"},"geometry":{"type":"MultiPolygon","coordinates":[[[[-57.91771,-34.89737],[-57.91554,-34.89898],[-57.91668,-34.90001],[-57.91885,-34.8984],[-57.91771,-34.89737]]]]}},{"type":"Feature","properties":{"nombre":"Parque Industrial Hudson","descripcion":"Zona industrial"},"geometry":{"type":"MultiPolygon","coordinates":[[[[-58.17474,-34.8002],[-58.17768,-34.80264],[-58.18566,-34.79611],[-58.18566,-34.79549],[-58.18278,-34.79309],[-58.17539,-34.79921],[-58.17565,-34.79944],[-58.17474,-34.8002]]]]}},{"type":"Feature","properties":{"nombre":"Fábrica Argentina de Alpargatas","descripcion":"Zona industrial"},"geometry":{"type":"MultiPolygon","coordinates":[[[[-58.20198,-34.84251],[-58.19417,-34.84589],[-58.19406,-34.84573],[-58.19189,-34.84663],[-58.19062,-34.84405],[-58.19057,-34.84394],[-58.18946,-34.84166],[-58.18976,-34.84146],[-58.19008,-34.84123],[-58.19022,-34.84087],[-58.19971,-34.83716],[-58.20077,-34.83967],[-58.20139,-34.84112],[-58.20198,-34.84251]]]]}},{"type":"Feature","properties":{"nombre":"Parque Industrial y Tecnológico Varela","descripcion":"Zona industrial"},"geometry":{"type":"MultiPolygon","coordinates":[[[[-58.19189,-34.84664],[-58.19406,-34.84574],[-58.19417,-34.8459],[-58.20198,-34.84252],[-58.20248,-34.84372],[-58.20557,-34.84244],[-58.20708,-34.84629],[-58.19422,-34.8517],[-58.19262,-34.84823],[-58.19257,-34.84813],[-58.19189,-34.84664]]]]}},{"type":"Feature","properties":{"nombre":"Eleprint","descripcion":"Zona industrial"},"geometry":{"type":"MultiPolygon","coordinates":[[[[-57.91384,-34.9124],[-57.91488,-34.91365],[-57.91487,-34.9137],[-57.91368,-34.91436],[-57.91309,-34.91364],[-57.91305,-34.91366],[-57.91254,-34.91304],[-57.91384,-34.9124]]]]}},{"type":"Feature","properties":{"descripcion":"Zona industrial"},"geometry":{"type":"MultiPolygon","coordinates":[[[[-58.16944,-34.94114],[-58.16978,-34.93996],[-58.17071,-34.94014],[-58.17075,-34.94018],[-58.17007,-34.94131],[-58.16998,-34.94133],[-58.16952,-34.94123],[-58.16944,-34.94114]]]]}},{"type":"Feature","properties":{"descripcion":"Zona industrial"},"geometry":{"type":"MultiPolygon","coordinates":[[[[-58.12283,-35.00169],[-58.1186,-34.99806],[-58.11604,-35.00007],[-58.11596,-35.00028],[-58.1201,-35.00383],[-58.12283,-35.00169]]]]}},{"type":"Feature","properties":{"descripcion":"Zona industrial"},"geometry":{"type":"MultiPolygon","coordinates":[[[[-58.09627,-35.02231],[-58.09739,-35.02143],[-58.09668,-35.02079],[-58.0969,-35.0206],[-58.09639,-35.02018],[-58.09611,-35.02008],[-58.096,-35.02018],[-58.09556,-35.01979],[-58.09497,-35.0202],[-58.0954,-35.02055],[-58.09477,-35.02096],[-58.09627,-35.02231]]]]}},{"type":"Feature","properties":{"descripcion":"Zona industrial"},"geometry":{"type":"MultiPolygon","coordinates":[[[[-58.15618,-34.7916],[-58.15567,-34.79121],[-58.15553,-34.7911],[-58.15377,-34.79206],[-58.15381,-34.79213],[-58.15399,-34.79222],[-58.15427,-34.79235],[-58.15454,-34.79246],[-58.15469,-34.79245],[-58.15618,-34.7916]]]]}},{"type":"Feature","properties":{"descripcion":"Zona industrial"},"geometry":{"type":"MultiPolygon","coordinates":[[[[-58.17788,-34.77826],[-58.17723,-34.7774],[-58.17629,-34.77665],[-58.17459,-34.77807],[-58.17525,-34.7792],[-58.17616,-34.77881],[-58.17675,-34.7786],[-58.17788,-34.77826]]]]}},{"type":"Feature","properties":{"descripcion":"Zona industrial"},"geometry":{"type":"MultiPolygon","coordinates":[[[[-58.19615,-34.77728],[-58.19554,-34.77807],[-58.19586,-34.77822],[-58.19631,-34.77755],[-58.19615,-34.77728]]]]}},{"type":"Feature","properties":{"descripcion":"Zona industrial"},"geometry":{"type":"MultiPolygon","coordinates":[[[[-58.20708,-34.84629],[-58.19422,-34.8517],[-58.19426,-34.85177],[-58.19826,-34.86006],[-58.19844,-34.86015],[-58.19855,-34.86015],[-58.19872,-34.8601],[-58.20934,-34.85204],[-58.20887,-34.85087],[-58.20708,-34.84629]]]]}},{"type":"Feature","properties":{"descripcion":"Zona industrial"},"geometry":{"type":"MultiPolygon","coordinates":[[[[-58.17447,-34.77817],[-58.17514,-34.77925],[-58.17455,-34.77952],[-58.17459,-34.77948],[-58.17457,-34.77944],[-58.17456,-34.77935],[-58.17442,-34.77928],[-58.17404,-34.779],[-58.1738,-34.77879],[-58.17376,-34.77865],[-58.17447,-34.77817]]]]}},{"type":"Feature","properties":{"descripcion":"Zona industrial"},"geometry":{"type":"MultiPolygon","coordinates":[[[[-58.17439,-34.90046],[-58.17303,-34.90048],[-58.17303,-34.90064],[-58.17289,-34.90065],[-58.17279,-34.90081],[-58.1728,-34.90098],[-58.17302,-34.90138],[-58.17377,-34.90206],[-58.1739,-34.90209],[-58.17471,-34.90286],[-58.17501,-34.90259],[-58.17537,-34.90293],[-58.17562,-34.90272],[-58.17464,-34.90174],[-58.17398,-34.90122],[-58.17439,-34.9009],[-58.17439,-34.90046]]]]}},{"type":"Feature","properties":{"descripcion":"Zona industrial"},"geometry":{"type":"MultiPolygon","coordinates":[[[[-58.17047,-34.91907],[-58.17044,-34.91906],[-58.16935,-34.91989],[-58.16972,-34.92021],[-58.16993,-34.92055],[-58.17016,-34.9205],[-58.17033,-34.92048],[-58.17043,-34.92047],[-58.17047,-34.92045],[-58.17047,-34.91907]]]]}},{"type":"Feature","properties":{"descripcion":"Zona industrial"},"geometry":{"type":"MultiPolygon","coordinates":[[[[-58.17059,-34.93499],[-58.17031,-34.93696],[-58.17102,-34.93701],[-58.17199,-34.93622],[-58.17059,-34.93499]]]]}},{"type":"Feature","properties":{"descripcion":"Zona industrial"},"geometry":{"type":"MultiPolygon","coordinates":[[[[-58.16161,-34.96412],[-58.16145,-34.96956],[-58.16126,-34.97045],[-58.16099,-34.97131],[-58.15672,-34.96768],[-58.16161,-34.96412]]]]}},{"type":"Feature","properties":{"descripcion":"Zona industrial"},"geometry":{"type":"MultiPolygon","coordinates":[[[[-58.07008,-35.24259],[-58.06823,-35.24401],[-58.06857,-35.2443],[-58.06894,-35.24453],[-58.06918,-35.2448],[-58.06957,-35.24497],[-58.06997,-35.24501],[-58.07037,-35.24571],[-58.07089,-35.24555],[-58.0713,-35.24595],[-58.07273,-35.24486],[-58.07008,-35.24259]]]]}},{"type":"Feature","properties":{"descripcion":"Zona industrial"},"geometry":{"type":"MultiPolygon","coordinates":[[[[-58.17525,-34.90928],[-58.17354,-34.90804],[-58.17432,-34.9074],[-58.17338,-34.90667],[-58.17225,-34.90664],[-58.17212,-34.90726],[-58.17188,-34.90832],[-58.17283,-34.90867],[-58.17214,-34.90933],[-58.17301,-34.90993],[-58.17227,-34.91054],[-58.17306,-34.91125],[-58.17525,-34.90928]]]]}},{"type":"Feature","properties":{"descripcion":"Zona industrial"},"geometry":{"type":"MultiPolygon","coordinates":[[[[-58.17276,-34.91115],[-58.17175,-34.91189],[-58.17289,-34.91291],[-58.17346,-34.91247],[-58.173,-34.91209],[-58.17344,-34.91175],[-58.17276,-34.91115]]]]}},{"type":"Feature","properties":{"descripcion":"Zona industrial"},"geometry":{"type":"MultiPolygon","coordinates":[[[[-57.91024,-34.91023],[-57.91087,-34.90987],[-57.91151,-34.9095],[-57.91271,-34.91098],[-57.91144,-34.91164],[-57.91024,-34.91023]]]]}},{"type":"Feature","properties":{"descripcion":"Zona industrial"},"geometry":{"type":"MultiPolygon","coordinates":[[[[-57.91271,-34.91098],[-57.91384,-34.9124],[-57.91254,-34.91304],[-57.91194,-34.91228],[-57.91144,-34.91164],[-57.91271,-34.91098]]]]}},{"type":"Feature","properties":{"descripcion":"Zona industrial"},"geometry":{"type":"MultiPolygon","coordinates":[[[[-57.91092,-34.90878],[-57.91025,-34.9091],[-57.90958,-34.90943],[-57.90984,-34.90974],[-57.91024,-34.91023],[-57.91087,-34.90987],[-57.91151,-34.9095],[-57.91131,-34.90926],[-57.91092,-34.90878]]]]}},{"type":"Feature","properties":{"descripcion":"Zona industrial"},"geometry":{"type":"MultiPolygon","coordinates":[[[[-57.9239,-34.91268],[-57.92441,-34.91351],[-57.92281,-34.91447],[-57.92249,-34.91457],[-57.9222,-34.91437],[-57.92279,-34.91381],[-57.92365,-34.91294],[-57.9239,-34.91268]]]]}},{"type":"Feature","properties":{"nombre":"Consorcio Industrial Ensenada","descripcion":"Zona industrial"},"geometry":{"type":"MultiPolygon","coordinates":[[[[-57.926,-34.86919],[-57.92679,-34.8697],[-57.93174,-34.86713],[-57.93287,-34.86654],[-57.93624,-34.8648],[-57.93422,-34.86319],[-57.93397,-34.86314],[-57.93011,-34.86602],[-57.926,-34.86919]]]]}},{"type":"Feature","properties":{"nombre":"Migaplat","descripcion":"Zona industrial"},"geometry":{"type":"MultiPolygon","coordinates":[[[[-57.94592,-34.97364],[-57.94546,-34.97396],[-57.94572,-34.9742],[-57.94617,-34.97388],[-57.94592,-34.97364]]]]}},{"type":"Feature","properties":{"nombre":"Empresa de Transporte Nueve de Julio S.A.T.","descripcion":"Zona industrial"},"geometry":{"type":"MultiPolygon","coordinates":[[[[-58.01498,-34.9069],[-58.01362,-34.90568],[-58.0126,-34.90646],[-58.01392,-34.90767],[-58.01395,-34.90767],[-58.01498,-34.9069]]]]}},{"type":"Feature","properties":{"descripcion":"Zona industrial"},"geometry":{"type":"MultiPolygon","coordinates":[[[[-58.09379,-34.84334],[-58.09291,-34.84261],[-58.09194,-34.84326],[-58.09268,-34.84405],[-58.09379,-34.84334]]]]}},{"type":"Feature","properties":{"descripcion":"Zona industrial"},"geometry":{"type":"MultiPolygon","coordinates":[[[[-57.99484,-34.88106],[-57.99406,-34.8807],[-57.99355,-34.88053],[-57.99278,-34.88111],[-57.99373,-34.88194],[-57.99484,-34.88106]]]]}},{"type":"Feature","properties":{"descripcion":"Zona industrial"},"geometry":{"type":"MultiPolygon","coordinates":[[[[-57.96715,-34.8814],[-57.96662,-34.88092],[-57.96517,-34.88195],[-57.96568,-34.88248],[-57.96715,-34.8814]]]]}},{"type":"Feature","properties":{"descripcion":"Zona industrial"},"geometry":{"type":"MultiPolygon","coordinates":[[[[-57.9656,-34.88254],[-57.96456,-34.88333],[-57.96393,-34.88272],[-57.96498,-34.88194],[-57.9656,-34.88254]]]]}},{"type":"Feature","properties":{"nombre":"Kalop","descripcion":"Zona industrial"},"geometry":{"type":"MultiPolygon","coordinates":[[[[-58.17905,-34.87407],[-58.17775,-34.87294],[-58.17756,-34.87289],[-58.17671,-34.87497],[-58.17846,-34.87548],[-58.17905,-34.87407]]]]}},{"type":"Feature","properties":{"descripcion":"Zona industrial"},"geometry":{"type":"MultiPolygon","coordinates":[[[[-57.97352,-35.05442],[-57.97254,-35.05515],[-57.97394,-35.05646],[-57.97454,-35.05642],[-57.97463,-35.05629],[-57.97461,-35.05623],[-57.97471,-35.05613],[-57.97479,-35.05607],[-57.97504,-35.05576],[-57.97352,-35.05442]]]]}},{"type":"Feature","properties":{"descripcion":"Zona industrial"},"geometry":{"type":"MultiPolygon","coordinates":[[[[-57.97504,-35.05576],[-57.9762,-35.0542],[-57.9752,-35.05327],[-57.97352,-35.05442],[-57.97504,-35.05576]]]]}},{"type":"Feature","properties":{"descripcion":"Zona industrial"},"geometry":{"type":"MultiPolygon","coordinates":[[[[-58.03154,-34.9803],[-58.03058,-34.98106],[-58.03124,-34.98167],[-58.03223,-34.98094],[-58.03154,-34.9803]]]]}},{"type":"Feature","properties":{"descripcion":"Zona industrial"},"geometry":{"type":"MultiPolygon","coordinates":[[[[-58.03573,-34.98408],[-58.03422,-34.98269],[-58.03415,-34.98272],[-58.0339,-34.9829],[-58.03361,-34.98264],[-58.03371,-34.98256],[-58.03364,-34.98249],[-58.03378,-34.9824],[-58.03363,-34.98221],[-58.03223,-34.98094],[-58.03124,-34.98167],[-58.02938,-34.98303],[-58.02894,-34.98333],[-58.0291,-34.98394],[-58.02895,-34.98437],[-58.02817,-34.98475],[-58.02898,-34.98589],[-58.02994,-34.98519],[-58.03195,-34.98692],[-58.03573,-34.98408]]]]}},{"type":"Feature","properties":{"descripcion":"Zona industrial"},"geometry":{"type":"MultiPolygon","coordinates":[[[[-58.00244,-34.99852],[-58.00897,-34.99376],[-58.00715,-34.99204],[-58.00061,-34.99695],[-58.00244,-34.99852]]]]}},{"type":"Feature","properties":{"nombre":"La Plata (Ensenada) Cogen Power Plant","descripcion":"Zona industrial"},"geometry":{"type":"MultiPolygon","coordinates":[[[[-57.92335,-34.89063],[-57.92213,-34.89152],[-57.91936,-34.88896],[-57.92058,-34.88808],[-57.92335,-34.89063]]]]}},{"type":"Feature","properties":{"descripcion":"Zona industrial"},"geometry":{"type":"MultiPolygon","coordinates":[[[[-58.20018,-35.20265],[-58.20009,-35.20256],[-58.19995,-35.20266],[-58.20004,-35.20275],[-58.20018,-35.20265]]]]}},{"type":"Feature","properties":{"descripcion":"Zona industrial"},"geometry":{"type":"MultiPolygon","coordinates":[[[[-57.99502,-34.8185],[-57.99454,-34.81839],[-57.99397,-34.81826],[-57.99429,-34.81731],[-57.99598,-34.81769],[-57.99581,-34.8182],[-57.99559,-34.81815],[-57.99517,-34.81805],[-57.99502,-34.8185]]]]}},{"type":"Feature","properties":{"nombre":"Ovobrand","descripcion":"Zona industrial"},"geometry":{"type":"MultiPolygon","coordinates":[[[[-58.19143,-35.12924],[-58.19148,-35.12904],[-58.1929,-35.12781],[-58.19304,-35.12793],[-58.19328,-35.12812],[-58.19317,-35.12821],[-58.19309,-35.12816],[-58.19273,-35.12849],[-58.19329,-35.12894],[-58.19222,-35.12983],[-58.19189,-35.12965],[-58.19162,-35.12944],[-58.19151,-35.12952],[-58.1913,-35.12934],[-58.19143,-35.12924]]]]}},{"type":"Feature","properties":{"nombre":"Parque Industrial La Plata 2","descripcion":"Zona industrial"},"geometry":{"type":"MultiPolygon","coordinates":[[[[-58.15136,-34.97949],[-58.14658,-34.97532],[-58.14523,-34.97637],[-58.14395,-34.97737],[-58.14256,-34.97844],[-58.14117,-34.97953],[-58.13585,-34.98367],[-58.13266,-34.98085],[-58.14598,-34.97043],[-58.15323,-34.97676],[-58.15251,-34.97732],[-58.15304,-34.97781],[-58.15303,-34.9782],[-58.15136,-34.97949]]]]}},{"type":"Feature","properties":{"nombre":"Acuarela","descripcion":"Zona industrial"},"geometry":{"type":"MultiPolygon","coordinates":[[[[-58.15136,-34.97949],[-58.15005,-34.98053],[-58.14523,-34.97637],[-58.14658,-34.97532],[-58.15136,-34.97949]]]]}},{"type":"Feature","properties":{"descripcion":"Zona industrial"},"geometry":{"type":"MultiPolygon","coordinates":[[[[-58.16248,-34.96919],[-58.16236,-34.96921],[-58.16198,-34.97215],[-58.16354,-34.9735],[-58.1652,-34.97159],[-58.16448,-34.97093],[-58.16248,-34.96919]]]]}},{"type":"Feature","properties":{"nombre":"ex OFA","descripcion":"Zona industrial"},"geometry":{"type":"MultiPolygon","coordinates":[[[[-58.07608,-34.8527],[-58.07626,-34.85261],[-58.0769,-34.85232],[-58.07736,-34.85289],[-58.0777,-34.85272],[-58.07773,-34.85276],[-58.07769,-34.85278],[-58.07781,-34.85292],[-58.07759,-34.85306],[-58.07777,-34.85329],[-58.07792,-34.85351],[-58.07807,-34.85372],[-58.07801,-34.85375],[-58.07794,-34.85378],[-58.07706,-34.85426],[-58.07616,-34.85291],[-58.07621,-34.85289],[-58.07608,-34.8527]]]]}},{"type":"Feature","properties":{"nombre":"ALUAR","descripcion":"Zona industrial"},"geometry":{"type":"MultiPolygon","coordinates":[[[[-58.12312,-35.00179],[-58.1187,-34.99816],[-58.11589,-35.00033],[-58.12021,-35.00401],[-58.12312,-35.00179]]]]}},{"type":"Feature","properties":{"nombre":"PLANTA PAVIMENTOS MUNICIPAL F.V.","descripcion":"Zona industrial"},"geometry":{"type":"MultiPolygon","coordinates":[[[[-58.19098,-34.8446],[-58.19178,-34.84628],[-58.19225,-34.84609],[-58.19291,-34.84581],[-58.19356,-34.84555],[-58.19408,-34.84537],[-58.19366,-34.84486],[-58.19352,-34.8449],[-58.19179,-34.84466],[-58.19122,-34.8445],[-58.19098,-34.8446]]]]}}]}