{"type":"FeatureCollection","features":[{"type":"Feature","properties":{"nombre":"Malvinas II","descripcion":"Asentamiento en La Plata · 273 familias · desde 1997"},"geometry":{"type":"MultiPolygon","coordinates":[[[[-58.012,-34.94732],[-58.00911,-34.94467],[-58.00795,-34.9455],[-58.00888,-34.94637],[-58.00777,-34.94716],[-58.00982,-34.94899],[-58.012,-34.94732]]]]}},{"type":"Feature","properties":{"nombre":"Ferroviario","descripcion":"Asentamiento en La Plata · 133 familias · desde 2003"},"geometry":{"type":"MultiPolygon","coordinates":[[[[-58.0798,-35.03507],[-58.07958,-35.03518],[-58.07942,-35.03539],[-58.091,-35.04589],[-58.09143,-35.04569],[-58.09126,-35.0455],[-58.08986,-35.04422],[-58.08743,-35.04204],[-58.08306,-35.03803],[-58.0798,-35.03507]]]]}},{"type":"Feature","properties":{"nombre":"La Favelita","descripcion":"Asentamiento en La Plata · 122 familias · desde 1974"},"geometry":{"type":"MultiPolygon","coordinates":[[[[-57.97991,-34.90834],[-57.97994,-34.90838],[-57.98087,-34.90769],[-57.97945,-34.90639],[-57.97773,-34.90767],[-57.97874,-34.90861],[-57.97937,-34.90814],[-57.97972,-34.90848],[-57.97991,-34.90834]]]]}},{"type":"Feature","properties":{"nombre":"Casaca","descripcion":"Asentamiento en La Plata · 20 familias · desde 2002"},"geometry":{"type":"MultiPolygon","coordinates":[[[[-58.06297,-34.90134],[-58.06328,-34.90164],[-58.06334,-34.9019],[-58.06335,-34.90219],[-58.06319,-34.90252],[-58.06321,-34.90274],[-58.06308,-34.90292],[-58.06313,-34.9032],[-58.06476,-34.90282],[-58.06487,-34.90274],[-58.06426,-34.90113],[-58.06418,-34.90108],[-58.06408,-34.90108],[-58.06297,-34.90134]]]]}},{"type":"Feature","properties":{"nombre":"La Güemes","descripcion":"Asentamiento en La Plata · 20 familias · desde 1975"},"geometry":{"type":"MultiPolygon","coordinates":[[[[-58.04667,-34.88788],[-58.04682,-34.88796],[-58.04695,-34.88839],[-58.04718,-34.88835],[-58.04733,-34.88831],[-58.04727,-34.88805],[-58.04693,-34.88766],[-58.04661,-34.88758],[-58.04644,-34.88772],[-58.04652,-34.88793],[-58.04667,-34.88788]]]]}},{"type":"Feature","properties":{"nombre":"8 y 489","descripcion":"Asentamiento en La Plata · 33 familias · desde 1980"},"geometry":{"type":"MultiPolygon","coordinates":[[[[-58.01937,-34.8699],[-58.01906,-34.86941],[-58.01802,-34.86989],[-58.01832,-34.87037],[-58.01937,-34.8699]]]]}},{"type":"Feature","properties":{"nombre":"La Fábrica","descripcion":"Asentamiento en La Plata · 185 familias · desde 1965"},"geometry":{"type":"MultiPolygon","coordinates":[[[[-58.04957,-34.90062],[-58.04811,-34.90099],[-58.04799,-34.90085],[-58.04794,-34.90084],[-58.04786,-34.90081],[-58.04774,-34.90083],[-58.04759,-34.90084],[-58.04761,-34.90089],[-58.04749,-34.90091],[-58.04754,-34.90105],[-58.04747,-34.90107],[-58.0475,-34.90116],[-58.04757,-34.90114],[-58.04774,-34.90111],[-58.048,-34.90189],[-58.04804,-34.90218],[-58.04728,-34.90287],[-58.04724,-34.90305],[-58.04767,-34.90341],[-58.04878,-34.90312],[-58.05025,-34.90276],[-58.04981,-34.9014],[-58.04843,-34.90172],[-58.04834,-34.90145],[-58.04973,-34.90112],[-58.04957,-34.90062]]]]}},{"type":"Feature","properties":{"nombre":"Hijos de Malvinas","descripcion":"Asentamiento en La Plata · 110 familias · desde 2009"},"geometry":{"type":"MultiPolygon","coordinates":[[[[-58.01631,-34.9476],[-58.01747,-34.94677],[-58.01558,-34.94499],[-58.01442,-34.94583],[-58.01631,-34.9476]]]]}},{"type":"Feature","properties":{"nombre":"514 y 138","descripcion":"Asentamiento en La Plata · 59 familias · desde 1980"},"geometry":{"type":"MultiPolygon","coordinates":[[[[-58.02583,-34.91201],[-58.02343,-34.9125],[-58.02298,-34.91271],[-58.02141,-34.91294],[-58.02045,-34.91317],[-58.02055,-34.91369],[-58.02086,-34.91395],[-58.02164,-34.91468],[-58.0235,-34.91326],[-58.02322,-34.91287],[-58.0259,-34.91224],[-58.02583,-34.91201]]]]}},{"type":"Feature","properties":{"nombre":"Villa Rica","descripcion":"Asentamiento en La Plata · 54 familias · desde 2000"},"geometry":{"type":"MultiPolygon","coordinates":[[[[-58.08655,-34.86654],[-58.08749,-34.86726],[-58.08808,-34.86786],[-58.08859,-34.86758],[-58.08831,-34.86723],[-58.08812,-34.86702],[-58.08806,-34.86671],[-58.08807,-34.86631],[-58.08817,-34.86606],[-58.08806,-34.86577],[-58.0878,-34.86556],[-58.08714,-34.86608],[-58.08644,-34.86551],[-58.08601,-34.86582],[-58.08585,-34.86595],[-58.08546,-34.86623],[-58.08615,-34.86684],[-58.08655,-34.86654]]]]}},{"type":"Feature","properties":{"nombre":"El Progreso","descripcion":"Asentamiento en La Plata · 58 familias · desde 1998"},"geometry":{"type":"MultiPolygon","coordinates":[[[[-58.07884,-34.86032],[-58.07853,-34.8604],[-58.07824,-34.86065],[-58.07978,-34.86199],[-58.08077,-34.86119],[-58.08041,-34.86108],[-58.08036,-34.86115],[-58.0794,-34.86052],[-58.07927,-34.86045],[-58.07922,-34.86042],[-58.07893,-34.86032],[-58.07884,-34.86032]]]]}},{"type":"Feature","properties":{"nombre":"El Rincón I","descripcion":"Asentamiento en La Plata · 58 familias · desde 2000"},"geometry":{"type":"MultiPolygon","coordinates":[[[[-58.10113,-34.88903],[-58.10006,-34.88931],[-58.10031,-34.89086],[-58.10107,-34.89073],[-58.10111,-34.89067],[-58.1012,-34.89065],[-58.10188,-34.89044],[-58.10187,-34.8904],[-58.10232,-34.89034],[-58.10253,-34.89026],[-58.10269,-34.89023],[-58.10247,-34.88988],[-58.10215,-34.88966],[-58.10113,-34.88903]]]]}},{"type":"Feature","properties":{"nombre":"La Fortaleza","descripcion":"Asentamiento en La Plata · 350 familias · desde 1950"},"geometry":{"type":"MultiPolygon","coordinates":[[[[-58.08041,-34.8639],[-58.0812,-34.86329],[-58.08124,-34.86332],[-58.08127,-34.8633],[-58.08366,-34.86534],[-58.08456,-34.86474],[-58.08454,-34.86471],[-58.08574,-34.86388],[-58.08538,-34.8636],[-58.08529,-34.86355],[-58.08453,-34.86352],[-58.08433,-34.86349],[-58.08423,-34.86346],[-58.08409,-34.86339],[-58.08354,-34.86382],[-58.08346,-34.86375],[-58.08342,-34.86377],[-58.08308,-34.86348],[-58.08161,-34.86223],[-58.08066,-34.86137],[-58.07986,-34.862],[-58.079,-34.86266],[-58.08041,-34.8639]]]]}},{"type":"Feature","properties":{"nombre":"Vieja Estación","descripcion":"Asentamiento en La Plata · 30 familias · desde 1965"},"geometry":{"type":"MultiPolygon","coordinates":[[[[-58.05548,-34.94914],[-58.05352,-34.94729],[-58.05283,-34.94785],[-58.05276,-34.94782],[-58.05257,-34.94797],[-58.05368,-34.94897],[-58.05378,-34.94906],[-58.05454,-34.94973],[-58.05458,-34.94977],[-58.05548,-34.94914]]]]}},{"type":"Feature","properties":{"nombre":"El Triángulo","descripcion":"Asentamiento en La Plata · 100 familias · desde 2007"},"geometry":{"type":"MultiPolygon","coordinates":[[[[-58.0346,-34.99445],[-58.03385,-34.99377],[-58.03404,-34.99345],[-58.03331,-34.99281],[-58.03288,-34.99313],[-58.03338,-34.99508],[-58.03345,-34.99502],[-58.03355,-34.99527],[-58.03366,-34.99518],[-58.0346,-34.99445]]]]}},{"type":"Feature","properties":{"nombre":"El Rincón II","descripcion":"Asentamiento en La Plata · 57 familias · desde 2000"},"geometry":{"type":"MultiPolygon","coordinates":[[[[-58.0946,-34.8953],[-58.09427,-34.89351],[-58.09336,-34.89378],[-58.09345,-34.89427],[-58.09365,-34.89424],[-58.09377,-34.89523],[-58.09427,-34.89529],[-58.0946,-34.8953]]],[[[-58.09859,-34.89491],[-58.09527,-34.89567],[-58.09482,-34.8958],[-58.09495,-34.89615],[-58.09865,-34.89531],[-58.09859,-34.89491]]]]}},{"type":"Feature","properties":{"nombre":"Colinas del Sol","descripcion":"Asentamiento en La Plata · 137 familias · desde 2000"},"geometry":{"type":"MultiPolygon","coordinates":[[[[-58.05523,-34.90413],[-58.05489,-34.9032],[-58.05166,-34.90395],[-58.05229,-34.90577],[-58.05462,-34.90519],[-58.05433,-34.90435],[-58.05523,-34.90413]]]]}},{"type":"Feature","properties":{"nombre":"153 y 40","descripcion":"Asentamiento en La Plata · 80 familias · desde 2000"},"geometry":{"type":"MultiPolygon","coordinates":[[[[-58.00748,-34.95087],[-58.00982,-34.94908],[-58.00881,-34.94816],[-58.00819,-34.94862],[-58.00812,-34.94871],[-58.00773,-34.94905],[-58.00762,-34.94909],[-58.00649,-34.9499],[-58.00748,-34.95087]]]]}},{"type":"Feature","properties":{"nombre":"La Banda","descripcion":"Asentamiento en La Plata · 600 familias · desde 2014"},"geometry":{"type":"MultiPolygon","coordinates":[[[[-57.99631,-34.95917],[-57.99793,-34.95795],[-57.99375,-34.95424],[-57.99209,-34.95547],[-57.99631,-34.95917]]]]}},{"type":"Feature","properties":{"nombre":"El Rincón III","descripcion":"Asentamiento en La Plata · 10 familias · desde 2000"},"geometry":{"type":"MultiPolygon","coordinates":[[[[-58.09263,-34.8818],[-58.09225,-34.88142],[-58.09221,-34.8812],[-58.09205,-34.881],[-58.0919,-34.88108],[-58.09193,-34.88135],[-58.0921,-34.88166],[-58.09215,-34.88166],[-58.09215,-34.88183],[-58.09216,-34.88204],[-58.09257,-34.882],[-58.09264,-34.88199],[-58.09263,-34.8818]]]]}},{"type":"Feature","properties":{"nombre":"28B y 482","descripcion":"Asentamiento en La Plata · 60 familias · desde 1995"},"geometry":{"type":"MultiPolygon","coordinates":[[[[-58.0436,-34.89039],[-58.04115,-34.89097],[-58.04132,-34.89152],[-58.04255,-34.89122],[-58.04297,-34.89245],[-58.04174,-34.89275],[-58.04221,-34.89404],[-58.04465,-34.89346],[-58.0436,-34.89039]]]]}},{"type":"Feature","properties":{"nombre":"San Cayetano","descripcion":"Asentamiento en La Plata · 220 familias · desde 2009"},"geometry":{"type":"MultiPolygon","coordinates":[[[[-58.03684,-34.95108],[-58.03382,-34.94839],[-58.03373,-34.94844],[-58.03145,-34.95006],[-58.03262,-34.9511],[-58.03447,-34.95283],[-58.03684,-34.95108]]]]}},{"type":"Feature","properties":{"nombre":"166 y 523","descripcion":"Asentamiento en La Plata · 41 familias · desde 2011"},"geometry":{"type":"MultiPolygon","coordinates":[[[[-58.0413,-34.94947],[-58.03987,-34.94822],[-58.03875,-34.94907],[-58.0391,-34.94943],[-58.03854,-34.94983],[-58.03957,-34.95075],[-58.0413,-34.94947]]]]}},{"type":"Feature","properties":{"nombre":"Las Casuarinas","descripcion":"Asentamiento en La Plata · 124 familias · desde 1965"},"geometry":{"type":"MultiPolygon","coordinates":[[[[-58.03951,-34.97989],[-58.03837,-34.97886],[-58.03664,-34.98011],[-58.03775,-34.98106],[-58.03786,-34.98098],[-58.03836,-34.98143],[-58.03818,-34.98156],[-58.03865,-34.98199],[-58.03875,-34.98208],[-58.0405,-34.98078],[-58.03951,-34.97989]]]]}},{"type":"Feature","properties":{"nombre":"236 y 41","descripcion":"Asentamiento en La Plata · 50 familias · desde 2007"},"geometry":{"type":"MultiPolygon","coordinates":[[[[-58.09124,-35.02325],[-58.09033,-35.02243],[-58.087,-35.02495],[-58.08787,-35.02572],[-58.09124,-35.02325]]]]}},{"type":"Feature","properties":{"nombre":"518 y 162","descripcion":"Asentamiento en La Plata · 45 familias · desde 2009"},"geometry":{"type":"MultiPolygon","coordinates":[[[[-58.04224,-34.9395],[-58.04203,-34.93967],[-58.04206,-34.93968],[-58.04167,-34.93995],[-58.04136,-34.94018],[-58.0421,-34.94083],[-58.04298,-34.94016],[-58.04224,-34.9395]]]]}},{"type":"Feature","properties":{"nombre":"Los Rosales","descripcion":"Asentamiento en La Plata · 188 familias · desde 1985"},"geometry":{"type":"MultiPolygon","coordinates":[[[[-58.0544,-35.00342],[-58.05361,-35.004],[-58.05354,-35.00403],[-58.05314,-35.00434],[-58.0525,-35.00482],[-58.05242,-35.00486],[-58.05144,-35.00562],[-58.05365,-35.00778],[-58.05592,-35.00615],[-58.05516,-35.00547],[-58.05595,-35.00482],[-58.05562,-35.00454],[-58.0554,-35.00436],[-58.05503,-35.00404],[-58.055,-35.00397],[-58.0544,-35.00342]]]]}},{"type":"Feature","properties":{"nombre":"Las Palmeras","descripcion":"Asentamiento en La Plata · 670 familias · desde 2006"},"geometry":{"type":"MultiPolygon","coordinates":[[[[-57.96762,-34.96353],[-57.96688,-34.96401],[-57.96663,-34.96421],[-57.96536,-34.96521],[-57.96525,-34.96526],[-57.96411,-34.96609],[-57.96565,-34.96742],[-57.96585,-34.96724],[-57.9661,-34.96755],[-57.96644,-34.96761],[-57.96671,-34.968],[-57.96961,-34.97049],[-57.97053,-34.96984],[-57.96932,-34.9687],[-57.97091,-34.96753],[-57.97004,-34.96679],[-57.97079,-34.96627],[-57.96772,-34.96352],[-57.96762,-34.96353]]]]}},{"type":"Feature","properties":{"nombre":"52 y 155","descripcion":"Asentamiento en La Plata · 29 familias · desde 1973"},"geometry":{"type":"MultiPolygon","coordinates":[[[[-58.001,-34.96341],[-57.99995,-34.96247],[-57.99912,-34.96171],[-57.99839,-34.96106],[-57.99811,-34.96126],[-57.99808,-34.96115],[-57.99827,-34.96098],[-57.99729,-34.9601],[-57.99715,-34.96022],[-57.99718,-34.96029],[-57.99805,-34.96116],[-57.99809,-34.96128],[-57.99811,-34.96144],[-58.00066,-34.96371],[-58.001,-34.96341]]]]}},{"type":"Feature","properties":{"nombre":"El Triunfo","descripcion":"Asentamiento en La Plata · 242 familias · desde 2000"},"geometry":{"type":"MultiPolygon","coordinates":[[[[-58.00203,-34.96843],[-58.00084,-34.96932],[-57.99975,-34.97016],[-58.00034,-34.97067],[-57.99925,-34.97147],[-57.99921,-34.9715],[-57.99809,-34.97233],[-57.99861,-34.9728],[-57.99867,-34.97287],[-57.99908,-34.97324],[-57.99929,-34.97344],[-57.99944,-34.97357],[-57.99957,-34.97369],[-57.99978,-34.97388],[-58.00005,-34.97412],[-58.00117,-34.9733],[-58.00123,-34.97329],[-58.0023,-34.97244],[-58.00233,-34.97241],[-58.00186,-34.97195],[-58.00408,-34.97025],[-58.00203,-34.96843]]]]}},{"type":"Feature","properties":{"nombre":"57 y 155","descripcion":"Asentamiento en La Plata · 300 familias · desde 1975"},"geometry":{"type":"MultiPolygon","coordinates":[[[[-57.99469,-34.96372],[-57.99305,-34.96215],[-57.99262,-34.96245],[-57.99326,-34.9631],[-57.99265,-34.9636],[-57.9947,-34.96544],[-57.99278,-34.96686],[-57.99381,-34.96785],[-57.9957,-34.96642],[-57.99668,-34.9673],[-57.99895,-34.96569],[-57.9971,-34.96385],[-57.99589,-34.96284],[-57.99469,-34.96372]]]]}},{"type":"Feature","properties":{"nombre":"155 y 46","descripcion":"Asentamiento en La Plata · 39 familias · desde 2005"},"geometry":{"type":"MultiPolygon","coordinates":[[[[-58.00267,-34.95772],[-58.00128,-34.95643],[-58.00121,-34.95644],[-58.0005,-34.95697],[-58.00017,-34.95721],[-58.00011,-34.95728],[-58.00156,-34.95859],[-58.00267,-34.95772]]]]}},{"type":"Feature","properties":{"nombre":"74 y 140","descripcion":"Asentamiento en La Plata · 130 familias · desde 2013"},"geometry":{"type":"MultiPolygon","coordinates":[[[[-57.9581,-34.96232],[-57.95645,-34.9636],[-57.95932,-34.96623],[-57.961,-34.96497],[-57.9581,-34.96232]]]]}},{"type":"Feature","properties":{"nombre":"Santa Isabel","descripcion":"Asentamiento en La Plata · 67 familias · desde 2005"},"geometry":{"type":"MultiPolygon","coordinates":[[[[-57.95127,-34.96891],[-57.95063,-34.96938],[-57.95295,-34.9715],[-57.95388,-34.97074],[-57.95359,-34.97052],[-57.9533,-34.97073],[-57.95244,-34.96991],[-57.95127,-34.96891]]]]}},{"type":"Feature","properties":{"nombre":"El Bajo","descripcion":"Asentamiento en La Plata · 60 familias · desde 2000"},"geometry":{"type":"MultiPolygon","coordinates":[[[[-58.04102,-34.95477],[-58.04214,-34.95396],[-58.04113,-34.95307],[-58.04011,-34.95214],[-58.03893,-34.95302],[-58.03997,-34.95394],[-58.04008,-34.95395],[-58.04102,-34.95477]]]]}},{"type":"Feature","properties":{"nombre":"Sin Nombre","descripcion":"Asentamiento en La Plata · 146 familias · desde 1999"},"geometry":{"type":"MultiPolygon","coordinates":[[[[-57.88351,-34.93573],[-57.88442,-34.93515],[-57.88428,-34.93499],[-57.88342,-34.93555],[-57.88334,-34.93561],[-57.88278,-34.93499],[-57.88235,-34.93527],[-57.88242,-34.93535],[-57.88198,-34.93563],[-57.88281,-34.93649],[-57.88187,-34.93704],[-57.88259,-34.93778],[-57.88348,-34.93722],[-57.88293,-34.93664],[-57.88339,-34.93634],[-57.88374,-34.93674],[-57.88418,-34.93645],[-57.88351,-34.93573]]],[[[-57.88697,-34.93468],[-57.8852,-34.93583],[-57.88583,-34.93653],[-57.88761,-34.93535],[-57.88697,-34.93468]]]]}},{"type":"Feature","properties":{"nombre":"Villa Aburridita","descripcion":"Asentamiento en La Plata · 732 familias · desde 1995"},"geometry":{"type":"MultiPolygon","coordinates":[[[[-57.8774,-34.94419],[-57.87326,-34.93984],[-57.86737,-34.94346],[-57.87185,-34.94821],[-57.87457,-34.94618],[-57.87461,-34.94621],[-57.8774,-34.94419]]]]}},{"type":"Feature","properties":{"nombre":"Dos de abril","descripcion":"Asentamiento en La Plata · 148 familias · desde 2005"},"geometry":{"type":"MultiPolygon","coordinates":[[[[-57.9553,-34.96592],[-57.95408,-34.96689],[-57.95494,-34.96776],[-57.95479,-34.96787],[-57.9553,-34.96832],[-57.95513,-34.96846],[-57.95542,-34.96869],[-57.95567,-34.96851],[-57.95599,-34.96879],[-57.95612,-34.96869],[-57.95619,-34.96855],[-57.95634,-34.96843],[-57.95727,-34.96772],[-57.9553,-34.96592]]]]}},{"type":"Feature","properties":{"nombre":"La Esperanza","descripcion":"Asentamiento en La Plata · 200 familias · desde 1994"},"geometry":{"type":"MultiPolygon","coordinates":[[[[-57.96171,-34.96026],[-57.96088,-34.96101],[-57.96537,-34.96515],[-57.96656,-34.96423],[-57.96555,-34.96333],[-57.96606,-34.96286],[-57.96462,-34.96149],[-57.96502,-34.96111],[-57.96301,-34.95933],[-57.96171,-34.96026]]]]}},{"type":"Feature","properties":{"nombre":"La Palangana","descripcion":"Villa en La Plata · 141 familias · desde 1997"},"geometry":{"type":"MultiPolygon","coordinates":[[[[-58.04437,-35.00337],[-58.04145,-35.00059],[-58.04119,-35.00057],[-58.03925,-35.00211],[-58.04083,-35.00261],[-58.04165,-35.00286],[-58.04188,-35.00291],[-58.04411,-35.00356],[-58.04437,-35.00337]]]]}},{"type":"Feature","properties":{"nombre":"456 y 20","descripcion":"Villa en La Plata · 86 familias · desde 2002"},"geometry":{"type":"MultiPolygon","coordinates":[[[[-58.07002,-34.87407],[-58.07057,-34.87394],[-58.07073,-34.87439],[-58.0709,-34.87428],[-58.07114,-34.874],[-58.07125,-34.87371],[-58.07121,-34.87323],[-58.07124,-34.87321],[-58.07124,-34.87319],[-58.07152,-34.87311],[-58.0712,-34.8722],[-58.07036,-34.87238],[-58.07015,-34.87239],[-58.06993,-34.87252],[-58.0689,-34.87278],[-58.06922,-34.87379],[-58.06977,-34.87362],[-58.07002,-34.87407]]]]}},{"type":"Feature","properties":{"nombre":"Barrio Nuevo","descripcion":"Asentamiento en La Plata · 239 familias · desde 1975"},"geometry":{"type":"MultiPolygon","coordinates":[[[[-58.0686,-34.96687],[-58.07106,-34.96504],[-58.07162,-34.96457],[-58.07047,-34.96345],[-58.06955,-34.96249],[-58.06652,-34.9599],[-58.06813,-34.95862],[-58.06687,-34.95754],[-58.06528,-34.9587],[-58.06269,-34.9564],[-58.06167,-34.95712],[-58.06432,-34.95954],[-58.06467,-34.95963],[-58.06538,-34.9603],[-58.06485,-34.96069],[-58.06532,-34.96115],[-58.06441,-34.96183],[-58.06417,-34.96159],[-58.06338,-34.96221],[-58.06632,-34.96488],[-58.0686,-34.96687]]]]}},{"type":"Feature","properties":{"nombre":"508 y 9","descripcion":"Villa en La Plata · 13 familias"},"geometry":{"type":"MultiPolygon","coordinates":[[[[-57.99811,-34.88232],[-57.99788,-34.88247],[-57.99772,-34.88234],[-57.99701,-34.88244],[-57.99779,-34.88312],[-57.99796,-34.88299],[-57.99812,-34.88315],[-57.99848,-34.88323],[-57.99886,-34.88297],[-57.99811,-34.88232]]]]}},{"type":"Feature","properties":{"nombre":"Aeropuerto","descripcion":"Asentamiento en La Plata · 900 familias · desde 1985"},"geometry":{"type":"MultiPolygon","coordinates":[[[[-57.90901,-34.94994],[-57.90952,-34.95044],[-57.90696,-34.95229],[-57.90923,-34.95439],[-57.91139,-34.95282],[-57.91355,-34.95118],[-57.91173,-34.94969],[-57.91246,-34.94913],[-57.91182,-34.94857],[-57.91108,-34.94914],[-57.91067,-34.94874],[-57.90992,-34.94928],[-57.90975,-34.94913],[-57.90937,-34.94943],[-57.90949,-34.94959],[-57.90901,-34.94994]]]]}},{"type":"Feature","properties":{"nombre":"El Futuro","descripcion":"Asentamiento en La Plata · 931 familias · desde 1996"},"geometry":{"type":"MultiPolygon","coordinates":[[[[-58.02902,-34.95109],[-58.02872,-34.95092],[-58.02852,-34.95055],[-58.02896,-34.94955],[-58.02899,-34.94853],[-58.02258,-34.95326],[-58.0237,-34.95429],[-58.02474,-34.9552],[-58.02568,-34.956],[-58.02684,-34.95525],[-58.02988,-34.95795],[-58.03335,-34.95552],[-58.03783,-34.95201],[-58.03682,-34.95112],[-58.03446,-34.95288],[-58.03232,-34.95444],[-58.03026,-34.9526],[-58.02899,-34.95149],[-58.02901,-34.95138],[-58.02903,-34.95119],[-58.02902,-34.95109]]]]}},{"type":"Feature","properties":{"nombre":"167 y 524","descripcion":"Asentamiento en La Plata · 43 familias · desde 2000"},"geometry":{"type":"MultiPolygon","coordinates":[[[[-58.04021,-34.95044],[-58.03805,-34.95209],[-58.03853,-34.95251],[-58.03963,-34.95169],[-58.04071,-34.95089],[-58.04021,-34.95044]]]]}},{"type":"Feature","properties":{"nombre":"Las Rosas","descripcion":"Asentamiento en La Plata · 940 familias · desde 1998"},"geometry":{"type":"MultiPolygon","coordinates":[[[[-58.04245,-34.94181],[-58.04162,-34.94244],[-58.04255,-34.9433],[-58.04282,-34.94314],[-58.04292,-34.94323],[-58.04392,-34.94249],[-58.04235,-34.94111],[-58.042,-34.94136],[-58.04245,-34.94181]]],[[[-58.04291,-34.93807],[-58.04372,-34.93748],[-58.04285,-34.93641],[-58.0427,-34.93634],[-58.04263,-34.9365],[-58.04101,-34.93443],[-58.04165,-34.93399],[-58.04056,-34.93303],[-58.04159,-34.93229],[-58.04085,-34.93153],[-58.03972,-34.93232],[-58.03843,-34.93124],[-58.03554,-34.93337],[-58.03618,-34.93398],[-58.03517,-34.93463],[-58.03556,-34.93497],[-58.03564,-34.93492],[-58.03676,-34.93592],[-58.03574,-34.93668],[-58.03572,-34.93683],[-58.03958,-34.94038],[-58.03972,-34.94038],[-58.04291,-34.93807]]]]}},{"type":"Feature","properties":{"nombre":"155 y 41","descripcion":"Asentamiento en La Plata · 129 familias"},"geometry":{"type":"MultiPolygon","coordinates":[[[[-58.01264,-34.95549],[-58.01064,-34.9536],[-58.00979,-34.95421],[-58.00879,-34.95339],[-58.00847,-34.95365],[-58.01042,-34.95542],[-58.00936,-34.95626],[-58.01044,-34.95727],[-58.01264,-34.95549]]]]}},{"type":"Feature","properties":{"nombre":"75 y 142","descripcion":"Asentamiento en La Plata · 250 familias"},"geometry":{"type":"MultiPolygon","coordinates":[[[[-57.9632,-34.9633],[-57.9593,-34.9663],[-57.96247,-34.96917],[-57.96425,-34.96786],[-57.96314,-34.9668],[-57.96414,-34.96601],[-57.96472,-34.96557],[-57.96476,-34.9655],[-57.96523,-34.96516],[-57.9632,-34.9633]]]]}},{"type":"Feature","properties":{"nombre":"Alegre","descripcion":"Asentamiento en La Plata · 70 familias · desde 2012"},"geometry":{"type":"MultiPolygon","coordinates":[[[[-57.8772,-34.94884],[-57.87588,-34.94771],[-57.87588,-34.9477],[-57.87492,-34.94691],[-57.87475,-34.94664],[-57.87441,-34.94636],[-57.87342,-34.94712],[-57.87442,-34.9478],[-57.87453,-34.94779],[-57.8759,-34.94874],[-57.87632,-34.94887],[-57.877,-34.94899],[-57.8772,-34.94884]]]]}},{"type":"Feature","properties":{"nombre":"90 y 19","descripcion":"Asentamiento en La Plata · 100 familias · desde 1984"},"geometry":{"type":"MultiPolygon","coordinates":[[[[-57.9261,-34.95841],[-57.92625,-34.95827],[-57.92629,-34.95818],[-57.92504,-34.95699],[-57.92335,-34.95546],[-57.9215,-34.95379],[-57.9211,-34.95341],[-57.92048,-34.95378],[-57.92396,-34.95696],[-57.9258,-34.95859],[-57.9261,-34.95841]]]]}},{"type":"Feature","properties":{"nombre":"Los Chaques","descripcion":"Asentamiento en La Plata · 35 familias · desde 1987"},"geometry":{"type":"MultiPolygon","coordinates":[[[[-57.94847,-34.95218],[-57.94848,-34.95218],[-57.94809,-34.95259],[-57.9483,-34.95281],[-57.94841,-34.95292],[-57.94813,-34.95318],[-57.94828,-34.9533],[-57.94793,-34.95357],[-57.94811,-34.95373],[-57.94805,-34.95389],[-57.94748,-34.95469],[-57.94715,-34.95501],[-57.94723,-34.95509],[-57.94759,-34.95475],[-57.94785,-34.95432],[-57.94821,-34.95375],[-57.94841,-34.95392],[-57.94865,-34.95375],[-57.94829,-34.95343],[-57.94856,-34.9531],[-57.94913,-34.95269],[-57.94865,-34.95222],[-57.94859,-34.95137],[-57.94806,-34.95176],[-57.94858,-34.95213],[-57.94847,-34.95218]]]]}},{"type":"Feature","properties":{"nombre":"81 y 13","descripcion":"Villa en La Plata · 38 familias"},"geometry":{"type":"MultiPolygon","coordinates":[[[[-57.92457,-34.94364],[-57.92429,-34.94339],[-57.9229,-34.94458],[-57.92309,-34.94475],[-57.92457,-34.94364]]]]}},{"type":"Feature","properties":{"nombre":"La Cantera","descripcion":"Asentamiento en La Plata · 295 familias · desde 2000"},"geometry":{"type":"MultiPolygon","coordinates":[[[[-57.92507,-34.95012],[-57.92417,-34.95079],[-57.92338,-34.95153],[-57.9225,-34.95229],[-57.92177,-34.95291],[-57.92175,-34.95292],[-57.92114,-34.95341],[-57.92214,-34.95433],[-57.92216,-34.95437],[-57.92267,-34.95482],[-57.92365,-34.95564],[-57.92416,-34.9552],[-57.92523,-34.95443],[-57.92571,-34.95396],[-57.92839,-34.95154],[-57.92848,-34.95146],[-57.92789,-34.95092],[-57.92788,-34.95091],[-57.92777,-34.95081],[-57.92753,-34.95059],[-57.92751,-34.95057],[-57.92746,-34.95053],[-57.92737,-34.95045],[-57.92736,-34.95043],[-57.92722,-34.95031],[-57.92676,-34.94991],[-57.92669,-34.94983],[-57.92617,-34.94937],[-57.92561,-34.94976],[-57.92507,-34.95012]]]]}},{"type":"Feature","properties":{"nombre":"116 y 77","descripcion":"Villa en La Plata · 30 familias"},"geometry":{"type":"MultiPolygon","coordinates":[[[[-57.91516,-34.92687],[-57.91574,-34.92645],[-57.91517,-34.92589],[-57.91475,-34.92555],[-57.91448,-34.92573],[-57.91487,-34.92612],[-57.91458,-34.92638],[-57.91516,-34.92687]]]]}},{"type":"Feature","properties":{"nombre":"Frison","descripcion":"Asentamiento en La Plata · 319 familias · desde 2011"},"geometry":{"type":"MultiPolygon","coordinates":[[[[-57.88325,-34.96073],[-57.88751,-34.95755],[-57.88639,-34.95653],[-57.8862,-34.95654],[-57.88479,-34.95516],[-57.88052,-34.95827],[-57.88325,-34.96073]]]]}},{"type":"Feature","properties":{"nombre":"65 y 153","descripcion":"Asentamiento en La Plata · 100 familias"},"geometry":{"type":"MultiPolygon","coordinates":[[[[-57.98404,-34.96991],[-57.98569,-34.96865],[-57.98474,-34.96778],[-57.98299,-34.96909],[-57.98352,-34.96956],[-57.98361,-34.9695],[-57.98404,-34.96991]]]]}},{"type":"Feature","properties":{"nombre":"La Bajada","descripcion":"Asentamiento en La Plata · 106 familias · desde 1985"},"geometry":{"type":"MultiPolygon","coordinates":[[[[-57.96008,-34.88499],[-57.95869,-34.88372],[-57.95751,-34.88455],[-57.95762,-34.88465],[-57.9575,-34.88634],[-57.95782,-34.88667],[-57.95883,-34.8859],[-57.96008,-34.88499]]]]}},{"type":"Feature","properties":{"nombre":"Veintiseis de julio","descripcion":"Asentamiento en La Plata · 87 familias · desde 1992"},"geometry":{"type":"MultiPolygon","coordinates":[[[[-57.91889,-34.95139],[-57.92018,-34.95045],[-57.91819,-34.94868],[-57.91698,-34.94972],[-57.91889,-34.95139]]]]}},{"type":"Feature","properties":{"nombre":"19 y 77","descripcion":"Asentamiento en La Plata · 118 familias"},"geometry":{"type":"MultiPolygon","coordinates":[[[[-57.93432,-34.94493],[-57.93367,-34.94546],[-57.93333,-34.94517],[-57.933,-34.9454],[-57.93226,-34.94479],[-57.93125,-34.94555],[-57.93168,-34.94598],[-57.93139,-34.9462],[-57.93192,-34.9467],[-57.93227,-34.94645],[-57.93262,-34.94676],[-57.93297,-34.94652],[-57.9336,-34.94713],[-57.93534,-34.94587],[-57.93432,-34.94493]]]]}},{"type":"Feature","properties":{"nombre":"Las Margaritas","descripcion":"Villa en La Plata · 140 familias · desde 2011"},"geometry":{"type":"MultiPolygon","coordinates":[[[[-58.04376,-34.93758],[-58.043,-34.93805],[-58.04457,-34.93953],[-58.04477,-34.93943],[-58.04591,-34.94086],[-58.0456,-34.94111],[-58.04808,-34.94343],[-58.04867,-34.94403],[-58.04901,-34.94377],[-58.04833,-34.94311],[-58.04735,-34.94201],[-58.04376,-34.93758]]]]}},{"type":"Feature","properties":{"nombre":"Barrio Alegre","descripcion":"Asentamiento en La Plata · 580 familias · desde 2003"},"geometry":{"type":"MultiPolygon","coordinates":[[[[-57.89113,-34.93918],[-57.88824,-34.94134],[-57.88906,-34.94209],[-57.89081,-34.9437],[-57.89162,-34.94443],[-57.89337,-34.94602],[-57.89354,-34.9459],[-57.89297,-34.94535],[-57.89481,-34.94393],[-57.89287,-34.94216],[-57.89449,-34.94089],[-57.89418,-34.9406],[-57.89328,-34.94118],[-57.89288,-34.94075],[-57.89201,-34.94138],[-57.89113,-34.94055],[-57.892,-34.93995],[-57.89113,-34.93918]]]]}},{"type":"Feature","properties":{"nombre":"Carlos Agosti","descripcion":"Villa en La Plata · 250 familias · desde 2007"},"geometry":{"type":"MultiPolygon","coordinates":[[[[-57.89856,-34.9474],[-57.89702,-34.94853],[-57.89724,-34.94881],[-57.89733,-34.94887],[-57.89726,-34.94893],[-57.89746,-34.94912],[-57.89811,-34.94974],[-57.89877,-34.95034],[-57.90044,-34.94911],[-57.89889,-34.94768],[-57.89883,-34.94767],[-57.89856,-34.9474]]],[[[-57.9006,-34.94782],[-57.89979,-34.94708],[-57.89903,-34.94763],[-57.89982,-34.9484],[-57.9006,-34.94782]]]]}},{"type":"Feature","properties":{"nombre":"Padre Cajade","descripcion":"Asentamiento en La Plata · 159 familias · desde 1997"},"geometry":{"type":"MultiPolygon","coordinates":[[[[-57.87834,-34.97307],[-57.87565,-34.97062],[-57.87426,-34.97164],[-57.87448,-34.97186],[-57.87489,-34.97159],[-57.87512,-34.9718],[-57.8752,-34.97174],[-57.87737,-34.97373],[-57.87834,-34.97307]]]]}},{"type":"Feature","properties":{"nombre":"Villa Alba","descripcion":"Asentamiento en La Plata · 40 familias · desde 1998"},"geometry":{"type":"MultiPolygon","coordinates":[[[[-57.88421,-34.93795],[-57.88336,-34.93849],[-57.884,-34.93916],[-57.88479,-34.93857],[-57.88421,-34.93795]]]]}},{"type":"Feature","properties":{"nombre":"Joel","descripcion":"Asentamiento en La Plata · 680 familias · desde 2006"},"geometry":{"type":"MultiPolygon","coordinates":[[[[-57.88308,-34.95099],[-57.88191,-34.95005],[-57.88012,-34.95135],[-57.88074,-34.95192],[-57.881,-34.95172],[-57.88335,-34.95391],[-57.88557,-34.95228],[-57.88716,-34.95355],[-57.88897,-34.95226],[-57.88745,-34.95085],[-57.88534,-34.94896],[-57.88385,-34.95008],[-57.88408,-34.95028],[-57.88308,-34.95099]]]]}},{"type":"Feature","properties":{"nombre":"Barrio Municipal","descripcion":"Asentamiento en Berisso · 20 familias · desde 1997"},"geometry":{"type":"MultiPolygon","coordinates":[[[[-57.76865,-34.92117],[-57.76927,-34.92182],[-57.76979,-34.92144],[-57.76922,-34.92075],[-57.76865,-34.92117]]]]}},{"type":"Feature","properties":{"nombre":"Nueva York","descripcion":"Villa en Berisso · 34 familias · desde 2009"},"geometry":{"type":"MultiPolygon","coordinates":[[[[-57.88876,-34.85746],[-57.88852,-34.85756],[-57.88911,-34.85859],[-57.88932,-34.8585],[-57.88876,-34.85746]]],[[[-57.88873,-34.85886],[-57.88824,-34.85902],[-57.88835,-34.85928],[-57.88786,-34.85945],[-57.88797,-34.85967],[-57.88841,-34.8595],[-57.88831,-34.85934],[-57.88888,-34.85913],[-57.88873,-34.85886]]],[[[-57.8885,-34.85975],[-57.88842,-34.85978],[-57.88842,-34.85981],[-57.88822,-34.85988],[-57.8882,-34.85985],[-57.88806,-34.8599],[-57.88816,-34.86009],[-57.88826,-34.86006],[-57.88827,-34.86009],[-57.88851,-34.86],[-57.88852,-34.86],[-57.88863,-34.85996],[-57.8885,-34.85975]]],[[[-57.88951,-34.85884],[-57.889,-34.85902],[-57.88913,-34.85929],[-57.88952,-34.85916],[-57.88955,-34.85923],[-57.88919,-34.85935],[-57.88923,-34.85943],[-57.88964,-34.85928],[-57.88965,-34.85931],[-57.88925,-34.85946],[-57.8894,-34.85979],[-57.88991,-34.85962],[-57.88951,-34.85884]]],[[[-57.88931,-34.85986],[-57.88823,-34.86028],[-57.88877,-34.86139],[-57.88989,-34.86097],[-57.88931,-34.85986]]],[[[-57.88998,-34.8597],[-57.88944,-34.85989],[-57.8895,-34.85999],[-57.88973,-34.8599],[-57.88987,-34.86018],[-57.88964,-34.86025],[-57.88997,-34.8609],[-57.8902,-34.86082],[-57.89004,-34.86051],[-57.89013,-34.86047],[-57.89017,-34.86054],[-57.89022,-34.86052],[-57.89034,-34.86079],[-57.89049,-34.86072],[-57.88998,-34.8597]]],[[[-57.89084,-34.86126],[-57.89026,-34.86145],[-57.8904,-34.86174],[-57.89071,-34.86164],[-57.8908,-34.86184],[-57.89075,-34.86186],[-57.89081,-34.86199],[-57.89113,-34.86187],[-57.89084,-34.86126]]],[[[-57.89111,-34.86195],[-57.89061,-34.86214],[-57.89069,-34.8623],[-57.89106,-34.8622],[-57.89115,-34.8624],[-57.89082,-34.86252],[-57.89093,-34.86273],[-57.89114,-34.86266],[-57.89121,-34.86281],[-57.89101,-34.86289],[-57.89114,-34.86314],[-57.89134,-34.86308],[-57.89111,-34.86195]]],[[[-57.88961,-34.86119],[-57.88924,-34.86131],[-57.88934,-34.86152],[-57.88923,-34.86155],[-57.88913,-34.86136],[-57.88889,-34.86144],[-57.88902,-34.86165],[-57.88954,-34.86149],[-57.88967,-34.86177],[-57.88916,-34.86194],[-57.8892,-34.86201],[-57.88978,-34.8618],[-57.88981,-34.86189],[-57.88976,-34.86192],[-57.88976,-34.86193],[-57.88953,-34.86202],[-57.88955,-34.86204],[-57.88927,-34.86214],[-57.88933,-34.86225],[-57.88961,-34.86213],[-57.88966,-34.86225],[-57.88968,-34.86225],[-57.88973,-34.86237],[-57.8899,-34.8623],[-57.88974,-34.86197],[-57.88988,-34.86191],[-57.89004,-34.86223],[-57.89025,-34.86216],[-57.8902,-34.86205],[-57.89038,-34.86197],[-57.89033,-34.86187],[-57.88998,-34.862],[-57.88991,-34.86186],[-57.89,-34.86183],[-57.89003,-34.86188],[-57.89028,-34.86179],[-57.89022,-34.86168],[-57.88985,-34.8618],[-57.8898,-34.86163],[-57.89013,-34.86151],[-57.89008,-34.86141],[-57.88982,-34.8615],[-57.88978,-34.86143],[-57.89005,-34.86133],[-57.89001,-34.86126],[-57.88969,-34.86136],[-57.88961,-34.86119]]],[[[-57.89029,-34.86228],[-57.88949,-34.86255],[-57.88958,-34.86274],[-57.88989,-34.86263],[-57.88998,-34.86279],[-57.88967,-34.8629],[-57.88971,-34.86299],[-57.89003,-34.86288],[-57.89006,-34.86296],[-57.88974,-34.86308],[-57.88995,-34.86345],[-57.89028,-34.86334],[-57.89042,-34.86364],[-57.89013,-34.86377],[-57.89017,-34.86386],[-57.89048,-34.86374],[-57.89054,-34.86389],[-57.89024,-34.86402],[-57.8903,-34.86413],[-57.89086,-34.86392],[-57.89067,-34.86352],[-57.89099,-34.8634],[-57.89117,-34.8638],[-57.89129,-34.86375],[-57.89103,-34.86323],[-57.89076,-34.86333],[-57.89071,-34.86324],[-57.89098,-34.86314],[-57.89089,-34.86297],[-57.89055,-34.86309],[-57.89049,-34.86293],[-57.89081,-34.86282],[-57.89067,-34.86253],[-57.8905,-34.8626],[-57.89053,-34.86265],[-57.89029,-34.86273],[-57.89024,-34.86262],[-57.89064,-34.86248],[-57.89056,-34.86234],[-57.89034,-34.86242],[-57.89029,-34.86228]]]]}},{"type":"Feature","properties":{"nombre":"Villa San Martín","descripcion":"Asentamiento en La Plata · 112 familias · desde 1960"},"geometry":{"type":"MultiPolygon","coordinates":[[[[-58.11286,-34.99787],[-58.1105,-34.99967],[-58.11315,-35.00212],[-58.11429,-35.00135],[-58.11522,-35.00208],[-58.11665,-35.00114],[-58.11286,-34.99787]]]]}},{"type":"Feature","properties":{"nombre":"Martín Fierro","descripcion":"Asentamiento en La Plata · 107 familias · desde 1997"},"geometry":{"type":"MultiPolygon","coordinates":[[[[-58.17517,-34.92243],[-58.17583,-34.92184],[-58.17441,-34.92055],[-58.17383,-34.92097],[-58.17333,-34.92047],[-58.17282,-34.92085],[-58.17156,-34.92085],[-58.17152,-34.92215],[-58.17517,-34.92243]]]]}},{"type":"Feature","properties":{"nombre":"Ruta del Sol","descripcion":"Asentamiento en La Plata · 200 familias · desde 1993"},"geometry":{"type":"MultiPolygon","coordinates":[[[[-58.17401,-34.94071],[-58.17267,-34.94178],[-58.17212,-34.94223],[-58.17148,-34.94172],[-58.17097,-34.94227],[-58.16994,-34.94303],[-58.17111,-34.94399],[-58.1722,-34.94493],[-58.17315,-34.94415],[-58.17425,-34.94504],[-58.17251,-34.94633],[-58.17374,-34.94739],[-58.17441,-34.94684],[-58.17492,-34.94734],[-58.17713,-34.94555],[-58.17439,-34.94321],[-58.17574,-34.94217],[-58.17457,-34.94116],[-58.17401,-34.94071]]]]}},{"type":"Feature","properties":{"nombre":"48 y 130","descripcion":"Villa en Ensenada · 10 familias"},"geometry":{"type":"MultiPolygon","coordinates":[[[[-57.93074,-34.89284],[-57.92999,-34.89341],[-57.93036,-34.89374],[-57.93024,-34.89383],[-57.93025,-34.8939],[-57.93018,-34.8942],[-57.93019,-34.89442],[-57.9309,-34.89428],[-57.93058,-34.89389],[-57.93089,-34.89366],[-57.93113,-34.89347],[-57.93097,-34.89335],[-57.93115,-34.89322],[-57.93074,-34.89284]]]]}},{"type":"Feature","properties":{"nombre":"Tranquila","descripcion":"Asentamiento en Ensenada · 370 familias · desde 2006"},"geometry":{"type":"MultiPolygon","coordinates":[[[[-57.9308,-34.85526],[-57.93082,-34.85524],[-57.9311,-34.85491],[-57.93113,-34.85465],[-57.93067,-34.85422],[-57.93033,-34.85413],[-57.92996,-34.85412],[-57.9297,-34.85389],[-57.92925,-34.85351],[-57.92909,-34.85364],[-57.92896,-34.85354],[-57.92877,-34.85343],[-57.92796,-34.85273],[-57.9258,-34.85449],[-57.92662,-34.85524],[-57.92872,-34.85689],[-57.93072,-34.85521],[-57.9308,-34.85526]]]]}},{"type":"Feature","properties":{"nombre":"Arenero","descripcion":"Villa en Ensenada · 10 familias · desde 2009"},"geometry":{"type":"MultiPolygon","coordinates":[[[[-57.90067,-34.85889],[-57.90106,-34.85905],[-57.90143,-34.85872],[-57.90067,-34.85813],[-57.90026,-34.85829],[-57.90017,-34.85856],[-57.89985,-34.85882],[-57.90029,-34.85914],[-57.90067,-34.85889]]]]}},{"type":"Feature","properties":{"nombre":"Peruana","descripcion":"Villa en Ensenada · 110 familias · desde 1996"},"geometry":{"type":"MultiPolygon","coordinates":[[[[-57.93328,-34.90245],[-57.93314,-34.90232],[-57.93236,-34.90228],[-57.93167,-34.90215],[-57.93154,-34.90228],[-57.93043,-34.90184],[-57.92953,-34.9012],[-57.92949,-34.90122],[-57.92638,-34.89852],[-57.92603,-34.89878],[-57.92917,-34.90135],[-57.92971,-34.90168],[-57.92987,-34.90236],[-57.92998,-34.90288],[-57.92977,-34.90358],[-57.93011,-34.90369],[-57.93061,-34.90344],[-57.9312,-34.90395],[-57.93187,-34.90348],[-57.93328,-34.90245]]]]}},{"type":"Feature","properties":{"nombre":"Zona Franca","descripcion":"Asentamiento en Ensenada · 72 familias · desde 2003"},"geometry":{"type":"MultiPolygon","coordinates":[[[[-57.90945,-34.85366],[-57.90946,-34.85357],[-57.90984,-34.85336],[-57.90925,-34.85288],[-57.90903,-34.85298],[-57.90858,-34.85332],[-57.90819,-34.85362],[-57.90806,-34.8539],[-57.90805,-34.85408],[-57.90708,-34.85491],[-57.90709,-34.85501],[-57.90769,-34.85558],[-57.90796,-34.85529],[-57.90854,-34.85486],[-57.90919,-34.85433],[-57.90946,-34.85413],[-57.90976,-34.85391],[-57.90945,-34.85366]]]]}},{"type":"Feature","properties":{"nombre":"Mosconi","descripcion":"Asentamiento en Ensenada · 190 familias"},"geometry":{"type":"MultiPolygon","coordinates":[[[[-57.9122,-34.87218],[-57.91154,-34.87271],[-57.91108,-34.8723],[-57.91037,-34.87169],[-57.91031,-34.87171],[-57.9089,-34.87282],[-57.90886,-34.87288],[-57.9089,-34.87294],[-57.91016,-34.87399],[-57.91027,-34.87401],[-57.91155,-34.87518],[-57.91366,-34.87352],[-57.91294,-34.87292],[-57.91297,-34.87277],[-57.91239,-34.87225],[-57.91231,-34.87227],[-57.9122,-34.87218]]]]}},{"type":"Feature","properties":{"nombre":"El Porteño","descripcion":"Asentamiento en Ensenada · 112 familias"},"geometry":{"type":"MultiPolygon","coordinates":[[[[-57.91006,-34.87184],[-57.90974,-34.87152],[-57.90999,-34.87134],[-57.90944,-34.87081],[-57.90949,-34.87074],[-57.90947,-34.87072],[-57.90896,-34.87027],[-57.90915,-34.87016],[-57.9086,-34.86971],[-57.90796,-34.87021],[-57.90835,-34.87056],[-57.90866,-34.87073],[-57.90804,-34.87123],[-57.90781,-34.87104],[-57.90726,-34.87146],[-57.90764,-34.87186],[-57.90761,-34.87194],[-57.9078,-34.87212],[-57.90854,-34.87163],[-57.90932,-34.87238],[-57.91006,-34.87184]]]]}},{"type":"Feature","properties":{"nombre":"Villa Castells (Este)","descripcion":"Asentamiento en La Plata · 11 familias · desde 2007"},"geometry":{"type":"MultiPolygon","coordinates":[[[[-57.99906,-34.87367],[-57.99806,-34.87437],[-57.99693,-34.8752],[-57.99702,-34.87532],[-57.99919,-34.87379],[-57.99906,-34.87367]]]]}},{"type":"Feature","properties":{"nombre":"El Puente","descripcion":"Asentamiento en Ensenada · 60 familias · desde 1980"},"geometry":{"type":"MultiPolygon","coordinates":[[[[-57.97327,-34.81852],[-57.97295,-34.81817],[-57.97138,-34.81919],[-57.97036,-34.81987],[-57.96963,-34.8204],[-57.96978,-34.82076],[-57.97327,-34.81852]]]]}},{"type":"Feature","properties":{"nombre":"Cambaceres","descripcion":"Asentamiento en Ensenada · 22 familias · desde 2002"},"geometry":{"type":"MultiPolygon","coordinates":[[[[-57.9156,-34.85092],[-57.91516,-34.85046],[-57.91345,-34.85164],[-57.9139,-34.85215],[-57.9156,-34.85092]]]]}},{"type":"Feature","properties":{"nombre":"La Esperanza (Extensión)","descripcion":"Asentamiento en La Plata · 300 familias · desde 2000"},"geometry":{"type":"MultiPolygon","coordinates":[[[[-57.92851,-34.95145],[-57.92991,-34.95029],[-57.93035,-34.94987],[-57.9309,-34.94936],[-57.93031,-34.9488],[-57.93052,-34.94861],[-57.92997,-34.94812],[-57.93028,-34.94788],[-57.92979,-34.94746],[-57.92963,-34.94757],[-57.92916,-34.9471],[-57.92873,-34.94743],[-57.92615,-34.94934],[-57.92851,-34.95145]]]]}},{"type":"Feature","properties":{"nombre":"Savoia","descripcion":"Asentamiento en La Plata · 321 familias · desde 1975"},"geometry":{"type":"MultiPolygon","coordinates":[[[[-58.03008,-34.86549],[-58.0328,-34.86423],[-58.03241,-34.8636],[-58.03368,-34.86307],[-58.03325,-34.8624],[-58.03451,-34.86182],[-58.03354,-34.86035],[-58.02955,-34.86208],[-58.03049,-34.86358],[-58.02924,-34.86415],[-58.03008,-34.86549]]]]}},{"type":"Feature","properties":{"nombre":"Piria","descripcion":"Asentamiento en Ensenada · 386 familias · desde 1970"},"geometry":{"type":"MultiPolygon","coordinates":[[[[-57.94416,-34.8379],[-57.94603,-34.83985],[-57.95051,-34.83706],[-57.95113,-34.83775],[-57.95254,-34.8368],[-57.95127,-34.83544],[-57.95206,-34.83493],[-57.95073,-34.83359],[-57.94921,-34.83459],[-57.94858,-34.83495],[-57.9481,-34.83522],[-57.94416,-34.8379]]]]}},{"type":"Feature","properties":{"nombre":"Cristo Rey","descripcion":"Asentamiento en La Plata · 360 familias · desde 2014"},"geometry":{"type":"MultiPolygon","coordinates":[[[[-58.04402,-34.97462],[-58.04172,-34.97246],[-58.04002,-34.97095],[-58.0389,-34.97186],[-58.03861,-34.97214],[-58.0388,-34.97274],[-58.03883,-34.97336],[-58.03897,-34.97357],[-58.03862,-34.97433],[-58.0385,-34.9751],[-58.0407,-34.97716],[-58.04402,-34.97462]]]]}},{"type":"Feature","properties":{"nombre":"36Bis y 135","descripcion":"Asentamiento en La Plata · 30 familias · desde 1996"},"geometry":{"type":"MultiPolygon","coordinates":[[[[-57.99323,-34.9309],[-57.99253,-34.93141],[-57.99312,-34.93197],[-57.99354,-34.93199],[-57.99355,-34.93174],[-57.99327,-34.93157],[-57.99349,-34.93138],[-57.99329,-34.93121],[-57.99345,-34.93107],[-57.99323,-34.9309]]]]}},{"type":"Feature","properties":{"nombre":"Rubencito","descripcion":"Asentamiento en Ensenada · 110 familias · desde 1919"},"geometry":{"type":"MultiPolygon","coordinates":[[[[-57.93852,-34.83899],[-57.93994,-34.83833],[-57.94126,-34.83776],[-57.94216,-34.83735],[-57.94282,-34.83813],[-57.9438,-34.83749],[-57.94358,-34.83731],[-57.94315,-34.83766],[-57.94271,-34.83704],[-57.94333,-34.83669],[-57.94295,-34.83593],[-57.94243,-34.83615],[-57.94229,-34.83571],[-57.94117,-34.83594],[-57.94096,-34.83552],[-57.93999,-34.83516],[-57.9394,-34.83523],[-57.93842,-34.83338],[-57.93776,-34.83337],[-57.93606,-34.83361],[-57.93596,-34.83387],[-57.93612,-34.83427],[-57.93689,-34.83478],[-57.93803,-34.83476],[-57.93832,-34.83463],[-57.93927,-34.83597],[-57.93855,-34.83617],[-57.93816,-34.83623],[-57.93808,-34.83612],[-57.9371,-34.83641],[-57.93683,-34.83652],[-57.9385,-34.83844],[-57.93722,-34.83941],[-57.93749,-34.83965],[-57.93852,-34.83899]]]]}},{"type":"Feature","properties":{"nombre":"Miguelín","descripcion":"Asentamiento en Ensenada · 40 familias · desde 2013"},"geometry":{"type":"MultiPolygon","coordinates":[[[[-57.99323,-34.80593],[-57.99276,-34.80443],[-57.9936,-34.80405],[-57.99319,-34.80353],[-57.99353,-34.80328],[-57.99241,-34.80204],[-57.99186,-34.80228],[-57.99146,-34.80282],[-57.99259,-34.80629],[-57.99323,-34.80593]]]]}},{"type":"Feature","properties":{"nombre":"161 y 526","descripcion":"Asentamiento en La Plata · 55 familias · desde 2009"},"geometry":{"type":"MultiPolygon","coordinates":[[[[-58.03374,-34.94842],[-58.03167,-34.94657],[-58.03065,-34.94738],[-58.0326,-34.94922],[-58.03374,-34.94842]]]]}},{"type":"Feature","properties":{"nombre":"Santa Cruz","descripcion":"Asentamiento en Berisso · 1128 familias · desde 1990"},"geometry":{"type":"MultiPolygon","coordinates":[[[[-57.89403,-34.88874],[-57.89357,-34.88894],[-57.89301,-34.88845],[-57.89294,-34.88788],[-57.89258,-34.88808],[-57.89226,-34.88763],[-57.89249,-34.88749],[-57.89228,-34.88717],[-57.89144,-34.88761],[-57.89088,-34.88686],[-57.88644,-34.88926],[-57.88627,-34.889],[-57.88576,-34.88929],[-57.88595,-34.88952],[-57.8854,-34.88981],[-57.88666,-34.89145],[-57.88636,-34.89165],[-57.88658,-34.89189],[-57.88792,-34.8911],[-57.88996,-34.89352],[-57.8883,-34.89441],[-57.88744,-34.89346],[-57.88663,-34.89393],[-57.88769,-34.89519],[-57.88845,-34.89477],[-57.89018,-34.89376],[-57.89027,-34.89389],[-57.892,-34.89295],[-57.89164,-34.89245],[-57.89131,-34.89261],[-57.89066,-34.89172],[-57.89293,-34.89046],[-57.89335,-34.89093],[-57.89402,-34.89046],[-57.89361,-34.89003],[-57.89431,-34.88966],[-57.8948,-34.89034],[-57.89396,-34.89079],[-57.89451,-34.89154],[-57.89572,-34.89082],[-57.89403,-34.88874]]]]}},{"type":"Feature","properties":{"nombre":"Villa Roca","descripcion":"Asentamiento en Berisso · 632 familias · desde 2004"},"geometry":{"type":"MultiPolygon","coordinates":[[[[-57.87014,-34.88933],[-57.86935,-34.88984],[-57.87132,-34.89099],[-57.87696,-34.89318],[-57.87747,-34.89287],[-57.87435,-34.89142],[-57.87231,-34.89051],[-57.873,-34.88992],[-57.87423,-34.88926],[-57.87566,-34.89067],[-57.87627,-34.89044],[-57.87811,-34.89248],[-57.88014,-34.89126],[-57.87525,-34.88545],[-57.87467,-34.88471],[-57.87251,-34.88591],[-57.87072,-34.88691],[-57.86937,-34.88769],[-57.86938,-34.88781],[-57.86985,-34.88842],[-57.87047,-34.88916],[-57.87014,-34.88933]]]]}},{"type":"Feature","properties":{"nombre":"Medalla Milagrosa","descripcion":"Villa en La Plata · 135 familias · desde 1975"},"geometry":{"type":"MultiPolygon","coordinates":[[[[-58.05099,-34.89347],[-58.05203,-34.89628],[-58.05249,-34.89615],[-58.0524,-34.89595],[-58.05233,-34.89574],[-58.05237,-34.89556],[-58.05256,-34.89522],[-58.05265,-34.89489],[-58.05258,-34.8948],[-58.05245,-34.89466],[-58.05223,-34.89453],[-58.05214,-34.89417],[-58.05225,-34.89404],[-58.0526,-34.89395],[-58.05222,-34.89289],[-58.05293,-34.89272],[-58.05297,-34.89268],[-58.05263,-34.89167],[-58.05258,-34.89164],[-58.05189,-34.89181],[-58.05165,-34.89115],[-58.05054,-34.8914],[-58.0505,-34.89151],[-58.05112,-34.89331],[-58.05099,-34.89347]]]]}},{"type":"Feature","properties":{"nombre":"16 y 80","descripcion":"Asentamiento en La Plata · 225 familias · desde 2013"},"geometry":{"type":"MultiPolygon","coordinates":[[[[-57.92877,-34.94734],[-57.93082,-34.9458],[-57.92973,-34.94484],[-57.92961,-34.94488],[-57.92874,-34.94553],[-57.92738,-34.94429],[-57.92681,-34.94473],[-57.92698,-34.9449],[-57.92649,-34.9453],[-57.92877,-34.94734]]]]}},{"type":"Feature","properties":{"nombre":"La Aceitera","descripcion":"Asentamiento en La Plata · 180 familias"},"geometry":{"type":"MultiPolygon","coordinates":[[[[-57.89497,-34.99886],[-57.89221,-34.99633],[-57.88987,-34.99803],[-57.89082,-34.99892],[-57.89087,-34.99897],[-57.89107,-34.9988],[-57.89291,-35.00045],[-57.89497,-34.99886]]]]}},{"type":"Feature","properties":{"nombre":"136 y 52","descripcion":"Asentamiento en La Plata · 55 familias · desde 1975"},"geometry":{"type":"MultiPolygon","coordinates":[[[[-57.97984,-34.94242],[-57.9786,-34.9433],[-57.97966,-34.94431],[-57.98093,-34.94342],[-57.97984,-34.94242]]]]}},{"type":"Feature","properties":{"nombre":"Los Robles","descripcion":"Asentamiento en La Plata · 102 familias · desde 2006"},"geometry":{"type":"MultiPolygon","coordinates":[[[[-57.90407,-34.96589],[-57.903,-34.96498],[-57.90196,-34.96577],[-57.90367,-34.96735],[-57.90407,-34.96589]]],[[[-57.90433,-34.96036],[-57.90364,-34.96083],[-57.90438,-34.96151],[-57.90342,-34.96217],[-57.90412,-34.96281],[-57.90418,-34.9629],[-57.90326,-34.96356],[-57.90454,-34.9647],[-57.90565,-34.96155],[-57.90433,-34.96036]]]]}},{"type":"Feature","properties":{"nombre":"Puente de Fierro","descripcion":"Asentamiento en La Plata · 1410 familias · desde 2000"},"geometry":{"type":"MultiPolygon","coordinates":[[[[-57.9259,-34.95865],[-57.92753,-34.96009],[-57.92739,-34.96021],[-57.92765,-34.96078],[-57.92814,-34.9605],[-57.92864,-34.96082],[-57.9295,-34.96159],[-57.93354,-34.96505],[-57.93382,-34.96476],[-57.93387,-34.96468],[-57.93803,-34.96158],[-57.93685,-34.9605],[-57.93559,-34.95935],[-57.9347,-34.96003],[-57.93372,-34.95914],[-57.93433,-34.95869],[-57.93182,-34.95636],[-57.93119,-34.95688],[-57.93081,-34.95625],[-57.92937,-34.95486],[-57.92781,-34.95588],[-57.92778,-34.95601],[-57.9273,-34.95638],[-57.92725,-34.95634],[-57.92714,-34.95643],[-57.92642,-34.957],[-57.92643,-34.95704],[-57.92577,-34.95759],[-57.92624,-34.95805],[-57.92637,-34.95817],[-57.9259,-34.95865]]]]}},{"type":"Feature","properties":{"nombre":"Santa Teresita II","descripcion":"Asentamiento en Berisso · 290 familias · desde 2011"},"geometry":{"type":"MultiPolygon","coordinates":[[[[-57.8533,-34.88489],[-57.85448,-34.88536],[-57.85516,-34.88434],[-57.84979,-34.88197],[-57.84959,-34.88238],[-57.84902,-34.88274],[-57.84924,-34.88303],[-57.8487,-34.88335],[-57.84745,-34.88407],[-57.84858,-34.88544],[-57.84979,-34.88692],[-57.8533,-34.88489]]]]}},{"type":"Feature","properties":{"nombre":"Retiro","descripcion":"Asentamiento en La Plata · 300 familias · desde 1995"},"geometry":{"type":"MultiPolygon","coordinates":[[[[-58.0063,-34.96875],[-58.00776,-34.97],[-58.00824,-34.97048],[-58.00834,-34.97049],[-58.00853,-34.97031],[-58.00669,-34.96869],[-58.00661,-34.96862],[-58.00662,-34.96857],[-58.00763,-34.9678],[-58.0085,-34.96859],[-58.00965,-34.96772],[-58.00871,-34.96696],[-58.00929,-34.96658],[-58.00817,-34.96565],[-58.00773,-34.96599],[-58.00352,-34.96211],[-58.00184,-34.96324],[-58.00093,-34.96387],[-58.00107,-34.96402],[-58.0008,-34.96426],[-58.0019,-34.96519],[-58.00399,-34.96714],[-58.00433,-34.96688],[-58.0063,-34.96875]]]]}},{"type":"Feature","properties":{"nombre":"Niní","descripcion":"Asentamiento en La Plata · 348 familias"},"geometry":{"type":"MultiPolygon","coordinates":[[[[-58.00039,-34.90095],[-57.99912,-34.90188],[-57.997,-34.90345],[-57.99906,-34.90534],[-58.00242,-34.90275],[-58.00183,-34.90226],[-58.00242,-34.90184],[-58.00172,-34.90122],[-58.00113,-34.90163],[-58.00039,-34.90095]]]]}},{"type":"Feature","properties":{"nombre":"Mercosur","descripcion":"Asentamiento en La Plata · 325 familias · desde 1973"},"geometry":{"type":"MultiPolygon","coordinates":[[[[-58.01342,-34.90369],[-58.01316,-34.90344],[-58.0126,-34.90385],[-58.01099,-34.9024],[-58.01029,-34.903],[-58.01048,-34.90321],[-58.01086,-34.90358],[-58.01118,-34.90385],[-58.01027,-34.90448],[-58.01236,-34.90647],[-58.01369,-34.90764],[-58.01383,-34.90756],[-58.01266,-34.90645],[-58.01427,-34.90525],[-58.01371,-34.90474],[-58.01295,-34.90405],[-58.01342,-34.90369]]]]}},{"type":"Feature","properties":{"nombre":"Boliviana","descripcion":"Villa en La Plata · 60 familias · desde 1970"},"geometry":{"type":"MultiPolygon","coordinates":[[[[-57.98697,-34.90764],[-57.98591,-34.90843],[-57.98684,-34.9093],[-57.98791,-34.90851],[-57.98697,-34.90764]]]]}},{"type":"Feature","properties":{"nombre":"La Unión","descripcion":"Asentamiento en La Plata · 131 familias · desde 1984"},"geometry":{"type":"MultiPolygon","coordinates":[[[[-57.96801,-34.87981],[-57.96837,-34.88028],[-57.96832,-34.88045],[-57.96842,-34.88056],[-57.9686,-34.88053],[-57.96909,-34.88018],[-57.96894,-34.87997],[-57.96782,-34.8789],[-57.96742,-34.87834],[-57.96778,-34.87829],[-57.96755,-34.87794],[-57.96639,-34.8787],[-57.966,-34.879],[-57.9658,-34.87915],[-57.96587,-34.87965],[-57.96639,-34.88029],[-57.96687,-34.88033],[-57.96766,-34.88112],[-57.96793,-34.88097],[-57.96732,-34.88038],[-57.96736,-34.88028],[-57.96801,-34.87981]]]]}},{"type":"Feature","properties":{"nombre":"La Usina","descripcion":"Asentamiento en La Plata · 120 familias · desde 1993"},"geometry":{"type":"MultiPolygon","coordinates":[[[[-58.01396,-34.93416],[-58.01285,-34.93494],[-58.01388,-34.93588],[-58.01318,-34.93646],[-58.01355,-34.9368],[-58.01384,-34.93659],[-58.01399,-34.93672],[-58.01444,-34.93639],[-58.01591,-34.93772],[-58.01697,-34.9369],[-58.01396,-34.93416]]]]}},{"type":"Feature","properties":{"nombre":"48 y 144","descripcion":"Asentamiento en La Plata · 203 familias · desde 1990"},"geometry":{"type":"MultiPolygon","coordinates":[[[[-57.9903,-34.95013],[-57.99053,-34.95033],[-57.99048,-34.95038],[-57.99026,-34.95057],[-57.99036,-34.95069],[-57.99015,-34.95089],[-57.99028,-34.95102],[-57.99027,-34.95107],[-57.99002,-34.95126],[-57.99018,-34.95144],[-57.99006,-34.95154],[-57.99022,-34.95173],[-57.99008,-34.95184],[-57.99057,-34.9523],[-57.9906,-34.95234],[-57.99035,-34.95256],[-57.99052,-34.95275],[-57.9898,-34.95333],[-57.98971,-34.9534],[-57.992,-34.95549],[-57.99324,-34.95456],[-57.99419,-34.95388],[-57.99431,-34.95377],[-57.99224,-34.95185],[-57.99172,-34.95225],[-57.99169,-34.95227],[-57.99115,-34.95178],[-57.99079,-34.95149],[-57.99074,-34.95143],[-57.99127,-34.95102],[-57.99129,-34.95091],[-57.99175,-34.95055],[-57.99085,-34.94971],[-57.9913,-34.94935],[-57.99123,-34.94928],[-57.99034,-34.94838],[-57.99031,-34.94835],[-57.98921,-34.94918],[-57.99034,-34.9501],[-57.9903,-34.95013]]]]}},{"type":"Feature","properties":{"nombre":"40 y 150","descripcion":"Asentamiento en La Plata · 118 familias · desde 2000"},"geometry":{"type":"MultiPolygon","coordinates":[[[[-58.00773,-34.94724],[-58.00721,-34.94771],[-58.00815,-34.9486],[-58.00794,-34.94878],[-58.00726,-34.9487],[-58.00659,-34.94813],[-58.00555,-34.94723],[-58.00449,-34.94802],[-58.00539,-34.94887],[-58.0065,-34.94983],[-58.00751,-34.94912],[-58.00764,-34.94906],[-58.00792,-34.94886],[-58.00818,-34.94861],[-58.00874,-34.9482],[-58.00773,-34.94724]]]]}},{"type":"Feature","properties":{"nombre":"Altos del Sol","descripcion":"Asentamiento en La Plata · 268 familias · desde 1965"},"geometry":{"type":"MultiPolygon","coordinates":[[[[-58.05675,-34.94409],[-58.05603,-34.94339],[-58.05341,-34.9452],[-58.05334,-34.9451],[-58.05177,-34.94362],[-58.0507,-34.94437],[-58.04961,-34.94334],[-58.04879,-34.94396],[-58.0506,-34.94567],[-58.05082,-34.94586],[-58.05053,-34.94608],[-58.05154,-34.94702],[-58.05252,-34.94631],[-58.05349,-34.94724],[-58.05463,-34.94639],[-58.05419,-34.94595],[-58.05675,-34.94409]]]]}},{"type":"Feature","properties":{"nombre":"516Bis y 220","descripcion":"Asentamiento en La Plata · 165 familias · desde 2007"},"geometry":{"type":"MultiPolygon","coordinates":[[[[-58.10365,-34.99345],[-58.1004,-34.99051],[-58.10151,-34.98966],[-58.10034,-34.98861],[-58.09923,-34.98944],[-58.09832,-34.98862],[-58.09802,-34.98886],[-58.09856,-34.98938],[-58.09619,-34.99115],[-58.09816,-34.99297],[-58.10046,-34.99126],[-58.10328,-34.99379],[-58.10365,-34.99345]]]]}},{"type":"Feature","properties":{"nombre":"Sin Nombre","descripcion":"Asentamiento en La Plata · 10 familias · desde 1994"},"geometry":{"type":"MultiPolygon","coordinates":[[[[-57.90925,-34.94293],[-57.90948,-34.9427],[-57.90856,-34.94187],[-57.90837,-34.94212],[-57.90925,-34.94293]]]]}},{"type":"Feature","properties":{"nombre":"Villa Montoro","descripcion":"Asentamiento en La Plata · 540 familias · desde 1960"},"geometry":{"type":"MultiPolygon","coordinates":[[[[-57.89947,-34.93726],[-57.89867,-34.93785],[-57.9047,-34.94339],[-57.90551,-34.94278],[-57.90546,-34.94272],[-57.90536,-34.94263],[-57.90486,-34.94213],[-57.90536,-34.94184],[-57.90572,-34.94216],[-57.90568,-34.94221],[-57.9059,-34.94242],[-57.90622,-34.94267],[-57.90656,-34.94241],[-57.90633,-34.94217],[-57.90615,-34.94197],[-57.90551,-34.94135],[-57.90461,-34.94048],[-57.90537,-34.93989],[-57.90544,-34.93991],[-57.90578,-34.93967],[-57.90305,-34.93697],[-57.9026,-34.93732],[-57.90195,-34.93674],[-57.90157,-34.93638],[-57.90133,-34.93604],[-57.90106,-34.93579],[-57.90102,-34.93563],[-57.9008,-34.93538],[-57.90057,-34.93516],[-57.90049,-34.93516],[-57.89957,-34.93582],[-57.89956,-34.93589],[-57.89969,-34.93602],[-57.8999,-34.93595],[-57.90023,-34.93602],[-57.90035,-34.93612],[-57.90073,-34.93685],[-57.9009,-34.93712],[-57.90124,-34.93741],[-57.90218,-34.93865],[-57.90265,-34.93924],[-57.90213,-34.93961],[-57.89952,-34.93729],[-57.89947,-34.93726]]],[[[-57.89433,-34.93398],[-57.89357,-34.9345],[-57.8927,-34.93515],[-57.89352,-34.93591],[-57.8944,-34.93533],[-57.89608,-34.93693],[-57.89437,-34.93813],[-57.8936,-34.93738],[-57.8928,-34.93796],[-57.89362,-34.93872],[-57.89531,-34.93751],[-57.89615,-34.93833],[-57.89696,-34.9377],[-57.89612,-34.9369],[-57.89697,-34.93627],[-57.89779,-34.9357],[-57.89698,-34.93496],[-57.89674,-34.93489],[-57.89606,-34.93521],[-57.89524,-34.93534],[-57.89453,-34.93482],[-57.89422,-34.93442],[-57.89487,-34.93351],[-57.89476,-34.93296],[-57.8945,-34.93267],[-57.89364,-34.93332],[-57.89433,-34.93398]]]]}},{"type":"Feature","properties":{"nombre":"Villa Montoro","descripcion":"Asentamiento en La Plata · 1000 familias · desde 2010"},"geometry":{"type":"MultiPolygon","coordinates":[[[[-57.88295,-34.94001],[-57.88084,-34.94155],[-57.88234,-34.94309],[-57.88368,-34.94421],[-57.8839,-34.94408],[-57.88396,-34.94411],[-57.88589,-34.94268],[-57.88295,-34.94001]]],[[[-57.89029,-34.93978],[-57.88715,-34.93687],[-57.88298,-34.93996],[-57.88402,-34.9409],[-57.88611,-34.93948],[-57.8882,-34.94133],[-57.89029,-34.93978]]],[[[-57.88866,-34.94175],[-57.88655,-34.9433],[-57.88783,-34.94451],[-57.88871,-34.94387],[-57.89042,-34.94544],[-57.89117,-34.94488],[-57.89197,-34.94563],[-57.89129,-34.94613],[-57.89158,-34.94647],[-57.89215,-34.94701],[-57.89337,-34.94609],[-57.8923,-34.94507],[-57.89111,-34.944],[-57.88866,-34.94175]]]]}},{"type":"Feature","properties":{"nombre":"Los Ciruelos","descripcion":"Asentamiento en La Plata · 85 familias · desde 2013"},"geometry":{"type":"MultiPolygon","coordinates":[[[[-57.98953,-34.96935],[-57.99243,-34.96719],[-57.99138,-34.96627],[-57.99131,-34.96625],[-57.98846,-34.9684],[-57.98953,-34.96935]]]]}},{"type":"Feature","properties":{"nombre":"El Carmen","descripcion":"Asentamiento en Berisso · 870 familias"},"geometry":{"type":"MultiPolygon","coordinates":[[[[-57.8892,-34.92463],[-57.88723,-34.92243],[-57.87892,-34.92774],[-57.87446,-34.93061],[-57.87443,-34.93075],[-57.87543,-34.93182],[-57.87721,-34.93067],[-57.8776,-34.93108],[-57.87932,-34.93],[-57.87984,-34.92966],[-57.87968,-34.92951],[-57.88024,-34.92913],[-57.88006,-34.92887],[-57.88178,-34.92771],[-57.88282,-34.92883],[-57.88468,-34.92757],[-57.88572,-34.92865],[-57.88758,-34.92741],[-57.88691,-34.92671],[-57.88744,-34.92645],[-57.88754,-34.92654],[-57.88793,-34.92629],[-57.88673,-34.92499],[-57.88758,-34.92444],[-57.88835,-34.92519],[-57.8892,-34.92463]]]]}},{"type":"Feature","properties":{"nombre":"Solidaridad","descripcion":"Asentamiento en Berisso · 140 familias"},"geometry":{"type":"MultiPolygon","coordinates":[[[[-57.88421,-34.86281],[-57.88421,-34.86291],[-57.88555,-34.86464],[-57.88598,-34.86506],[-57.88826,-34.86422],[-57.8879,-34.86349],[-57.88685,-34.86385],[-57.88553,-34.86216],[-57.88543,-34.86216],[-57.88421,-34.86281]]]]}},{"type":"Feature","properties":{"nombre":"Don Fabián","descripcion":"Asentamiento en La Plata · 285 familias · desde 1990"},"geometry":{"type":"MultiPolygon","coordinates":[[[[-58.02526,-34.94456],[-58.02615,-34.94536],[-58.0263,-34.94514],[-58.02592,-34.94476],[-58.02582,-34.94462],[-58.02565,-34.94412],[-58.02523,-34.94368],[-58.02486,-34.94307],[-58.02412,-34.94191],[-58.01873,-34.94594],[-58.02079,-34.94782],[-58.02526,-34.94456]]]]}},{"type":"Feature","properties":{"nombre":"La Rueda","descripcion":"Asentamiento en La Plata · 40 familias · desde 1997"},"geometry":{"type":"MultiPolygon","coordinates":[[[[-58.13878,-34.98623],[-58.13699,-34.98745],[-58.1369,-34.98752],[-58.13468,-34.98935],[-58.13484,-34.9895],[-58.13512,-34.98927],[-58.13537,-34.98945],[-58.13569,-34.98921],[-58.13674,-34.98837],[-58.13726,-34.98879],[-58.13785,-34.98828],[-58.13863,-34.98896],[-58.139,-34.98867],[-58.13856,-34.98827],[-58.13988,-34.98723],[-58.13878,-34.98623]]]]}},{"type":"Feature","properties":{"nombre":"Sin Nombre","descripcion":"Asentamiento en La Plata · 50 familias · desde 2012"},"geometry":{"type":"MultiPolygon","coordinates":[[[[-58.09546,-35.04399],[-58.09299,-35.04584],[-58.09345,-35.04634],[-58.09595,-35.04446],[-58.09546,-35.04399]]]]}},{"type":"Feature","properties":{"nombre":"Los Colectiveros","descripcion":"Asentamiento en La Plata · 11 familias · desde 1995"},"geometry":{"type":"MultiPolygon","coordinates":[[[[-58.15559,-34.92185],[-58.15334,-34.9236],[-58.15398,-34.92414],[-58.15624,-34.9224],[-58.15559,-34.92185]]]]}},{"type":"Feature","properties":{"nombre":"Eucaliptus","descripcion":"Asentamiento en Ensenada · 230 familias · desde 1950"},"geometry":{"type":"MultiPolygon","coordinates":[[[[-57.94069,-34.89137],[-57.94154,-34.8907],[-57.94217,-34.89019],[-57.94318,-34.8894],[-57.94159,-34.88805],[-57.94169,-34.88795],[-57.94136,-34.88762],[-57.94137,-34.88754],[-57.94145,-34.88748],[-57.94187,-34.88717],[-57.9419,-34.88718],[-57.94234,-34.88683],[-57.94279,-34.88652],[-57.9429,-34.8864],[-57.94379,-34.8857],[-57.94459,-34.88506],[-57.94499,-34.88544],[-57.94581,-34.88482],[-57.9453,-34.88435],[-57.9449,-34.88459],[-57.94451,-34.88472],[-57.94404,-34.88501],[-57.94323,-34.88516],[-57.94301,-34.8853],[-57.94268,-34.88524],[-57.94265,-34.88591],[-57.94135,-34.88703],[-57.94125,-34.8875],[-57.94117,-34.88787],[-57.94153,-34.88877],[-57.94071,-34.88953],[-57.93927,-34.89082],[-57.94029,-34.89168],[-57.94069,-34.89137]]]]}},{"type":"Feature","properties":{"nombre":"La Granjita","descripcion":"Asentamiento en La Plata · 700 familias · desde 1986"},"geometry":{"type":"MultiPolygon","coordinates":[[[[-58.03218,-34.93571],[-58.02898,-34.93281],[-58.02818,-34.93207],[-58.02708,-34.93288],[-58.02606,-34.93199],[-58.02495,-34.93102],[-58.02278,-34.93267],[-58.02484,-34.93455],[-58.02562,-34.93529],[-58.02499,-34.93561],[-58.02543,-34.93598],[-58.02594,-34.93556],[-58.02628,-34.93589],[-58.02585,-34.93614],[-58.0264,-34.93668],[-58.02569,-34.93723],[-58.0252,-34.93682],[-58.02497,-34.937],[-58.02539,-34.93742],[-58.02343,-34.93893],[-58.02555,-34.94079],[-58.03218,-34.93571]]]]}},{"type":"Feature","properties":{"nombre":"Las Dos Manzanas","descripcion":"Asentamiento en La Plata · 60 familias · desde 2013"},"geometry":{"type":"MultiPolygon","coordinates":[[[[-58.03828,-34.94501],[-58.03605,-34.94662],[-58.03703,-34.94754],[-58.03931,-34.94596],[-58.03828,-34.94501]]]]}},{"type":"Feature","properties":{"nombre":"Ruta del Sol","descripcion":"Asentamiento en La Plata · 40 familias · desde 2005"},"geometry":{"type":"MultiPolygon","coordinates":[[[[-58.17474,-34.95217],[-58.17412,-34.95266],[-58.17513,-34.95354],[-58.17455,-34.95403],[-58.17434,-34.95383],[-58.17371,-34.95428],[-58.17499,-34.95542],[-58.1762,-34.95447],[-58.17519,-34.95357],[-58.17576,-34.95309],[-58.17474,-34.95217]]]]}},{"type":"Feature","properties":{"nombre":"Etcheverry I","descripcion":"Asentamiento en La Plata · 14 familias · desde 2000"},"geometry":{"type":"MultiPolygon","coordinates":[[[[-58.06988,-35.03062],[-58.0703,-35.03099],[-58.07096,-35.03045],[-58.0706,-35.03008],[-58.06988,-35.03062]]]]}},{"type":"Feature","properties":{"nombre":"Sin Nombre","descripcion":"Asentamiento en La Plata · 20 familias · desde 2007"},"geometry":{"type":"MultiPolygon","coordinates":[[[[-57.87297,-34.97053],[-57.87253,-34.97012],[-57.87181,-34.97062],[-57.87269,-34.9714],[-57.87291,-34.97126],[-57.87248,-34.97087],[-57.87297,-34.97053]]]]}},{"type":"Feature","properties":{"nombre":"La 28","descripcion":"Asentamiento en La Plata · 30 familias · desde 1985"},"geometry":{"type":"MultiPolygon","coordinates":[[[[-58.04865,-34.88976],[-58.04831,-34.88891],[-58.04709,-34.88917],[-58.04739,-34.89005],[-58.04865,-34.88976]]]]}},{"type":"Feature","properties":{"nombre":"Santa Rosa","descripcion":"Asentamiento en La Plata · 300 familias · desde 1970"},"geometry":{"type":"MultiPolygon","coordinates":[[[[-58.04276,-34.97904],[-58.04425,-34.97795],[-58.04673,-34.97613],[-58.04962,-34.9739],[-58.04588,-34.97046],[-58.0444,-34.9713],[-58.04629,-34.97298],[-58.04299,-34.97543],[-58.04186,-34.97629],[-58.04073,-34.97718],[-58.04276,-34.97904]]]]}},{"type":"Feature","properties":{"nombre":"Santa Rosa Calle 39","descripcion":"Asentamiento en La Plata · 20 familias · desde 2003"},"geometry":{"type":"MultiPolygon","coordinates":[[[[-58.04165,-34.97995],[-58.04106,-34.98038],[-58.043,-34.98222],[-58.04403,-34.98149],[-58.04383,-34.98129],[-58.04344,-34.98154],[-58.04165,-34.97995]]]]}},{"type":"Feature","properties":{"nombre":"Sin Nombre","descripcion":"Asentamiento en La Plata · 190 familias · desde 2000"},"geometry":{"type":"MultiPolygon","coordinates":[[[[-57.97877,-34.97738],[-57.97974,-34.97825],[-57.98202,-34.97658],[-57.98073,-34.97542],[-57.98017,-34.9758],[-57.98008,-34.97572],[-57.9795,-34.97612],[-57.97988,-34.9765],[-57.97877,-34.97738]]],[[[-57.97966,-34.9801],[-57.98027,-34.98063],[-57.9814,-34.97977],[-57.98284,-34.98103],[-57.98511,-34.97935],[-57.98305,-34.97748],[-57.98108,-34.97897],[-57.97966,-34.9801]]]]}},{"type":"Feature","properties":{"nombre":"Santa Ana","descripcion":"Asentamiento en La Plata · 167 familias · desde 1978"},"geometry":{"type":"MultiPolygon","coordinates":[[[[-58.06044,-34.8723],[-58.06321,-34.87166],[-58.06264,-34.8701],[-58.05986,-34.87071],[-58.06044,-34.8723]]]]}},{"type":"Feature","properties":{"nombre":"El Bajo","descripcion":"Asentamiento en La Plata · 50 familias · desde 1982"},"geometry":{"type":"MultiPolygon","coordinates":[[[[-58.05898,-34.85774],[-58.0589,-34.85772],[-58.05787,-34.85823],[-58.05821,-34.85922],[-58.05884,-34.85911],[-58.05848,-34.85813],[-58.05904,-34.85794],[-58.05898,-34.85774]]]]}},{"type":"Feature","properties":{"nombre":"Martín Fierro","descripcion":"Asentamiento en La Plata · 70 familias · desde 1985"},"geometry":{"type":"MultiPolygon","coordinates":[[[[-58.08435,-34.8837],[-58.08196,-34.88422],[-58.0826,-34.88607],[-58.08501,-34.8855],[-58.08435,-34.8837]]]]}},{"type":"Feature","properties":{"nombre":"El Parque","descripcion":"Asentamiento en La Plata · 12 familias · desde 2006"},"geometry":{"type":"MultiPolygon","coordinates":[[[[-58.0242,-34.96926],[-58.0238,-34.96926],[-58.02341,-34.96964],[-58.02435,-34.97052],[-58.02485,-34.97021],[-58.02444,-34.96947],[-58.0242,-34.96926]]]]}},{"type":"Feature","properties":{"nombre":"Club de Pesca","descripcion":"Asentamiento en Ensenada · 71 familias · desde 1970"},"geometry":{"type":"MultiPolygon","coordinates":[[[[-57.95055,-34.83312],[-57.95049,-34.83303],[-57.95029,-34.83313],[-57.95002,-34.83323],[-57.9495,-34.83348],[-57.94938,-34.83352],[-57.94936,-34.83354],[-57.94931,-34.83356],[-57.94909,-34.83363],[-57.94894,-34.83366],[-57.94884,-34.83368],[-57.94866,-34.83376],[-57.94856,-34.83383],[-57.94856,-34.83386],[-57.94837,-34.83386],[-57.9482,-34.83394],[-57.94812,-34.83401],[-57.94803,-34.83404],[-57.94782,-34.83415],[-57.94762,-34.83426],[-57.94751,-34.83436],[-57.9472,-34.8346],[-57.94707,-34.83469],[-57.94703,-34.83476],[-57.94736,-34.83508],[-57.94743,-34.83512],[-57.94781,-34.83488],[-57.9481,-34.83472],[-57.94834,-34.83449],[-57.9485,-34.83439],[-57.94864,-34.8343],[-57.9488,-34.83425],[-57.94889,-34.83416],[-57.94929,-34.83392],[-57.94949,-34.83376],[-57.94955,-34.83377],[-57.95012,-34.83346],[-57.95055,-34.83312]]]]}},{"type":"Feature","properties":{"nombre":"El Retiro 1","descripcion":"Asentamiento en La Plata · 50 familias · desde 1980"},"geometry":{"type":"MultiPolygon","coordinates":[[[[-58.01314,-34.9568],[-58.01187,-34.95778],[-58.01228,-34.95822],[-58.01238,-34.95813],[-58.0129,-34.95866],[-58.01302,-34.95858],[-58.01349,-34.95898],[-58.0147,-34.95814],[-58.01382,-34.95733],[-58.01364,-34.95726],[-58.01314,-34.9568]]]]}},{"type":"Feature","properties":{"nombre":"Arturo Seguí 2","descripcion":"Asentamiento en La Plata · 15 familias · desde 1976"},"geometry":{"type":"MultiPolygon","coordinates":[[[[-58.13524,-34.8869],[-58.13495,-34.88696],[-58.13494,-34.88698],[-58.13525,-34.88727],[-58.13529,-34.88727],[-58.13594,-34.88677],[-58.13592,-34.88675],[-58.1353,-34.88689],[-58.13524,-34.8869]]]]}},{"type":"Feature","properties":{"nombre":"San Antonio","descripcion":"Asentamiento en La Plata · 30 familias · desde 1985"},"geometry":{"type":"MultiPolygon","coordinates":[[[[-58.07381,-35.01294],[-58.07483,-35.01214],[-58.07405,-35.0114],[-58.07298,-35.01222],[-58.07381,-35.01294]]]]}},{"type":"Feature","properties":{"nombre":"El Molino1","descripcion":"Asentamiento en La Plata · 60 familias · desde 1978"},"geometry":{"type":"MultiPolygon","coordinates":[[[[-58.0234,-34.95769],[-58.02238,-34.95676],[-58.02135,-34.95585],[-58.02037,-34.95499],[-58.01932,-34.95571],[-58.01926,-34.9558],[-58.01828,-34.95655],[-58.01827,-34.95666],[-58.01922,-34.95755],[-58.02013,-34.95836],[-58.02023,-34.95842],[-58.02032,-34.95863],[-58.02109,-34.95933],[-58.02119,-34.95932],[-58.02231,-34.95848],[-58.0234,-34.95769]]]]}},{"type":"Feature","properties":{"nombre":"La Granja 2","descripcion":"Asentamiento en La Plata · 20 familias · desde 1990"},"geometry":{"type":"MultiPolygon","coordinates":[[[[-58.013,-34.92614],[-58.01348,-34.92626],[-58.01402,-34.92638],[-58.01447,-34.92649],[-58.01449,-34.92645],[-58.01376,-34.92584],[-58.01373,-34.92585],[-58.01369,-34.92581],[-58.01338,-34.92603],[-58.01243,-34.92517],[-58.01207,-34.92543],[-58.01257,-34.92593],[-58.013,-34.92614]]]]}},{"type":"Feature","properties":{"nombre":"La Granja 1","descripcion":"Asentamiento en La Plata · 60 familias · desde 1958"},"geometry":{"type":"MultiPolygon","coordinates":[[[[-58.02553,-34.92027],[-58.02641,-34.91957],[-58.02502,-34.91836],[-58.02586,-34.91766],[-58.02575,-34.91752],[-58.02543,-34.91772],[-58.02482,-34.91717],[-58.02417,-34.91763],[-58.02493,-34.91832],[-58.02497,-34.91838],[-58.0241,-34.91906],[-58.02553,-34.92027]]]]}},{"type":"Feature","properties":{"nombre":"La Granjita 2","descripcion":"Asentamiento en La Plata · 220 familias · desde 1975"},"geometry":{"type":"MultiPolygon","coordinates":[[[[-58.0289,-34.92983],[-58.02942,-34.93037],[-58.02899,-34.93074],[-58.02939,-34.93113],[-58.02969,-34.9309],[-58.02985,-34.93088],[-58.03078,-34.93173],[-58.03207,-34.93081],[-58.03102,-34.92991],[-58.0327,-34.92867],[-58.03315,-34.92833],[-58.03213,-34.92748],[-58.03177,-34.92772],[-58.03172,-34.92776],[-58.03065,-34.92849],[-58.03063,-34.92858],[-58.0289,-34.92983]]]]}},{"type":"Feature","properties":{"nombre":"La Hermosura","descripcion":"Asentamiento en La Plata · 10 familias · desde 2004"},"geometry":{"type":"MultiPolygon","coordinates":[[[[-57.84524,-34.95485],[-57.84395,-34.95355],[-57.84334,-34.95393],[-57.84466,-34.95521],[-57.84524,-34.95485]]]]}},{"type":"Feature","properties":{"nombre":"Sin Nombre","descripcion":"Asentamiento en La Plata · 30 familias · desde 1996"},"geometry":{"type":"MultiPolygon","coordinates":[[[[-58.00212,-34.95142],[-58.00318,-34.95059],[-58.00221,-34.94973],[-58.00199,-34.94989],[-58.0017,-34.95104],[-58.00212,-34.95142]]]]}},{"type":"Feature","properties":{"nombre":"62 y 161","descripcion":"Asentamiento en La Plata · 820 familias · desde 1999"},"geometry":{"type":"MultiPolygon","coordinates":[[[[-57.99937,-34.97549],[-57.99837,-34.97456],[-57.99737,-34.97368],[-57.99632,-34.97448],[-57.99542,-34.97371],[-57.99552,-34.97316],[-57.99546,-34.97289],[-57.99545,-34.97203],[-57.99543,-34.97117],[-57.99548,-34.96999],[-57.99445,-34.96906],[-57.99223,-34.97064],[-57.99211,-34.97072],[-57.99105,-34.97152],[-57.99102,-34.97163],[-57.99196,-34.97247],[-57.99193,-34.97254],[-57.99095,-34.97328],[-57.99092,-34.97339],[-57.99315,-34.97532],[-57.99611,-34.97806],[-57.99912,-34.98084],[-57.99979,-34.98037],[-58.00139,-34.97915],[-58.00034,-34.97825],[-58.00036,-34.97819],[-58.00143,-34.97741],[-58.00259,-34.9765],[-58.00063,-34.97467],[-57.99937,-34.97549]]],[[[-58.00389,-34.97768],[-58.0039,-34.97769],[-58.00389,-34.97768]]]]}},{"type":"Feature","properties":{"nombre":"COTILAP","descripcion":"Asentamiento en Berisso · 399 familias · desde 2000"},"geometry":{"type":"MultiPolygon","coordinates":[[[[-57.90006,-34.89013],[-57.89877,-34.88852],[-57.89541,-34.8904],[-57.8961,-34.89125],[-57.89274,-34.89316],[-57.89432,-34.89512],[-57.89659,-34.89383],[-57.89597,-34.89307],[-57.89712,-34.89244],[-57.89677,-34.89195],[-57.90006,-34.89013]]]]}},{"type":"Feature","properties":{"nombre":"Villa Argüello","descripcion":"Asentamiento en Berisso · 1700 familias · desde 2003"},"geometry":{"type":"MultiPolygon","coordinates":[[[[-57.91907,-34.90673],[-57.91092,-34.89682],[-57.90978,-34.89756],[-57.9113,-34.89952],[-57.90483,-34.90313],[-57.90518,-34.90363],[-57.90576,-34.90334],[-57.90702,-34.90489],[-57.90983,-34.90339],[-57.9112,-34.90493],[-57.90873,-34.90618],[-57.90815,-34.90568],[-57.90721,-34.90647],[-57.91757,-34.91117],[-57.91861,-34.91056],[-57.91799,-34.90977],[-57.91912,-34.90904],[-57.91783,-34.90734],[-57.91907,-34.90673]]]]}},{"type":"Feature","properties":{"nombre":"Villa Progreso II","descripcion":"Asentamiento en Berisso · 260 familias · desde 1995"},"geometry":{"type":"MultiPolygon","coordinates":[[[[-57.90189,-34.91385],[-57.90356,-34.91297],[-57.90292,-34.91209],[-57.90185,-34.91275],[-57.90128,-34.91193],[-57.89988,-34.91297],[-57.90098,-34.9144],[-57.90022,-34.91481],[-57.89909,-34.91543],[-57.89851,-34.91467],[-57.89807,-34.91494],[-57.90105,-34.9185],[-57.90392,-34.91689],[-57.90384,-34.91684],[-57.90353,-34.91649],[-57.90306,-34.91677],[-57.9025,-34.91613],[-57.90294,-34.91592],[-57.90267,-34.9155],[-57.90307,-34.91528],[-57.90189,-34.91385]]]]}},{"type":"Feature","properties":{"nombre":"Villa Nueva","descripcion":"Asentamiento en Berisso · 700 familias · desde 1995"},"geometry":{"type":"MultiPolygon","coordinates":[[[[-57.91088,-34.89674],[-57.90586,-34.89058],[-57.90193,-34.89266],[-57.90678,-34.89847],[-57.90925,-34.89711],[-57.90956,-34.89746],[-57.91088,-34.89674]]]]}},{"type":"Feature","properties":{"nombre":"Puerto La Plata","descripcion":"Asentamiento en Berisso · 40 familias · desde 1997"},"geometry":{"type":"MultiPolygon","coordinates":[[[[-57.88652,-34.86167],[-57.88759,-34.8613],[-57.88747,-34.86105],[-57.8874,-34.86106],[-57.88728,-34.86082],[-57.88645,-34.86112],[-57.88631,-34.86127],[-57.88652,-34.86167]]]]}},{"type":"Feature","properties":{"nombre":"Progreso II","descripcion":"Asentamiento en Berisso · 80 familias · desde 1977"},"geometry":{"type":"MultiPolygon","coordinates":[[[[-57.9002,-34.92715],[-57.90067,-34.92638],[-57.90105,-34.92594],[-57.90203,-34.92519],[-57.90169,-34.9248],[-57.90071,-34.92554],[-57.90062,-34.9257],[-57.90015,-34.92621],[-57.89962,-34.92697],[-57.89953,-34.9276],[-57.9002,-34.92715]]]]}},{"type":"Feature","properties":{"nombre":"Universitario","descripcion":"Villa en Berisso · 150 familias · desde 1990"},"geometry":{"type":"MultiPolygon","coordinates":[[[[-57.93002,-34.90372],[-57.9298,-34.90362],[-57.92948,-34.90429],[-57.92831,-34.90534],[-57.92794,-34.90554],[-57.92646,-34.9067],[-57.92667,-34.90695],[-57.92744,-34.90611],[-57.92781,-34.90581],[-57.9284,-34.90544],[-57.92855,-34.90557],[-57.92878,-34.9054],[-57.92913,-34.9057],[-57.92972,-34.90529],[-57.92948,-34.90507],[-57.92967,-34.90494],[-57.92938,-34.90465],[-57.92965,-34.90437],[-57.93002,-34.90372]]]]}},{"type":"Feature","properties":{"nombre":"75Bis y 150","descripcion":"Asentamiento en La Plata · 60 familias · desde 2000"},"geometry":{"type":"MultiPolygon","coordinates":[[[[-57.97047,-34.97262],[-57.9719,-34.97393],[-57.97216,-34.97373],[-57.9716,-34.97308],[-57.97171,-34.973],[-57.97206,-34.97273],[-57.9725,-34.97313],[-57.97255,-34.97311],[-57.97275,-34.97327],[-57.9732,-34.97293],[-57.97306,-34.97282],[-57.9731,-34.97278],[-57.97243,-34.9722],[-57.97251,-34.97216],[-57.97233,-34.97201],[-57.97206,-34.9722],[-57.97184,-34.9724],[-57.97178,-34.97286],[-57.9716,-34.97296],[-57.97099,-34.9729],[-57.97105,-34.9728],[-57.97105,-34.97236],[-57.97097,-34.97226],[-57.97047,-34.97262]]]]}},{"type":"Feature","properties":{"nombre":"El Country","descripcion":"Asentamiento en La Plata · 153 familias · desde 1961"},"geometry":{"type":"MultiPolygon","coordinates":[[[[-58.07082,-34.88711],[-58.06999,-34.88489],[-58.06917,-34.88506],[-58.06905,-34.8851],[-58.06799,-34.88536],[-58.06822,-34.88608],[-58.06834,-34.88645],[-58.06838,-34.88656],[-58.06849,-34.88696],[-58.06856,-34.88706],[-58.06873,-34.88759],[-58.06974,-34.88736],[-58.06985,-34.88734],[-58.07082,-34.88711]]]]}},{"type":"Feature","properties":{"nombre":"152 y 68","descripcion":"Asentamiento en La Plata · 121 familias"},"geometry":{"type":"MultiPolygon","coordinates":[[[[-57.97917,-34.97104],[-57.97862,-34.97056],[-57.97813,-34.97011],[-57.97857,-34.96977],[-57.9774,-34.96872],[-57.97712,-34.96894],[-57.97678,-34.96864],[-57.97622,-34.96903],[-57.97718,-34.96992],[-57.97734,-34.96981],[-57.97835,-34.97075],[-57.97933,-34.97165],[-57.9795,-34.97153],[-57.97976,-34.97178],[-57.97951,-34.97196],[-57.98033,-34.97268],[-57.98004,-34.97289],[-57.98106,-34.97382],[-57.98211,-34.97301],[-57.97959,-34.97073],[-57.97917,-34.97104]]]]}},{"type":"Feature","properties":{"nombre":"74 y 153","descripcion":"Asentamiento en La Plata · 570 familias · desde 1998"},"geometry":{"type":"MultiPolygon","coordinates":[[[[-57.97619,-34.97591],[-57.97516,-34.975],[-57.9755,-34.97471],[-57.97542,-34.97454],[-57.97448,-34.97368],[-57.97232,-34.97527],[-57.97224,-34.97527],[-57.97125,-34.97599],[-57.97114,-34.97597],[-57.97,-34.97691],[-57.97092,-34.97771],[-57.971,-34.97772],[-57.97175,-34.97842],[-57.97184,-34.97845],[-57.97313,-34.97965],[-57.9736,-34.9793],[-57.97365,-34.97918],[-57.97331,-34.97887],[-57.97378,-34.97852],[-57.97383,-34.97849],[-57.97437,-34.9781],[-57.9749,-34.97769],[-57.97434,-34.97717],[-57.97432,-34.9771],[-57.97545,-34.97628],[-57.97557,-34.97637],[-57.97619,-34.97591]]]]}},{"type":"Feature","properties":{"nombre":"La Esperanza","descripcion":"Asentamiento en La Plata · 547 familias · desde 2000"},"geometry":{"type":"MultiPolygon","coordinates":[[[[-57.92648,-34.94901],[-57.9266,-34.94899],[-57.92862,-34.94742],[-57.92645,-34.94541],[-57.92543,-34.94629],[-57.92351,-34.94796],[-57.92026,-34.95047],[-57.91893,-34.95142],[-57.9211,-34.95339],[-57.92239,-34.95233],[-57.92335,-34.95145],[-57.92425,-34.95062],[-57.92484,-34.95022],[-57.92648,-34.94901]]]]}},{"type":"Feature","properties":{"nombre":"Sebastián","descripcion":"Asentamiento en La Plata · 88 familias · desde 1994"},"geometry":{"type":"MultiPolygon","coordinates":[[[[-57.88774,-34.94769],[-57.88673,-34.94839],[-57.88668,-34.94846],[-57.88616,-34.94881],[-57.88569,-34.94916],[-57.88653,-34.94993],[-57.88706,-34.94957],[-57.88855,-34.94845],[-57.88774,-34.94769]]]]}},{"type":"Feature","properties":{"nombre":"El Ombú","descripcion":"Asentamiento en La Plata · 100 familias · desde 2005"},"geometry":{"type":"MultiPolygon","coordinates":[[[[-57.95511,-34.96241],[-57.95382,-34.96126],[-57.95183,-34.96283],[-57.95303,-34.96389],[-57.95511,-34.96241]]]]}},{"type":"Feature","properties":{"nombre":"La Bajada II","descripcion":"Asentamiento en La Plata · 27 familias · desde 1985"},"geometry":{"type":"MultiPolygon","coordinates":[[[[-57.9616,-34.88266],[-57.96103,-34.88213],[-57.96096,-34.88207],[-57.96098,-34.88176],[-57.96052,-34.88186],[-57.96045,-34.88197],[-57.96042,-34.88211],[-57.96053,-34.88235],[-57.9606,-34.88239],[-57.96027,-34.88255],[-57.96072,-34.88329],[-57.96052,-34.88344],[-57.96084,-34.88376],[-57.96105,-34.88396],[-57.96114,-34.88392],[-57.96127,-34.88386],[-57.96091,-34.88316],[-57.96103,-34.88306],[-57.96111,-34.88302],[-57.9616,-34.88266]]]]}},{"type":"Feature","properties":{"nombre":"29 y 90","descripcion":"Asentamiento en La Plata · 450 familias · desde 2000"},"geometry":{"type":"MultiPolygon","coordinates":[[[[-57.94401,-34.95787],[-57.94373,-34.95763],[-57.94173,-34.95902],[-57.94141,-34.95873],[-57.94066,-34.95917],[-57.94089,-34.9595],[-57.93956,-34.96043],[-57.9387,-34.96108],[-57.9373,-34.96222],[-57.93634,-34.96291],[-57.93518,-34.96379],[-57.93379,-34.96488],[-57.93389,-34.96512],[-57.93399,-34.9651],[-57.93661,-34.96319],[-57.93767,-34.9624],[-57.93905,-34.9637],[-57.93992,-34.96447],[-57.94031,-34.96418],[-57.94125,-34.96501],[-57.94086,-34.96536],[-57.94159,-34.96604],[-57.94269,-34.96518],[-57.94194,-34.96454],[-57.94299,-34.96374],[-57.93983,-34.96084],[-57.94115,-34.95986],[-57.94164,-34.9596],[-57.94213,-34.95927],[-57.94401,-34.95787]]]]}},{"type":"Feature","properties":{"nombre":"La Victoria","descripcion":"Asentamiento en La Plata · 400 familias · desde 1985"},"geometry":{"type":"MultiPolygon","coordinates":[[[[-58.13814,-34.89245],[-58.13665,-34.89373],[-58.13357,-34.89626],[-58.13346,-34.89629],[-58.13188,-34.89757],[-58.13262,-34.89825],[-58.13215,-34.89865],[-58.13377,-34.89997],[-58.13756,-34.89712],[-58.13657,-34.89633],[-58.13892,-34.89439],[-58.13995,-34.89522],[-58.14076,-34.89462],[-58.13814,-34.89245]]]]}},{"type":"Feature","properties":{"nombre":"154 y 413","descripcion":"Asentamiento en La Plata · 23 familias · desde 1985"},"geometry":{"type":"MultiPolygon","coordinates":[[[[-58.13424,-34.89308],[-58.13501,-34.89247],[-58.13427,-34.89186],[-58.13352,-34.89246],[-58.13424,-34.89308]]]]}},{"type":"Feature","properties":{"nombre":"San Luis","descripcion":"Asentamiento en La Plata · 225 familias · desde 1995"},"geometry":{"type":"MultiPolygon","coordinates":[[[[-57.99877,-34.91237],[-57.99751,-34.91336],[-57.99844,-34.91427],[-57.99954,-34.91522],[-58.00022,-34.91578],[-58.00051,-34.91578],[-58.00073,-34.91558],[-58.00072,-34.91539],[-58.00083,-34.91526],[-58.00132,-34.91609],[-58.00146,-34.91601],[-58.00204,-34.91652],[-58.00264,-34.91615],[-58.00175,-34.91546],[-58.00181,-34.91539],[-58.00068,-34.91435],[-58.00287,-34.91271],[-58.00088,-34.91082],[-57.99974,-34.91166],[-58.0007,-34.91256],[-57.99997,-34.91313],[-57.99899,-34.91221],[-57.99877,-34.91237]]]]}},{"type":"Feature","properties":{"nombre":"Sin Nombre","descripcion":"Asentamiento en La Plata · 44 familias"},"geometry":{"type":"MultiPolygon","coordinates":[[[[-58.01108,-34.86762],[-58.01051,-34.86789],[-58.01029,-34.86757],[-58.00983,-34.86777],[-58.01004,-34.86808],[-58.00961,-34.86828],[-58.00998,-34.86884],[-58.01043,-34.86865],[-58.01095,-34.86842],[-58.01095,-34.86822],[-58.01135,-34.86804],[-58.01108,-34.86762]]]]}},{"type":"Feature","properties":{"nombre":"Los Pinos","descripcion":"Asentamiento en La Plata · 280 familias · desde 1990"},"geometry":{"type":"MultiPolygon","coordinates":[[[[-58.01636,-34.94937],[-58.01729,-34.95045],[-58.01616,-34.95125],[-58.01824,-34.95292],[-58.01924,-34.9522],[-58.02056,-34.95314],[-58.02262,-34.95153],[-58.02368,-34.95242],[-58.02607,-34.95062],[-58.02395,-34.94875],[-58.02289,-34.94957],[-58.02233,-34.94914],[-58.02171,-34.94953],[-58.02125,-34.94919],[-58.01953,-34.9504],[-58.01752,-34.94855],[-58.01636,-34.94937]]]]}},{"type":"Feature","properties":{"nombre":"11 y 134","descripcion":"Villa en Ensenada · 117 familias · desde 2000"},"geometry":{"type":"MultiPolygon","coordinates":[[[[-57.9997,-34.80196],[-58.00181,-34.80056],[-58.00066,-34.79952],[-57.99459,-34.80349],[-57.9956,-34.80454],[-57.99537,-34.80471],[-57.99531,-34.80496],[-57.99543,-34.80517],[-57.99524,-34.80585],[-57.99708,-34.80774],[-58.00136,-34.80377],[-57.9997,-34.80196]]]]}},{"type":"Feature","properties":{"nombre":"La Vía","descripcion":"Asentamiento en La Plata · 350 familias · desde 1984"},"geometry":{"type":"MultiPolygon","coordinates":[[[[-57.97242,-34.94472],[-57.97341,-34.94568],[-57.97429,-34.94648],[-57.9745,-34.94653],[-57.97571,-34.94773],[-57.97639,-34.9484],[-57.97653,-34.94845],[-57.97743,-34.9493],[-57.97751,-34.9494],[-57.97843,-34.95024],[-57.98005,-34.95168],[-57.9806,-34.95202],[-57.98068,-34.95206],[-57.98104,-34.95225],[-57.98152,-34.95245],[-57.98367,-34.95318],[-57.98435,-34.9534],[-57.98686,-34.95419],[-57.98767,-34.95445],[-57.9885,-34.9547],[-57.98895,-34.95488],[-57.98928,-34.95499],[-57.9897,-34.95528],[-57.98989,-34.95547],[-57.99081,-34.95626],[-57.99092,-34.95625],[-57.99148,-34.9561],[-57.99276,-34.95683],[-57.99362,-34.95739],[-57.99386,-34.95744],[-57.99486,-34.95842],[-57.99515,-34.95825],[-57.99208,-34.95556],[-57.99176,-34.95544],[-57.9909,-34.95471],[-57.99082,-34.95467],[-57.99032,-34.95505],[-57.99004,-34.95494],[-57.98896,-34.95455],[-57.98717,-34.95393],[-57.98577,-34.95345],[-57.98556,-34.95344],[-57.984,-34.9529],[-57.98262,-34.95243],[-57.98192,-34.95224],[-57.98085,-34.95181],[-57.98042,-34.95149],[-57.9798,-34.95104],[-57.97972,-34.95094],[-57.97884,-34.95014],[-57.97834,-34.94968],[-57.97766,-34.94905],[-57.97671,-34.94817],[-57.97628,-34.9478],[-57.97577,-34.94734],[-57.97564,-34.94718],[-57.97479,-34.94632],[-57.97458,-34.94626],[-57.9737,-34.94545],[-57.97352,-34.94536],[-57.97267,-34.94452],[-57.97242,-34.94472]]]]}},{"type":"Feature","properties":{"nombre":"Martínez","descripcion":"Asentamiento en Ensenada · 285 familias · desde 2000"},"geometry":{"type":"MultiPolygon","coordinates":[[[[-57.99238,-34.80636],[-57.99155,-34.80693],[-57.9924,-34.80777],[-57.98917,-34.81],[-57.98754,-34.81111],[-57.98441,-34.81324],[-57.98249,-34.8146],[-57.98257,-34.81466],[-57.98521,-34.81515],[-57.98534,-34.81498],[-57.98545,-34.81498],[-57.98578,-34.81514],[-57.9863,-34.81512],[-57.98716,-34.81548],[-57.98802,-34.81498],[-57.99002,-34.81354],[-57.99285,-34.81169],[-57.99385,-34.81075],[-57.99289,-34.80756],[-57.99238,-34.80636]]]]}},{"type":"Feature","properties":{"nombre":"El Triunfo","descripcion":"Villa en La Plata · 40 familias · desde 2003"},"geometry":{"type":"MultiPolygon","coordinates":[[[[-58.00657,-34.92255],[-58.0061,-34.9221],[-58.00565,-34.92169],[-58.00555,-34.92161],[-58.00585,-34.92142],[-58.00555,-34.92114],[-58.0053,-34.92129],[-58.00536,-34.92186],[-58.00537,-34.92208],[-58.00545,-34.92223],[-58.00572,-34.92255],[-58.0061,-34.92289],[-58.00657,-34.92255]]],[[[-58.0052,-34.92198],[-58.00521,-34.92174],[-58.00518,-34.92148],[-58.00517,-34.92134],[-58.00459,-34.92174],[-58.005,-34.92214],[-58.0052,-34.92198]]]]}},{"type":"Feature","properties":{"nombre":"Sin Nombre","descripcion":"Villa en La Plata · 160 familias · desde 2002"},"geometry":{"type":"MultiPolygon","coordinates":[[[[-57.98666,-34.88312],[-57.98573,-34.88202],[-57.98548,-34.88224],[-57.9866,-34.88404],[-57.98763,-34.88574],[-57.98876,-34.88502],[-57.98666,-34.88312]]],[[[-57.98606,-34.88382],[-57.98579,-34.88392],[-57.98613,-34.88434],[-57.98577,-34.88458],[-57.98751,-34.88621],[-57.9877,-34.88606],[-57.98666,-34.88478],[-57.98606,-34.88382]]]]}},{"type":"Feature","properties":{"nombre":"La Laguna","descripcion":"Asentamiento en La Plata · 24 familias · desde 2005"},"geometry":{"type":"MultiPolygon","coordinates":[[[[-57.96516,-34.88201],[-57.96581,-34.88151],[-57.96505,-34.88081],[-57.96469,-34.88118],[-57.96448,-34.881],[-57.96391,-34.88044],[-57.96221,-34.88111],[-57.96242,-34.88141],[-57.96291,-34.8812],[-57.96382,-34.88079],[-57.96516,-34.88201]]]]}},{"type":"Feature","properties":{"nombre":"Sin Nombre","descripcion":"Villa en La Plata · 55 familias"},"geometry":{"type":"MultiPolygon","coordinates":[[[[-58.02393,-34.90771],[-58.02344,-34.90713],[-58.02282,-34.9075],[-58.02318,-34.908],[-58.02348,-34.90783],[-58.02357,-34.90795],[-58.02393,-34.90771]]]]}},{"type":"Feature","properties":{"nombre":"Toba","descripcion":"Asentamiento en La Plata · 228 familias · desde 2000"},"geometry":{"type":"MultiPolygon","coordinates":[[[[-58.00848,-34.92617],[-58.00863,-34.92608],[-58.00872,-34.92614],[-58.00924,-34.9266],[-58.00968,-34.92624],[-58.01151,-34.9279],[-58.01257,-34.92716],[-58.01327,-34.92777],[-58.01458,-34.92677],[-58.01437,-34.92664],[-58.01411,-34.92651],[-58.01302,-34.92624],[-58.01266,-34.92607],[-58.01241,-34.92588],[-58.01193,-34.92546],[-58.01175,-34.92536],[-58.01126,-34.92537],[-58.01072,-34.92552],[-58.01047,-34.9256],[-58.01035,-34.92558],[-58.01017,-34.92546],[-58.00997,-34.92527],[-58.00968,-34.92502],[-58.00938,-34.92498],[-58.00915,-34.92499],[-58.00864,-34.92511],[-58.00791,-34.92507],[-58.00754,-34.92534],[-58.00848,-34.92617]]],[[[-58.01054,-34.92547],[-58.01084,-34.9254],[-58.00984,-34.92452],[-58.0094,-34.92489],[-58.00966,-34.92493],[-58.01004,-34.92514],[-58.01024,-34.92537],[-58.01044,-34.92548],[-58.01054,-34.92547]]]]}},{"type":"Feature","properties":{"nombre":"Néstor Kirchner","descripcion":"Asentamiento en Berisso · 550 familias · desde 2012"},"geometry":{"type":"MultiPolygon","coordinates":[[[[-57.88627,-34.92133],[-57.89019,-34.92563],[-57.89139,-34.92697],[-57.89234,-34.92638],[-57.89212,-34.92618],[-57.89386,-34.92523],[-57.89402,-34.92533],[-57.89446,-34.92481],[-57.89496,-34.92358],[-57.89381,-34.92287],[-57.89318,-34.92298],[-57.89233,-34.92247],[-57.89231,-34.92187],[-57.89198,-34.92137],[-57.88813,-34.92077],[-57.88627,-34.92133]]]]}},{"type":"Feature","properties":{"nombre":"El Olvido","descripcion":"Asentamiento en La Plata · 313 familias · desde 2001"},"geometry":{"type":"MultiPolygon","coordinates":[[[[-58.00274,-34.9185],[-58.00171,-34.9191],[-58.00179,-34.91919],[-58.00195,-34.91932],[-58.00198,-34.91935],[-58.00193,-34.91943],[-58.0015,-34.91964],[-58.00121,-34.91979],[-58.00069,-34.92008],[-58.00058,-34.92009],[-57.9995,-34.92054],[-57.99936,-34.9206],[-57.99928,-34.92065],[-57.99916,-34.9207],[-57.99903,-34.92086],[-57.99829,-34.92121],[-57.99821,-34.92122],[-57.99802,-34.92131],[-57.99737,-34.92157],[-57.99721,-34.92168],[-57.99667,-34.92194],[-57.99657,-34.92201],[-57.99533,-34.9226],[-57.99516,-34.92261],[-57.99498,-34.92274],[-57.99422,-34.92309],[-57.99426,-34.9233],[-57.99487,-34.92301],[-57.99532,-34.92277],[-57.99545,-34.92273],[-57.9967,-34.92212],[-57.99677,-34.92206],[-57.998,-34.92152],[-57.99814,-34.92142],[-57.9991,-34.92098],[-57.99932,-34.92083],[-57.99945,-34.92084],[-58.00068,-34.92022],[-58.00076,-34.92019],[-58.00159,-34.91979],[-58.00186,-34.91965],[-58.00205,-34.91953],[-58.00223,-34.91957],[-58.00288,-34.92017],[-58.00384,-34.91941],[-58.00398,-34.91933],[-58.00513,-34.91854],[-58.00629,-34.91769],[-58.00634,-34.91764],[-58.00679,-34.91736],[-58.00749,-34.91694],[-58.0088,-34.91811],[-58.00932,-34.91775],[-58.00964,-34.9181],[-58.00991,-34.91831],[-58.01054,-34.91785],[-58.00896,-34.91639],[-58.01003,-34.91596],[-58.01071,-34.91581],[-58.01373,-34.91512],[-58.01357,-34.91497],[-58.01052,-34.91571],[-58.01011,-34.9157],[-58.00998,-34.91554],[-58.00817,-34.91626],[-58.00724,-34.91671],[-58.00702,-34.91654],[-58.00664,-34.91678],[-58.00649,-34.91692],[-58.006,-34.91728],[-58.0059,-34.91729],[-58.00581,-34.91746],[-58.0052,-34.91772],[-58.00515,-34.91775],[-58.00426,-34.91695],[-58.00403,-34.9171],[-58.00385,-34.91724],[-58.00461,-34.91793],[-58.00452,-34.91797],[-58.004,-34.91821],[-58.00336,-34.91854],[-58.00295,-34.9184],[-58.00274,-34.9185]]]]}},{"type":"Feature","properties":{"nombre":"La Isla","descripcion":"Villa en La Plata · 266 familias · desde 1999"},"geometry":{"type":"MultiPolygon","coordinates":[[[[-57.99415,-34.89019],[-57.99425,-34.89008],[-57.99386,-34.88967],[-57.99027,-34.88641],[-57.99019,-34.88648],[-57.98988,-34.88667],[-57.99031,-34.88691],[-57.99097,-34.88742],[-57.99138,-34.88767],[-57.99165,-34.88802],[-57.99232,-34.88854],[-57.99261,-34.88876],[-57.99285,-34.88906],[-57.9932,-34.88934],[-57.99353,-34.8897],[-57.99397,-34.89008],[-57.99415,-34.89019]]],[[[-57.9908,-34.89122],[-57.9913,-34.89068],[-57.99184,-34.89022],[-57.99297,-34.88938],[-57.99292,-34.88935],[-57.99266,-34.88913],[-57.99226,-34.88881],[-57.99194,-34.88844],[-57.99154,-34.88809],[-57.99099,-34.88756],[-57.99053,-34.88724],[-57.99025,-34.88706],[-57.99032,-34.88719],[-57.99042,-34.88722],[-57.99058,-34.88753],[-57.9907,-34.88786],[-57.99097,-34.88827],[-57.99109,-34.88848],[-57.99123,-34.8888],[-57.99131,-34.88914],[-57.99138,-34.88923],[-57.99127,-34.8894],[-57.99145,-34.8897],[-57.99125,-34.89013],[-57.99115,-34.89056],[-57.99083,-34.89108],[-57.9908,-34.89122]]],[[[-57.98966,-34.88693],[-57.98937,-34.88713],[-57.98969,-34.88741],[-57.99029,-34.88801],[-57.99046,-34.88827],[-57.99054,-34.88851],[-57.99064,-34.88871],[-57.99071,-34.88898],[-57.99077,-34.88928],[-57.99077,-34.88952],[-57.99082,-34.88981],[-57.99073,-34.8901],[-57.99069,-34.89042],[-57.99033,-34.89094],[-57.98992,-34.89138],[-57.99,-34.89149],[-57.99024,-34.89135],[-57.99064,-34.89103],[-57.99087,-34.89006],[-57.99095,-34.88963],[-57.99097,-34.88913],[-57.99087,-34.88882],[-57.99069,-34.88834],[-57.9906,-34.88816],[-57.9904,-34.88774],[-57.99006,-34.88745],[-57.99017,-34.88725],[-57.99,-34.88705],[-57.98988,-34.88705],[-57.98966,-34.88693]]]]}},{"type":"Feature","properties":{"nombre":"Barrio Obrero","descripcion":"Asentamiento en Berisso · 530 familias"},"geometry":{"type":"MultiPolygon","coordinates":[[[[-57.8619,-34.88392],[-57.86166,-34.88322],[-57.86154,-34.88312],[-57.86101,-34.88228],[-57.86076,-34.88215],[-57.86079,-34.88188],[-57.86009,-34.88114],[-57.8595,-34.88068],[-57.85952,-34.88058],[-57.85874,-34.8801],[-57.8586,-34.88012],[-57.85771,-34.87979],[-57.85767,-34.87969],[-57.8574,-34.87962],[-57.85739,-34.87956],[-57.85707,-34.87951],[-57.85709,-34.87991],[-57.85722,-34.88013],[-57.85751,-34.88029],[-57.85771,-34.88084],[-57.85809,-34.88138],[-57.85646,-34.88219],[-57.85703,-34.88294],[-57.85551,-34.88379],[-57.85907,-34.88553],[-57.85956,-34.8855],[-57.86003,-34.88471],[-57.86007,-34.88469],[-57.86225,-34.88566],[-57.86181,-34.88663],[-57.86592,-34.88841],[-57.86649,-34.88747],[-57.86214,-34.88557],[-57.8621,-34.88524],[-57.8621,-34.88519],[-57.86205,-34.88494],[-57.8619,-34.88392]]]]}},{"type":"Feature","properties":{"nombre":"El Zanjón","descripcion":"Asentamiento en Ensenada · 780 familias"},"geometry":{"type":"MultiPolygon","coordinates":[[[[-57.94193,-34.84255],[-57.94603,-34.83992],[-57.94403,-34.83787],[-57.94116,-34.83968],[-57.94082,-34.83937],[-57.94031,-34.83886],[-57.93997,-34.83852],[-57.93904,-34.83891],[-57.93877,-34.83908],[-57.93806,-34.83947],[-57.93747,-34.83982],[-57.93626,-34.84073],[-57.93544,-34.84141],[-57.93583,-34.84176],[-57.93607,-34.84162],[-57.93656,-34.8421],[-57.93682,-34.84196],[-57.93714,-34.84219],[-57.93734,-34.84216],[-57.93768,-34.84228],[-57.93835,-34.84224],[-57.93883,-34.84237],[-57.93899,-34.84256],[-57.93947,-34.84257],[-57.94044,-34.84223],[-57.94137,-34.84277],[-57.94301,-34.84416],[-57.94327,-34.844],[-57.94195,-34.84265],[-57.94193,-34.84255]]]]}},{"type":"Feature","properties":{"nombre":"Villa Catela","descripcion":"Asentamiento en Ensenada · 485 familias"},"geometry":{"type":"MultiPolygon","coordinates":[[[[-57.94323,-34.88681],[-57.945,-34.88548],[-57.94459,-34.88508],[-57.94374,-34.8858],[-57.94295,-34.88645],[-57.94287,-34.8865],[-57.94281,-34.88652],[-57.94213,-34.88702],[-57.94189,-34.88723],[-57.9418,-34.88723],[-57.94138,-34.88755],[-57.94136,-34.88762],[-57.94172,-34.88795],[-57.94163,-34.88804],[-57.94332,-34.88948],[-57.94228,-34.89022],[-57.94351,-34.89123],[-57.94428,-34.89189],[-57.9451,-34.89255],[-57.94508,-34.89257],[-57.94527,-34.89274],[-57.94548,-34.8926],[-57.94554,-34.89259],[-57.94564,-34.89254],[-57.94579,-34.89243],[-57.94591,-34.89242],[-57.94612,-34.89227],[-57.94607,-34.89218],[-57.94678,-34.89161],[-57.94683,-34.89159],[-57.94736,-34.89117],[-57.9469,-34.89077],[-57.94684,-34.89083],[-57.94588,-34.88997],[-57.94586,-34.88993],[-57.9456,-34.88969],[-57.94601,-34.88939],[-57.94602,-34.88931],[-57.94323,-34.88681]]]]}},{"type":"Feature","properties":{"nombre":"YPF","descripcion":"Asentamiento en La Plata · 50 familias · desde 1968"},"geometry":{"type":"MultiPolygon","coordinates":[[[[-58.07005,-34.85142],[-58.06984,-34.85157],[-58.06959,-34.85174],[-58.06936,-34.8519],[-58.06918,-34.85202],[-58.0691,-34.85207],[-58.0689,-34.85221],[-58.06748,-34.85305],[-58.06759,-34.8532],[-58.07043,-34.8518],[-58.07005,-34.85142]]]]}},{"type":"Feature","properties":{"nombre":"El Mercadito","descripcion":"Asentamiento en La Plata · 170 familias · desde 2000"},"geometry":{"type":"MultiPolygon","coordinates":[[[[-57.97086,-34.88063],[-57.97119,-34.88069],[-57.97146,-34.88048],[-57.97134,-34.88037],[-57.97154,-34.88024],[-57.97164,-34.88029],[-57.97586,-34.87717],[-57.97519,-34.87652],[-57.97614,-34.87574],[-57.97592,-34.8755],[-57.97487,-34.87633],[-57.9755,-34.87692],[-57.97445,-34.87772],[-57.9734,-34.87673],[-57.97025,-34.8791],[-57.9715,-34.88024],[-57.97132,-34.88035],[-57.97122,-34.88026],[-57.97077,-34.88055],[-57.97086,-34.88063]]]]}},{"type":"Feature","properties":{"nombre":"Tres de Abril","descripcion":"Asentamiento en La Plata · 200 familias · desde 1996"},"geometry":{"type":"MultiPolygon","coordinates":[[[[-58.0324,-34.95099],[-58.02942,-34.94822],[-58.02904,-34.94849],[-58.029,-34.94955],[-58.02858,-34.95052],[-58.02866,-34.95064],[-58.02885,-34.95093],[-58.029,-34.95101],[-58.02908,-34.95105],[-58.02909,-34.95113],[-58.02903,-34.95146],[-58.03031,-34.95257],[-58.0324,-34.95099]]]]}},{"type":"Feature","properties":{"nombre":"Nueva Esperanza","descripcion":"Asentamiento en La Plata · 60 familias · desde 2000"},"geometry":{"type":"MultiPolygon","coordinates":[[[[-58.03325,-34.99277],[-58.02302,-34.9835],[-58.02266,-34.98381],[-58.03033,-34.99078],[-58.03034,-34.99084],[-58.03049,-34.99096],[-58.03054,-34.99092],[-58.03089,-34.99125],[-58.03085,-34.99127],[-58.03283,-34.99309],[-58.03325,-34.99277]]]]}},{"type":"Feature","properties":{"nombre":"La Granja","descripcion":"Asentamiento en La Plata · 150 familias · desde 2013"},"geometry":{"type":"MultiPolygon","coordinates":[[[[-58.0213,-34.92867],[-58.01819,-34.92597],[-58.01325,-34.92965],[-58.01621,-34.93239],[-58.0213,-34.92867]]]]}},{"type":"Feature","properties":{"nombre":"El Molino","descripcion":"Asentamiento en La Plata · 220 familias · desde 2012"},"geometry":{"type":"MultiPolygon","coordinates":[[[[-57.88039,-34.95114],[-57.88193,-34.95002],[-57.88447,-34.94817],[-57.88348,-34.94725],[-57.8822,-34.9482],[-57.88178,-34.94777],[-57.87882,-34.94987],[-57.88023,-34.95125],[-57.88039,-34.95114]]]]}},{"type":"Feature","properties":{"nombre":"Abasto Nuevo","descripcion":"Asentamiento en La Plata · 160 familias · desde 2015"},"geometry":{"type":"MultiPolygon","coordinates":[[[[-58.09388,-34.99185],[-58.0922,-34.99038],[-58.09106,-34.99117],[-58.09012,-34.99034],[-58.0846,-34.99452],[-58.08385,-34.99514],[-58.08649,-34.99747],[-58.09388,-34.99185]]]]}},{"type":"Feature","properties":{"nombre":"Sin Nombre","descripcion":"Asentamiento en La Plata · 20 familias"},"geometry":{"type":"MultiPolygon","coordinates":[[[[-57.89825,-34.94534],[-57.89804,-34.9455],[-57.89839,-34.94582],[-57.89794,-34.94612],[-57.89847,-34.94656],[-57.89908,-34.94611],[-57.89825,-34.94534]]],[[[-57.90096,-34.94406],[-57.9005,-34.94364],[-57.89969,-34.94423],[-57.90014,-34.94466],[-57.90096,-34.94406]]]]}},{"type":"Feature","properties":{"nombre":"La Piojera","descripcion":"Asentamiento en La Plata · 30 familias"},"geometry":{"type":"MultiPolygon","coordinates":[[[[-57.95171,-34.96487],[-57.95186,-34.96475],[-57.95084,-34.96382],[-57.9507,-34.96392],[-57.95037,-34.96363],[-57.95051,-34.96354],[-57.94842,-34.9616],[-57.9483,-34.96174],[-57.95171,-34.96487]]]]}},{"type":"Feature","properties":{"nombre":"Villa Progreso","descripcion":"Asentamiento en Berisso · 70 familias"},"geometry":{"type":"MultiPolygon","coordinates":[[[[-57.90721,-34.90792],[-57.9066,-34.9072],[-57.90599,-34.90754],[-57.90749,-34.90941],[-57.90668,-34.90982],[-57.90579,-34.9087],[-57.90507,-34.90913],[-57.9068,-34.91122],[-57.90964,-34.9096],[-57.90793,-34.90755],[-57.90721,-34.90792]]]]}},{"type":"Feature","properties":{"nombre":"Colar","descripcion":"Asentamiento en Berisso · 20 familias"},"geometry":{"type":"MultiPolygon","coordinates":[[[[-57.86705,-34.88891],[-57.8676,-34.88797],[-57.86652,-34.88751],[-57.86595,-34.88843],[-57.86705,-34.88891]]]]}},{"type":"Feature","properties":{"nombre":"Martín Fierro","descripcion":"Asentamiento en Berisso · 20 familias"},"geometry":{"type":"MultiPolygon","coordinates":[[[[-57.86871,-34.88911],[-57.86913,-34.88864],[-57.86762,-34.88797],[-57.86706,-34.88893],[-57.86811,-34.88939],[-57.86839,-34.88898],[-57.86871,-34.88911]]]]}}]}